search_keyword,near_coastline,place_url,name,address,place_name,longitude,category,phone,latitude
어란진항,True,http://place.map.kakao.com/10567220,어란진항,전남 해남군 송지면 어란리,어란진항,126.475683551779,"교통,수송 > 교통시설 > 항구,포구",,34.3505957827997
서망항,True,http://place.map.kakao.com/10500675,서망항,전남 진도군 임회면,서망항,126.133855739527,"교통,수송 > 교통시설 > 항구,포구",,34.3656233246443
상마도,True,http://place.map.kakao.com/8356862,상마도,전남 해남군 화산면 삼마리 40,상마도,126.414868500448,"여행 > 관광,명소 > 섬",,34.4613397410453
벽파진,True,http://place.map.kakao.com/8056178,벽파진,전남 진도군 고군면 벽파리 682-4,이충무공벽파진전첩비,126.343884219388,"여행 > 관광,명소 > 문화유적 > 탑,비석",061-540-3427,34.5385281181704
팽목,True,http://place.map.kakao.com/46992839,팽목,전남 진도군 임회면 연동리 1491,세월호 팽목기억관,126.13650617833558,"사회,공공기관 > 행정기관부속시설",,34.375882402110655
하조도,True,http://place.map.kakao.com/18376925,하조도,전남 진도군 조도면 창유리,하조도,126.053647924049,"여행 > 관광,명소 > 섬",,34.2971367807896
상조도,True,http://place.map.kakao.com/18376867,상조도,전남 진도군 조도면 여미리,상조도,126.025728390108,"여행 > 관광,명소 > 섬",,34.3344249123012
서거차항,True,http://place.map.kakao.com/17434404,서거차항,전남 진도군 조도면,서거차항,125.915707832881,"교통,수송 > 교통시설 > 항구,포구",,34.2499087555262
우이도항,True,http://place.map.kakao.com/18354524,우이도항,전남 신안군 도초면 우이도리 167-6,우이도항,125.8563788697739,"교통,수송 > 교통시설 > 항구,포구",,34.620879701353786
흑산도,True,http://place.map.kakao.com/10317962,흑산도,전남 신안군 흑산면 예리,흑산도,125.414154508121,"여행 > 관광,명소 > 섬",,34.6663015250018
홍도항,True,http://place.map.kakao.com/18354401,홍도항,전남 신안군 흑산면 홍도리,홍도항,125.193182158142,"교통,수송 > 교통시설 > 항구,포구",,34.6826106899747
능산도,True,http://place.map.kakao.com/18376851,능산도,전남 신안군 하의면 능산리,능산도,126.001544636985,"여행 > 관광,명소 > 섬",,34.6176194796585
비금도수대,True,http://place.map.kakao.com/25293005,비금도수대,전남 신안군 비금면 수대리,수대,125.934278821421,부동산 > 지명,,34.7213360696972
원평항,True,http://place.map.kakao.com/17434406,원평항,전남 신안군 비금면,원평항,125.912230935948,"교통,수송 > 교통시설 > 항구,포구",,34.7786661876339
하태도,True,http://place.map.kakao.com/18376909,하태도,전남 신안군 흑산면 태도리,하태도,125.299842273074,"여행 > 관광,명소 > 섬",061-246-2437,34.389370565653
하의도웅곡,True,http://place.map.kakao.com/25332964,하의도웅곡,전남 신안군 하의면 웅곡리,웅곡,126.035438851195,부동산 > 지명,,34.605716152977
우수영항,True,http://place.map.kakao.com/19149163,우수영항,전남 해남군 문내면 선두리 421-12,우수영항,126.310837070012,"교통,수송 > 교통시설 > 항구,포구",,34.5883643494342
시하도,True,http://place.map.kakao.com/18376822,시하도,전남 해남군 화원면 치하리,시하도,126.242538220731,"여행 > 관광,명소 > 섬",,34.6993267272759
월내리,True,http://place.map.kakao.com/528293263,월내리,부산 기장군 장안읍 월내리 553,웨이브온커피,129.269784558837,음식점 > 카페 > 커피전문점,051-727-1660,35.3222915727433
평사도,True,http://place.map.kakao.com/8614727,평사도,전남 신안군 신의면 고평사도리,평사도,126.145126934522,"여행 > 관광,명소 > 섬",,34.5790374943785
목포,True,http://place.map.kakao.com/8667941,목포,전남 목포시 용해동 산 86-24,목포 갓바위,126.425759127126,"여행 > 관광,명소 > 바위",,34.7920224100901
내산리,True,http://place.map.kakao.com/12728653,내산리,경남 고성군 동해면 내산리 188-10,고성내산리고분군,128.451643812055,"여행 > 관광,명소 > 문화유적 > 릉,묘,총",,35.0466005034227
임자도진리,True,http://place.map.kakao.com/17341795,임자도진리,전남 신안군 임자면 진리 431-56,신안임자도 디딤돌,126.10773460728,"가정,생활 > 식품판매 > 수산물판매",,35.0862880506569
자동리,True,http://place.map.kakao.com/1848473165,자동리,전남 신안군 지도읍 자동리 100-282,서해랑길 25코스,126.263583556708,"여행 > 관광,명소 > 도보여행 > 서해랑길",,35.0433146654324
함평만,True,http://place.map.kakao.com/1409837706,함평만,전남 함평군 손불면 산남리 2886,호남해안로드 5코스 함평만해안도로,126.413741144241,"여행 > 관광,명소 > 도보여행",,35.1191827056835
안마도,True,http://place.map.kakao.com/18376877,안마도,전남 영광군 낙월면 월촌리,안마도,126.02818142772,"여행 > 관광,명소 > 섬",,35.3459020602136
영광,True,http://place.map.kakao.com/8435660,영광,전남 영광군 백수읍 대신리 산 234-11,백수해안도로,126.395949459623,"여행 > 관광,명소 > 드라이브코스",,35.3635569432416
위도,True,http://place.map.kakao.com/18080975,위도,전북특별자치도 부안군 위도면 치도리,위도,126.282739994419,"여행 > 관광,명소 > 섬",,35.5954993755997
하왕등도,True,http://place.map.kakao.com/8127467,하왕등도,전북특별자치도 부안군 위도면 하왕등리,하왕등도,126.11967996132,"여행 > 관광,명소 > 섬",,35.6427078898595
선유도,True,http://place.map.kakao.com/14864632,선유도,전북특별자치도 군산시 옥도면 선유도리,선유도,126.410505924295,"여행 > 관광,명소 > 섬",,35.8106890647466
말도항,True,http://place.map.kakao.com/17434452,말도항,전북특별자치도 군산시 옥도면 말도리 산 34,말도여객선선착장,126.3210444898925,"교통,수송 > 교통시설 > 항구,포구",,35.853643280846605
군산연도항,True,http://place.map.kakao.com/17434455,군산연도항,전북특별자치도 군산시 옥도면 연도리 177-4,연도항(군산),126.44270052481095,"교통,수송 > 교통시설 > 항구,포구",,36.081292294547275
비응항,True,http://place.map.kakao.com/18349577,비응항,전북특별자치도 군산시 오식도동,비응항,126.530724751931,"교통,수송 > 교통시설 > 선착장,항만시설",,35.937305992174
군산내항,True,http://place.map.kakao.com/8662578,군산내항,전북특별자치도 군산시 장미동 1-4,군산내항,126.715963434737,"교통,수송 > 교통시설 > 항구,포구",,35.9895352352431
군산외항,True,http://place.map.kakao.com/176242368,군산외항,전북특별자치도 군산시 소룡동 11-6,군산외항방파제,126.621508021269,"여행 > 관광,명소 > 방조제",,35.9782001125224
군산죽도,True,http://place.map.kakao.com/21029574,군산죽도,전북특별자치도 군산시 수송동 821,죽이야기 군산수송점,126.71448855838668,음식점 > 한식 > 죽 > 죽이야기,063-467-8097,35.96336170638836
서천마량,True,http://place.map.kakao.com/17520575,서천마량,충남 서천군 서면 마량리 339-12,서천서부수협 마량위판장,126.50364868766927,"가정,생활 > 식품판매 > 수산물판매",,36.12977300685991
어청도,True,http://place.map.kakao.com/18376879,어청도,전북특별자치도 군산시 옥도면 어청도리,어청도,125.979658570926,"여행 > 관광,명소 > 섬",,36.1197111896616
외연도항,True,http://place.map.kakao.com/17434460,외연도항,충남 보령시 오천면 외연도리 160-87,외연도항,126.0823063594534,"교통,수송 > 교통시설 > 항구,포구",,36.225132520796635
대천항,True,http://place.map.kakao.com/18377106,대천항,충남 보령시 신흑동 2245,대천항,126.5123114185944,"교통,수송 > 교통시설 > 항구,포구",041-932-2023,36.32755927722483
보령,True,http://place.map.kakao.com/10410075,보령,충남 보령시 웅천읍 관당리 799-1,무창포해수욕장,126.53663345813,"여행 > 관광,명소 > 해수욕장,해변",041-936-3561,36.2453123693452
소도,True,http://place.map.kakao.com/7966428,소도,충남 보령시 오천면 효자도리,소도,126.433808741883,"여행 > 관광,명소 > 섬",,36.3992226427342
간월도항,True,http://place.map.kakao.com/19585893,간월도항,충남 홍성군 서부면 궁리,궁리항,126.45631064238,"교통,수송 > 교통시설 > 항구,포구",,36.5879445303121
외도,True,http://place.map.kakao.com/13323388,외도,제주특별자치도 제주시 내도동 465-2,알작지해변,126.43979648686667,"여행 > 관광,명소 > 해수욕장,해변",,33.495927122987865
안흥신진도,True,http://place.map.kakao.com/10065233,안흥신진도,충남 태안군 근흥면 신진도리 85,안흥초등학교 신진도분교장,126.139163225971,"교육,학문 > 학교 > 초등학교",041-674-9327,36.6828730096505
가의도항,True,http://place.map.kakao.com/18354422,가의도항,충남 태안군 근흥면 가의도리,가의도항,126.064592761539,"교통,수송 > 교통시설 > 항구,포구",,36.6722867433321
모항항,True,http://place.map.kakao.com/8312298,모항항,충남 태안군 소원면 모항리,모항항,126.134377327847,"교통,수송 > 교통시설 > 항구,포구",041-670-2114,36.7759934066356
천리포항,True,http://place.map.kakao.com/8601613,천리포항,충남 태안군 소원면 의항리 978-90,천리포항,126.147625062728,"교통,수송 > 교통시설 > 항구,포구",,36.8040155219472
학암포,True,http://place.map.kakao.com/8650114,학암포,충남 태안군 원북면 방갈리 515-121,학암포해수욕장,126.203812175173,"여행 > 관광,명소 > 해수욕장,해변",041-674-7865,36.8984381029039
백아도,True,http://place.map.kakao.com/18376756,백아도,인천 옹진군 덕적면 백아리,백아도,125.950850474784,"여행 > 관광,명소 > 섬",,37.0878836733331
굴업도,True,http://place.map.kakao.com/18376847,굴업도,인천 옹진군 덕적면 굴업리 산 4,굴업도,125.97941900801521,"여행 > 관광,명소 > 섬",,37.18998083264322
소야도,True,http://place.map.kakao.com/18376820,소야도,인천 옹진군 덕적면 소야리,소야도,126.16851647134,"여행 > 관광,명소 > 섬",,37.2186267671783
덕적도진리,True,http://place.map.kakao.com/18376803,덕적도진리,인천 옹진군 덕적면 진리,덕적도,126.125551364273,"여행 > 관광,명소 > 섬",,37.2318326363454
덕적도북리,True,http://place.map.kakao.com/17434493,덕적도북리,인천 옹진군 덕적면,덕적도항,126.120599045101,"교통,수송 > 교통시설 > 항구,포구",,37.2522850872044
우무도,True,http://place.map.kakao.com/14864895,우무도,충남 당진시 석문면 난지도리 산 13,우무도,126.44691386523,"여행 > 관광,명소 > 섬",,37.0312169625904
삼길포항,True,http://place.map.kakao.com/26974768,삼길포항,충남 서산시 대산읍 화곡리 1891,삼길포항,126.452790265696,"교통,수송 > 교통시설 > 항구,포구",,37.0035417628837
대산,True,http://place.map.kakao.com/12435035,대산,충남 서산시 대산읍 오지리,벌천포해수욕장,126.336562827618,"여행 > 관광,명소 > 해수욕장,해변",,36.9674289105816
풍도항,True,http://place.map.kakao.com/18354460,풍도항,경기 안산시 단원구 풍도동,풍도항,126.393561738336,"교통,수송 > 교통시설 > 항구,포구",,37.1129633328244
국화도,True,http://place.map.kakao.com/8215120,국화도,경기 화성시 우정읍 국화리 100,국화도,126.554282213197,"여행 > 관광,명소 > 섬",,37.0596163660571
한진리,True,http://place.map.kakao.com/1795960083,한진리,충남 당진시 송악읍 한진리,한진포구 전망대,126.783114851936,"여행 > 관광,명소 > 전망대",,36.9712045897978
제부도,True,http://place.map.kakao.com/8069124,제부도,경기 화성시 서신면 제부리,제부도,126.624022794909,"여행 > 관광,명소 > 섬",031-355-3924,37.1722091969137
영흥도,True,http://place.map.kakao.com/8020553,영흥도,인천 옹진군 영흥면 내리 358-2,영흥도,126.464947105327,"여행 > 관광,명소 > 섬",032-899-3407,37.263006262889
이작도,True,http://place.map.kakao.com/18376747,이작도,인천 옹진군 자월면 이작리,대이작도,126.263621482988,"여행 > 관광,명소 > 섬",032-899-3752,37.1725070938665
팔미도,True,http://place.map.kakao.com/8133695,팔미도,인천 중구 무의동 372,팔미도,126.511340770511,"여행 > 관광,명소 > 섬",,37.3582470900538
소무의도,True,http://place.map.kakao.com/7959279,소무의도,인천 중구 무의동,소무의도,126.443301802566,"여행 > 관광,명소 > 섬",,37.3719950743652
대무의도,True,http://place.map.kakao.com/18376755,대무의도,인천 중구 무의동,무의도,126.418467797483,"여행 > 관광,명소 > 섬",,37.3868071480195
용유도,True,http://place.map.kakao.com/8031472,용유도,인천 중구 을왕동,용유도,126.392623798853,"여행 > 관광,명소 > 섬",,37.4499530268441
안산탄도,True,http://place.map.kakao.com/25043829,안산탄도,경기 안산시 단원구 선감동 산 147-7,탄도,126.647603635896,"여행 > 관광,명소 > 섬 > 섬(내륙)",,37.197809304906485
영종도,True,http://place.map.kakao.com/18376773,영종도,인천 중구 운남동,영종도,126.531476006286,"여행 > 관광,명소 > 섬",,37.5028287435371
장봉항,True,http://place.map.kakao.com/17434499,장봉항,인천 옹진군 북도면 장봉리,장봉항,126.384234124187,"교통,수송 > 교통시설 > 항구,포구",,37.5308981582233
아차도,True,http://place.map.kakao.com/18376675,아차도,인천 강화군 서도면 아차도리,아차도,126.226863575146,"여행 > 관광,명소 > 섬",,37.6618819950026
월곶포구,True,http://place.map.kakao.com/12316768,월곶포구,경기 시흥시 월곶동,월곶포구,126.738493592692,"교통,수송 > 교통시설 > 항구,포구",,37.3877893051189
강화외포,True,http://place.map.kakao.com/8023646,강화외포,인천 강화군 내가면 외포리 359,외포리마을,126.393741149408,부동산 > 지명,,37.7061977956789
미법도,True,http://place.map.kakao.com/18376837,미법도,인천 강화군 삼산면 미법리,미법도,126.263498065583,"여행 > 관광,명소 > 섬",,37.730553136523
강화대교,True,http://place.map.kakao.com/1648201989,강화대교,경기 김포시 월곶면 포내리 271-52,강화대교,126.523224594264,"교통,수송 > 도로시설 > 교량,다리 > 대교",,37.7337997902871
모도,True,http://place.map.kakao.com/7869332,모도,인천 옹진군 북도면 모도리,모도,126.408644548745,"여행 > 관광,명소 > 섬",032-899-3401,37.5331276251711
주문항,True,http://place.map.kakao.com/18354533,주문항,인천 강화군 서도면 주문도리,주문항,126.235983942068,"교통,수송 > 교통시설 > 항구,포구",,37.6548634712953
세어도,True,http://place.map.kakao.com/14864776,세어도,인천 서구 원창동,세어도,126.563627608438,"여행 > 관광,명소 > 섬",,37.5740150446303
황산도,True,http://place.map.kakao.com/8182783,황산도,인천 강화군 길상면 초지리,황산도,126.540183404075,"여행 > 관광,명소 > 섬",,37.6208132489286
승봉도,True,http://place.map.kakao.com/18376875,승봉도,인천 옹진군 자월면 승봉리,승봉도,126.308453090138,"여행 > 관광,명소 > 섬",032-440-2114,37.1670862608417
소연평도,True,http://place.map.kakao.com/18376730,소연평도,인천 옹진군 연평면 연평리,소연평도,125.717451344775,"여행 > 관광,명소 > 섬",,37.6101296355955
대연평도,True,http://place.map.kakao.com/7820998,대연평도,인천 옹진군 연평면 연평리,대연평도,125.696192593183,"여행 > 관광,명소 > 섬",,37.6684495600986
상가리도,True,http://place.map.kakao.com/878819879,상가리도,제주특별자치도 제주시 애월읍 상가리 536,상가리야자숲,126.35827996412,"여행 > 관광,명소 > 숲",,33.4392078372321
백사장항,True,http://place.map.kakao.com/7885207,백사장항,충남 태안군 안면읍 창기리 2200,백사장항,126.3180580843,"교통,수송 > 교통시설 > 항구,포구",,36.5864010846824
입파도,True,http://place.map.kakao.com/8054670,입파도,경기 화성시 우정읍 국화리,입파도,126.53954583277,"여행 > 관광,명소 > 섬",,37.1062819358946
왜목항,True,http://place.map.kakao.com/10705219,왜목항,충남 당진시 석문면 교로리,왜목항,126.52907666260536,"교통,수송 > 교통시설 > 항구,포구",,37.048800806411414
홍성죽도,True,http://place.map.kakao.com/8081880,홍성죽도,충남 홍성군 서부면 죽도리 29,죽도,126.44143565866811,"여행 > 관광,명소 > 섬",041-630-9609,36.51837640904338
다사항,True,http://place.map.kakao.com/21371729,다사항,충남 서천군 비인면 다사리,다사항,126.612699420126,"교통,수송 > 교통시설 > 항구,포구",,36.096358226481
마서면,True,http://place.map.kakao.com/19327722,마서면,충남 서천군 마서면 덕암리 725,국립생태원,126.718640924183,"여행 > 관광,명소",041-950-5300,36.0362143638241
군산1부두,True,http://place.map.kakao.com/25461446,군산1부두,전북특별자치도 군산시 소룡동 11,군산항 1부두,126.627572087742,"교통,수송 > 교통시설 > 항구,포구 > 부두",,35.9734497710663
십이동파도,True,http://place.map.kakao.com/21606947,십이동파도,전북특별자치도 군산시 옥도면 연도리,십이동파도,126.228184442629,"여행 > 관광,명소 > 섬",,35.9890650391971
비안도,True,http://place.map.kakao.com/18376812,비안도,전북특별자치도 군산시 옥도면 비안도리,비안도,126.453608495564,"여행 > 관광,명소 > 섬",,35.7388896723783
곰소항,True,http://place.map.kakao.com/10158551,곰소항,전북특별자치도 부안군 진서면 진서리,곰소항,126.605688125741,"교통,수송 > 교통시설 > 항구,포구",,35.5859894267529
도리포,True,http://place.map.kakao.com/7837195,도리포,전남 무안군 해제면 송석리,도리포,126.343784762095,"교통,수송 > 교통시설 > 항구,포구",,35.1549310601287
영종대교,True,http://place.map.kakao.com/276924778,영종대교,인천 서구 원창동 434-1,영종대교,126.58652968835,"교통,수송 > 도로시설 > 교량,다리 > 대교",,37.5462829925671
태안,True,http://place.map.kakao.com/8082599,태안,충남 태안군 소원면 의항리 868,천리포수목원,126.149497313658,"여행 > 관광,명소 > 수목원,식물원",041-672-9982,36.7988639112436
인천송도,True,http://place.map.kakao.com/11817170,인천송도,인천 연수구 송도동,오션스코프 경관조형물,126.628178660939,"여행 > 관광,명소 > 전망대",,37.3961689015093
무창포항,True,http://place.map.kakao.com/14654737,무창포항,충남 보령시 웅천읍 관당리 888-57,무창포항,126.537013062302,"교통,수송 > 교통시설 > 항구,포구",,36.2488573086794
변산반도,True,http://place.map.kakao.com/17805956,변산반도,전북특별자치도 부안군 변산면 격포리 788-10,변산반도,126.47071673238918,"음식점 > 한식 > 해물,생선 > 회",063-582-8888,35.62375780166608
실미도,True,http://place.map.kakao.com/8420488,실미도,인천 중구 무의동,실미도,126.391544003395,"여행 > 관광,명소 > 섬",,37.4018554808734
웅도,True,http://place.map.kakao.com/8034896,웅도,충남 서산시 대산읍 웅도리,웅도,126.378645566605,"여행 > 관광,명소 > 섬",,36.9238607086271
송호리,True,http://place.map.kakao.com/7851103,송호리,전남 해남군 송지면 송호리 1161,땅끝마을,126.52709485983617,"여행 > 관광,명소",061-530-5544,34.298519778347504
관매도,True,http://place.map.kakao.com/8183857,관매도,전남 진도군 조도면 관매도리 산 189,관매도,126.04807894364804,"여행 > 관광,명소 > 섬",,34.23654530185997
성남도,True,http://place.map.kakao.com/18376817,성남도,전남 진도군 조도면 성남도리,성남도,126.046236424436,"여행 > 관광,명소 > 섬",,34.3995831953281
신의도,True,http://place.map.kakao.com/18376823,신의도,전남 신안군 신의면 상태동리,신의도,126.091086182244,"여행 > 관광,명소 > 섬",061-271-7002,34.5832658052369
자은도,True,http://place.map.kakao.com/8055035,자은도,전남 신안군 자은면 구영리 1194-3,자은도,126.032523284756,"여행 > 관광,명소 > 섬",061-271-8377,34.8906286702509
세방리,True,http://place.map.kakao.com/23957479,세방리,전남 진도군 지산면 가학리 74,세방리마을회관,126.108869139798,"가정,생활 > 친목 > 마을회관",,34.4424911541254
고사도,True,http://place.map.kakao.com/18376682,고사도,전남 신안군 신의면 고평사도리,고사도,126.151124929402,"여행 > 관광,명소 > 섬",,34.5662180221717
별암,True,http://place.map.kakao.com/27153989,별암,전남 해남군 화원면 영호리 970,별암선착장,126.34766939569977,"교통,수송 > 교통시설 > 선착장,항만시설",,34.70007007554838
압해송공항,True,http://place.map.kakao.com/18354437,압해송공항,전남 신안군 압해읍 송공리,송공항,126.226944626086,"교통,수송 > 교통시설 > 항구,포구",,34.8477811809242
매화도,True,http://place.map.kakao.com/18376861,매화도,전남 신안군 압해읍 매화리,매화도,126.236095974112,"여행 > 관광,명소 > 섬",,34.9246323299216
선도리,True,http://place.map.kakao.com/10459484,선도리,충남 서천군 비인면 선도리 727,비인해수욕장,126.59142604926414,"여행 > 관광,명소 > 해수욕장,해변",,36.12865903522579
홀통,True,http://place.map.kakao.com/8176367,홀통,전남 무안군 현경면 오류리 2-1,홀통해수욕장,126.336882937045,"여행 > 관광,명소 > 해수욕장,해변",061-450-5628,35.0618781054155
증도,True,http://place.map.kakao.com/18376679,증도,전남 신안군 증도면 대초리,증도,126.155052226332,"여행 > 관광,명소 > 섬",,34.9935001629027
재원도,True,http://place.map.kakao.com/18376889,재원도,전남 신안군 임자면 재원리,재원도,126.020713089508,"여행 > 관광,명소 > 섬",,35.0907359974313
전장포항,True,http://place.map.kakao.com/8058878,전장포항,전남 신안군 임자면,전장포항,126.143375828814,"교통,수송 > 교통시설 > 항구,포구",,35.1366663755812
향화도항,True,http://place.map.kakao.com/13015525,향화도항,전남 영광군 염산면 옥실리,향화도항,126.359827701502,"교통,수송 > 교통시설 > 항구,포구",,35.1686631819236
낙월도,True,http://place.map.kakao.com/1156398235,낙월도,전남 영광군 낙월면 상낙월리 443,낙월도펜션,126.136213639016,여행 > 숙박 > 펜션,,35.2018028552586
송이도,True,http://place.map.kakao.com/18376821,송이도,전남 영광군 낙월면 송이리,송이도,126.144269011903,"여행 > 관광,명소 > 섬",,35.2838110734424
구시포항,True,http://place.map.kakao.com/10135686,구시포항,전북특별자치도 고창군 상하면 자룡리 산 96,구시포항,126.436777673269,"교통,수송 > 교통시설 > 항구,포구",,35.4492702627037
동호항,True,http://place.map.kakao.com/22138014,동호항,전북특별자치도 고창군 해리면 동호리,동호항,126.486691965726,"교통,수송 > 교통시설 > 항구,포구",,35.5213551935646
줄포,True,http://place.map.kakao.com/25888494,줄포,전북특별자치도 부안군 줄포면 우포리 516-1,부안 줄포만 노을빛 정원,126.66830869893178,"여행 > 관광,명소 > 국가정원",063-580-4191,35.58090005805022
가력도항,True,http://place.map.kakao.com/18937447,가력도항,전북특별자치도 부안군 변산면 대항리 583,가력도항,126.53060620133895,"교통,수송 > 교통시설 > 항구,포구",,35.727591106184924
야미도,True,http://place.map.kakao.com/7997045,야미도,전북특별자치도 군산시 옥도면 야미도리,야미도,126.492776950465,"여행 > 관광,명소 > 섬 > 섬(내륙)",063-454-7280,35.8418978656792
방축도,True,http://place.map.kakao.com/18376810,방축도,전북특별자치도 군산시 옥도면 말도리,방축도,126.3745397754,"여행 > 관광,명소 > 섬",,35.8510668194364
녹도항,True,http://place.map.kakao.com/18354306,녹도항,충남 보령시 오천면 녹도리 240-1,녹도항,126.2669491862219,"교통,수송 > 교통시설 > 항구,포구",,36.269495847853484
호도,True,http://place.map.kakao.com/18376920,호도,충남 보령시 오천면 녹도리,호도,126.261095811264,"여행 > 관광,명소 > 섬",041-932-4301,36.2967399976983
삽시도,True,http://place.map.kakao.com/18376866,삽시도,충남 보령시 오천면 삽시도리,삽시도,126.355071183987,"여행 > 관광,명소 > 섬",,36.3385141126147
원산도,True,http://place.map.kakao.com/18376777,원산도,충남 보령시 오천면 원산도리,원산도,126.423560844165,"여행 > 관광,명소 > 섬",,36.3710213186652
영목항,True,http://place.map.kakao.com/8004672,영목항,충남 태안군 고남면 고남리,영목항,126.427643173593,"교통,수송 > 교통시설 > 항구,포구",,36.3996834855087
오천항,True,http://place.map.kakao.com/10621096,오천항,충남 보령시 오천면 소성리,오천항,126.519632363757,"교통,수송 > 교통시설 > 항구,포구",041-932-2023,36.4392677794874
남당항,True,http://place.map.kakao.com/10185776,남당항,충남 홍성군 서부면 남당리 863,남당항,126.468893603312,"교통,수송 > 교통시설 > 항구,포구",,36.5369319982009
안면암,True,http://place.map.kakao.com/8000214,안면암,충남 태안군 안면읍 정당리 178-7,안면암,126.375062567838,"문화,예술 > 종교 > 불교 > 절,사찰",041-673-2333,36.5593480287007
방포항,True,http://place.map.kakao.com/17766928,방포항,충남 태안군 안면읍 승언리,방포항,126.335852160582,"교통,수송 > 교통시설 > 항구,포구",,36.5038279534391
채석포항,True,http://place.map.kakao.com/7832556,채석포항,충남 태안군 근흥면 도황리 8-26,채석포항,126.22868966453476,"교통,수송 > 교통시설 > 항구,포구",,36.693622232058104
정죽리,True,http://place.map.kakao.com/8134619,정죽리,충남 태안군 근흥면 정죽리 산 147-46,갈음이해수욕장,126.152426998235,"여행 > 관광,명소 > 해수욕장,해변",041-675-1363,36.6959692492309
통개항,True,http://place.map.kakao.com/8568008,통개항,충남 태안군 소원면 파도리,통개항,126.142507746509,"교통,수송 > 교통시설 > 항구,포구",,36.7250361023916
어은돌항,True,http://place.map.kakao.com/24925117,어은돌항,충남 태안군 소원면 모항리 1097-21,어은돌항,126.126538832261,"교통,수송 > 교통시설 > 항구,포구",,36.7508930614693
구도항,True,http://place.map.kakao.com/18354244,구도항,충남 서산시 팔봉면 호리,구도항,126.327259627593,"교통,수송 > 교통시설 > 항구,포구",,36.8274207399301
의항항,True,http://place.map.kakao.com/12887457,의항항,충남 태안군 소원면 의항리,개목항,126.16796998338,"교통,수송 > 교통시설 > 항구,포구",,36.8325617374235
황촌리,True,http://place.map.kakao.com/25789753,황촌리,충남 태안군 원북면 황촌리 810-1,구례포해수욕장,126.200101136181,"여행 > 관광,명소 > 해수욕장,해변",041-670-2691,36.8872290465847
만대항,True,http://place.map.kakao.com/12802678,만대항,충남 태안군 이원면 내리,만대항,126.304401456675,"교통,수송 > 교통시설 > 항구,포구",,36.9669529010062
고파도항,True,http://place.map.kakao.com/18354184,고파도항,충남 서산시 팔봉면 고파도리,고파도항,126.337847997534,"교통,수송 > 교통시설 > 항구,포구",,36.9118433795185
대난지도,True,http://place.map.kakao.com/25035658,대난지도,충남 당진시 석문면 난지도리 산 2-69,대난지도,126.433540700441,"여행 > 관광,명소 > 섬",,37.0510313454336
장고항,True,http://place.map.kakao.com/26225395,장고항,충남 당진시 석문면 장고항리 615-5,장고항,126.559905728477,"교통,수송 > 교통시설 > 항구,포구",,37.0312429033031
성구미,True,http://place.map.kakao.com/25284452,성구미,충남 당진시 송산면 가곡리,성구미,126.690384363943,부동산 > 지명,,36.9984558310089
삽교호,True,http://place.map.kakao.com/15147754,삽교호,충남 아산시 인주면 대음리 692,삽교호,126.83952117376765,"여행 > 관광,명소 > 호수",,36.85217039164003
화옹방조제,True,http://place.map.kakao.com/8166140,화옹방조제,경기 화성시 우정읍 매향리 977,화성방조제,126.717090482648,"여행 > 관광,명소 > 방조제",,37.0868708781152
울도항,True,http://place.map.kakao.com/17434490,울도항,인천 옹진군 덕적면 울도리,울도항,125.998225776331,"교통,수송 > 교통시설 > 항구,포구",,37.0271022286573
선갑도,True,http://place.map.kakao.com/11141954,선갑도,인천 옹진군 자월면 승봉리 산 240,선갑도,126.07921129863,"여행 > 관광,명소 > 섬",,37.0922404328576
자월도,True,http://place.map.kakao.com/18376887,자월도,인천 옹진군 자월면 자월리,자월도,126.311332280805,"여행 > 관광,명소 > 섬",032-833-6011,37.2571666261319
선재도,True,http://place.map.kakao.com/8375024,선재도,인천 옹진군 영흥면 선재리,선재도,126.521970552885,"여행 > 관광,명소 > 섬",,37.2546759922328
방아머리,True,http://place.map.kakao.com/7887894,방아머리,경기 안산시 단원구 대부북동,방아머리,126.573967558999,부동산 > 지명,,37.2872973242526
오이도,True,http://place.map.kakao.com/8019980,오이도,경기 시흥시 정왕동 1073,오이도,126.693593551653,"여행 > 관광,명소 > 섬 > 섬(내륙)",,37.3429619031973
후포항,True,http://place.map.kakao.com/8179637,후포항,경북 울진군 후포면 후포리 1056,후포항,129.457947371606,"교통,수송 > 교통시설 > 항구,포구",,36.6782082392212
월선포,True,http://place.map.kakao.com/27184503,월선포,인천 강화군 교동면 상용리,월선포선착장,126.317281004546,"교통,수송 > 교통시설 > 선착장,항만시설",,37.7745009598768
죽산포,True,http://place.map.kakao.com/10797902,죽산포,인천 강화군 교동면 동산리,죽산포,126.236522576188,부동산 > 지명,,37.7566387541233
매음리,True,http://place.map.kakao.com/588636297,매음리,인천 강화군 삼산면 매음리 645-27,석모도미네랄온천,126.31271829654287,"여행 > 관광,명소 > 온천",032-930-7053,37.68550157695992
어류정항,True,http://place.map.kakao.com/8007085,어류정항,인천 강화군 삼산면 매음리 855-41,어류정항,126.344292722714,"교통,수송 > 교통시설 > 항구,포구",,37.6450351979249
신도,True,http://place.map.kakao.com/18376876,신도,인천 옹진군 북도면 신도리,신도,126.454716424347,"여행 > 관광,명소 > 섬",,37.5266351611673
소청도,True,http://place.map.kakao.com/18376676,소청도,인천 옹진군 대청면 소청리,소청도,124.749675606199,"여행 > 관광,명소 > 섬",,37.7739263502605
밀매도,True,http://place.map.kakao.com/15299056,밀매도,전남 진도군 의신면 구자도리,밀매도,126.330414858826,"여행 > 관광,명소 > 섬",,34.2502612009312
장산도,True,http://place.map.kakao.com/18376781,장산도,전남 신안군 장산면 도창리,장산도,126.157444487767,"여행 > 관광,명소 > 섬",061-271-2532,34.6439775264098
요력도,True,http://place.map.kakao.com/8460958,요력도,전남 신안군 안좌면 산두리,요력도,126.187642978988,"여행 > 관광,명소 > 섬",,34.7275869850026
주광리,True,http://place.map.kakao.com/17797780,주광리,전남 해남군 화원면 주광리 384,오시아노관광단지,126.263609032419,"여행 > 관광,명소 > 관광단지",061-534-6790,34.6853002523827
달리도,True,http://place.map.kakao.com/18376744,달리도,전남 목포시 달동,달리도,126.3161427855,"여행 > 관광,명소 > 섬",,34.7736768076335
검산항,True,http://place.map.kakao.com/19293768,검산항,전남 신안군 증도면 방축리 873-5,검산항,126.106724043685,"교통,수송 > 교통시설 > 항구,포구",,34.9942213652889
계마항,True,http://place.map.kakao.com/10165873,계마항,전남 영광군 홍농읍 계마리,계마항,126.407232863823,"교통,수송 > 교통시설 > 항구,포구",,35.3896138428221
격포항,True,http://place.map.kakao.com/18354436,격포항,전북특별자치도 부안군 변산면 격포리 788-15,격포항,126.4700101157094,"교통,수송 > 교통시설 > 항구,포구",,35.62043438689184
하섬,True,http://place.map.kakao.com/10867045,하섬,전북특별자치도 부안군 변산면 마포리,하섬,126.485526366674,"여행 > 관광,명소 > 섬",063-582-8932,35.6636772604355
수룡항포구,True,http://place.map.kakao.com/26252141,수룡항포구,충남 홍성군 서부면 신리,수룡항포구,126.482974431414,"교통,수송 > 교통시설 > 항구,포구",,36.5152330605916
궁시도,True,http://place.map.kakao.com/27575144,궁시도,충남 태안군 근흥면 가의도리 산 18-1,궁시도,125.85840634619609,"여행 > 관광,명소 > 섬",,36.663144145891316
북격렬비도,True,http://place.map.kakao.com/23347833,북격렬비도,충남 태안군 근흥면 가의도리 511-1,북격렬비도,125.559993115344,"여행 > 관광,명소 > 섬",,36.6255241972874
평택동부두,True,http://place.map.kakao.com/8635185,평택동부두,경기 평택시 포승읍 만호리 564,평택항만,126.841090170065,"교통,수송 > 교통시설 > 선착장,항만시설",031-612-0914,36.9613005840228
잠진도,True,http://place.map.kakao.com/18376833,잠진도,인천 중구 덕교동,잠진도,126.414215523384,"여행 > 관광,명소 > 섬",,37.4184079561186
예단포,True,http://place.map.kakao.com/8017995,예단포,인천 중구 운북동,예단포,126.501927848408,"교통,수송 > 교통시설 > 항구,포구",,37.5313090257904
건평나루,True,http://place.map.kakao.com/27169543,건평나루,인천 강화군 양도면 건평리 623-16,건평나루,126.39915147732,"교통,수송 > 교통시설 > 선착장,항만시설",,37.6799245510712
어란리,True,http://place.map.kakao.com/8465885,어란리,전남 해남군 송지면 어란리,어불도,126.471397809665,"여행 > 관광,명소 > 섬",,34.3407405523919
암태도,True,http://place.map.kakao.com/18376715,암태도,전남 신안군 암태면 기동리,암태도,126.100766766151,"여행 > 관광,명소 > 섬",,34.8448333707131
대야도,True,http://place.map.kakao.com/18376854,대야도,전남 신안군 하의면 능산리,대야도,125.964583402819,"여행 > 관광,명소 > 섬",,34.6337129716694
신안옥도,True,http://place.map.kakao.com/18376828,신안옥도,전남 신안군 하의면 옥도리,옥도,126.070016091428,"여행 > 관광,명소 > 섬",,34.6814060614524
상왕등도,True,http://place.map.kakao.com/18376704,상왕등도,전북특별자치도 부안군 위도면 상왕등리,상왕등도,126.106841121129,"여행 > 관광,명소 > 섬",,35.6617919793221
곰섬항,True,http://place.map.kakao.com/8269439,곰섬항,충남 태안군 남면 신온리,드르니항,126.31472940261,"교통,수송 > 교통시설 > 항구,포구",,36.5893016426221
궁평항,True,http://place.map.kakao.com/14973250,궁평항,경기 화성시 서신면 궁평리 689,궁평항,126.68128091828125,"교통,수송 > 교통시설 > 항구,포구",,37.11600963592948
시화호,True,http://place.map.kakao.com/27300877,시화호,경기 안산시 단원구 대부동동 2098-1,시화호,126.613320733937,"여행 > 관광,명소 > 호수",,37.3126504851014
도초도,True,http://place.map.kakao.com/7833136,도초도,전남 신안군 도초면 수항리,도초도,125.961015011776,"여행 > 관광,명소 > 섬",,34.6945474448819
점암,True,http://place.map.kakao.com/837860756,점암,전남 고흥군 점암면 여호리 732,남파랑길 65코스,127.46166917974608,"여행 > 관광,명소 > 도보여행 > 남파랑길",,34.66370118605962
성내리,True,http://place.map.kakao.com/8006805,성내리,경북 영덕군 영해면 성내리 24-1,영해향교,129.413734875478,"여행 > 관광,명소 > 문화유적 > 향교,서당",,36.538369530945
팔금도,True,http://place.map.kakao.com/18376789,팔금도,전남 신안군 팔금면 읍리,팔금도,126.144651417829,"여행 > 관광,명소 > 섬",,34.7844909299764
안좌도,True,http://place.map.kakao.com/18376770,안좌도,전남 신안군 안좌면 읍동리,안좌도,126.123068555346,"여행 > 관광,명소 > 섬",061-262-4050,34.7472004533232
쉬미항,True,http://place.map.kakao.com/11126226,쉬미항,전남 진도군 진도읍 산월리,쉬미항,126.200345181697,"교통,수송 > 교통시설 > 항구,포구",,34.5049545000455
외병도,True,http://place.map.kakao.com/18376829,외병도,전남 진도군 조도면 외병도리,외병도,125.938320614117,"여행 > 관광,명소 > 섬",,34.3715183119801
울돌목,True,http://place.map.kakao.com/303179868,울돌목,전남 해남군 문내면 학동리 1467-10,울돌목스카이워크,126.30700294749877,"여행 > 관광,명소",061-535-9900,34.57269034462926
원포리,True,http://place.map.kakao.com/25178053,원포리,전남 진도군 고군면 원포리,고잔골,126.381319969787,"여행 > 관광,명소 > 계곡",,34.4834329761439
땅끝항,True,http://place.map.kakao.com/2050401817,땅끝항,전남 해남군 송지면 송호리 1310,땅끝항,126.529575695578,"교통,수송 > 교통시설 > 항구,포구",,34.29834542825679
나리,True,http://place.map.kakao.com/18376884,나리,경북 울릉군 북면 나리,울릉도,130.860436808926,"여행 > 관광,명소 > 섬",054-791-2191,37.5061925878659
가사도,True,http://place.map.kakao.com/18376842,가사도,전남 진도군 조도면 가사도리,가사도,126.050766571877,"여행 > 관광,명소 > 섬",,34.4798449485682
진도옥도,True,http://place.map.kakao.com/18376881,진도옥도,전남 진도군 조도면 옥도리,옥도,126.018247537574,"여행 > 관광,명소 > 섬",,34.3557146752633
상태도,True,http://place.map.kakao.com/18376760,상태도,전남 신안군 흑산면 태도리,상태도,125.288542524834,"여행 > 관광,명소 > 섬",,34.4417313262678
만재도,True,http://place.map.kakao.com/7863272,만재도,전남 신안군 흑산면 만재도리,만재도,125.468703677625,"여행 > 관광,명소 > 섬",,34.2095424238836
흑산도사리,True,http://place.map.kakao.com/13123318,흑산도사리,전남 신안군 흑산면 사리,흑산도일주도로,125.406478049825,"여행 > 관광,명소 > 드라이브코스",,34.6485825947729
목포북항,True,http://place.map.kakao.com/529577381,목포북항,전남 목포시 산정동 1827,망향탑,126.366647360733,"여행 > 관광,명소 > 문화유적 > 탑,비석",,34.8097795797911
돈목항,True,http://place.map.kakao.com/18354444,돈목항,전남 신안군 도초면 우이도리 802-2,돈목항,125.82491809123806,"교통,수송 > 교통시설 > 항구,포구",,34.60454974667846
율도,True,http://place.map.kakao.com/8219392,율도,전남 목포시 율도동,율도(눌도),126.323546443696,"여행 > 관광,명소 > 섬",,34.803464132188
분매리,True,http://place.map.kakao.com/527733692,분매리,전남 신안군 압해읍 분매리 595-35,충혼탑,126.34549213481,"여행 > 관광,명소 > 문화유적 > 탑,비석",,34.8483570186597
법성포,True,http://place.map.kakao.com/7896062,법성포,전남 영광군 법성면 진내리 482-85,법성포,126.43988656237642,"교통,수송 > 교통시설 > 항구,포구",,35.36135034290715
개야도,True,http://place.map.kakao.com/18376791,개야도,전북특별자치도 군산시 옥도면 개야도리,개야도,126.550339635337,"여행 > 관광,명소 > 섬",,36.0389889944502
홍원항,True,http://place.map.kakao.com/8176331,홍원항,충남 서천군 서면 도둔리,홍원항,126.501739043113,"교통,수송 > 교통시설 > 항구,포구",,36.1563036681086
월전죽도,True,http://place.map.kakao.com/2069006282,월전죽도,충남 보령시 남포면 월전리,월전죽도,126.536909201629,"여행 > 관광,명소 > 섬 > 섬(내륙)",,36.2770099327552
몽산포,True,http://place.map.kakao.com/25235064,몽산포,충남 태안군 남면 몽산리,몽산포,126.275383651217,부동산 > 지명,,36.6731936569913
대섬,True,http://place.map.kakao.com/11412377,대섬,제주특별자치도 제주시 조천읍 신촌리 540-3,대섬 주유소,126.625194240476,"교통,수송 > 자동차 > 주유,가스 > 주유소 > SK주유소",064-783-5774,33.5359469488458
학가리,True,http://place.map.kakao.com/21702379,학가리,전남 해남군 송지면 학가리,중도,126.488527075078,"여행 > 관광,명소 > 섬",,34.4105612872926
목포신항,True,http://place.map.kakao.com/22376298,목포신항,전남 목포시 달동 1330-52,신항리빙텔,126.357136543948,"부동산 > 주거시설 > 고시원,고시텔",,34.7553493992083
증도우전,True,http://place.map.kakao.com/24925310,증도우전,전남 신안군 증도면 우전리 산 1,증도 우전해변 캠핑장,126.137316144817,"여행 > 숙박 > 야영,캠핑장",,34.9710363429667
신월항,True,http://place.map.kakao.com/18354473,신월항,전남 무안군 운남면 내리,신월항,126.29764307414781,"교통,수송 > 교통시설 > 항구,포구",,34.9614379007285
지신개,True,http://place.map.kakao.com/19293685,지신개,전남 신안군 지도읍 탄동리 482-2,지신개선착장,126.170466968742,"교통,수송 > 교통시설 > 선착장,항만시설",,35.0245912652957
대사리,True,http://place.map.kakao.com/1152125575,대사리,경남 남해군 고현면 대사리 1329-1,남파랑길 46코스,127.864566187482,"여행 > 관광,명소 > 도보여행 > 남파랑길",,34.9053320540311
영전리,True,http://place.map.kakao.com/8415570,영전리,전북특별자치도 부안군 보안면 영전리 415-1,신월제,126.67487421432047,"여행 > 관광,명소 > 저수지",,35.61257844831606
평호리,True,http://place.map.kakao.com/8447701,평호리,전남 해남군 화산면 평호리 496-3,송평해수욕장,126.47115000709,"여행 > 관광,명소 > 해수욕장,해변",061-532-1330,34.4355009703379
팔금도장촌,True,http://place.map.kakao.com/8539439,팔금도장촌,전남 신안군 팔금면 장촌리,장촌,126.140578767823,부동산 > 지명,,34.7772980722695
신석리,True,http://place.map.kakao.com/14883155,신석리,전남 신안군 암태면 신석리,초란도,126.167460525084,"여행 > 관광,명소 > 섬",,34.8812223858585
톱머리,True,http://place.map.kakao.com/8127660,톱머리,전남 무안군 망운면 피서리 809-3,톱머리해수욕장,126.386703097753,"여행 > 관광,명소 > 해수욕장,해변",061-450-5628,34.9681604787303
이흑암리,True,http://place.map.kakao.com/8023649,이흑암리,전남 신안군 임자면 삼두리,어머리해수욕장,126.093241991694,"여행 > 관광,명소 > 해수욕장,해변",,35.0522615207464
말도,True,http://place.map.kakao.com/7863325,말도,인천 강화군 서도면 말도리,말도,126.132142927816,"여행 > 관광,명소 > 섬",,37.686619157261
볼음도,True,http://place.map.kakao.com/18376784,볼음도,인천 강화군 서도면 볼음도리,볼음도,126.189102886858,"여행 > 관광,명소 > 섬",,37.6742418422068
서검도,True,http://place.map.kakao.com/18376729,서검도,인천 강화군 삼산면 서검리,서검도,126.231761273132,"여행 > 관광,명소 > 섬",,37.7232510812461
괴리섬,True,http://place.map.kakao.com/14864660,괴리섬,인천 강화군 삼산면 서검리,괴리섬,126.2573651324,"여행 > 관광,명소 > 섬",,37.7135659323371
석모도,True,http://place.map.kakao.com/7947179,석모도,인천 강화군 삼산면 석모리,석모도,126.328187123025,"여행 > 관광,명소 > 섬",,37.6950886477465
교동도선착장,True,http://place.map.kakao.com/27194433,교동도선착장,인천 강화군 교동면 상용리 605-3,교동도선착장대합실,126.317063881759,"교통,수송 > 교통시설 > 선착장,항만시설",,37.7749069301497
보문선착장,True,http://place.map.kakao.com/23523468,보문선착장,인천 강화군 삼산면 매음리 43-1,보문선착장,126.370365962711,"교통,수송 > 교통시설 > 선착장,항만시설",,37.6644831898601
미루지항,True,http://place.map.kakao.com/1475889668,미루지항,인천 강화군 화도면 여차리 1002-1,미루지항,126.411888133359,"교통,수송 > 교통시설 > 항구,포구",,37.5943278492409
감투섬,True,http://place.map.kakao.com/10114723,감투섬,경기 화성시 서신면 궁평리,감투섬,126.675972268618,"여행 > 관광,명소 > 섬",,37.1435000630532
동검항,True,http://place.map.kakao.com/22873254,동검항,인천 강화군 길상면 동검리 109-2,동검선착장,126.525125557224,"교통,수송 > 교통시설 > 선착장,항만시설",,37.5861811178931
항산도,True,http://place.map.kakao.com/19630645,항산도,경기 김포시 대곶면 약암리 산 147-2,항산도,126.548849156103,"여행 > 관광,명소 > 섬",,37.6008593151289
메추리섬,True,http://place.map.kakao.com/7871261,메추리섬,경기 안산시 단원구 대부남동,메추리섬,126.537680251438,"여행 > 관광,명소 > 섬 > 섬(내륙)",,37.2035845578358
대이작도,True,http://place.map.kakao.com/18376747,대이작도,인천 옹진군 자월면 이작리,대이작도,126.263621482988,"여행 > 관광,명소 > 섬",032-899-3752,37.1725070938665
서포리항,True,http://place.map.kakao.com/17434493,서포리항,인천 옹진군 덕적면,덕적도항,126.120599045101,"교통,수송 > 교통시설 > 항구,포구",,37.2522850872044
문갑도,True,http://place.map.kakao.com/18376700,문갑도,인천 옹진군 덕적면 문갑리,문갑도,126.097886010723,"여행 > 관광,명소 > 섬",,37.1772503072571
각흘도,True,http://place.map.kakao.com/20177045,각흘도,인천 옹진군 덕적면 서포리 산 451,각흘도,126.021566046412,"여행 > 관광,명소 > 섬",,37.1288687816592
지도,True,http://place.map.kakao.com/18376915,지도,인천 옹진군 덕적면 백아리,지도,126.017198552291,"여행 > 관광,명소 > 섬",,37.0715018695503
석도,True,http://place.map.kakao.com/1235614571,석도,제주특별자치도 서귀포시 서귀동 726-6,석도수산,126.56504028619972,"음식점 > 한식 > 해물,생선 > 회",064-733-9844,33.24245286737059
우배도,True,http://place.map.kakao.com/25766344,우배도,충남 태안군 근흥면 가의도리 산 24,우배도,125.713899934894,"여행 > 관광,명소 > 섬",,36.6304173274434
전곡항,True,http://place.map.kakao.com/10734494,전곡항,경기 화성시 서신면 전곡리,전곡항,126.650439485742,"교통,수송 > 교통시설 > 항구,포구",031-357-6872,37.1876223428699
석문방조제,True,http://place.map.kakao.com/8375543,석문방조제,충남 당진시 송산면 가곡리,석문방조제,126.647246813699,"여행 > 관광,명소 > 방조제",,36.9990419179659
석천항,True,http://place.map.kakao.com/24183036,석천항,경기 화성시 우정읍 매향리,석천항,126.76371448354,"교통,수송 > 교통시설 > 항구,포구",,37.0297080440257
한진선착장,True,http://place.map.kakao.com/10918681,한진선착장,경남 창원시 진해구 안골동 산 118,한진부산컨테이너터미널,128.78431456823844,"교통,수송 > 교통시설 > 선착장,항만시설",051-220-2100,35.08137075313287
장구섬,True,http://place.map.kakao.com/38410402,장구섬,충남 서산시 팔봉면 호리 산 54,장구섬,126.321652833777,"여행 > 관광,명소 > 섬",,36.8514182216313
왕산포,True,http://place.map.kakao.com/26240607,왕산포,충남 서산시 지곡면 중왕리,왕산포구,126.366270400986,"교통,수송 > 교통시설 > 선착장,항만시설",,36.8731833392747
민어도,True,http://place.map.kakao.com/25624188,민어도,충남 태안군 원북면 방갈리 산 1-2,민어도,126.24779892697649,"여행 > 관광,명소 > 섬",,36.9123399681058
개목항,True,http://place.map.kakao.com/12887457,개목항,충남 태안군 소원면 의항리,개목항,126.16796998338,"교통,수송 > 교통시설 > 항구,포구",,36.8325617374235
만리포항,True,http://place.map.kakao.com/25450221,만리포항,충남 태안군 소원면 모항리,만리포,126.133440811976,"교통,수송 > 교통시설 > 항구,포구",,36.7855525200791
정산포항,True,http://place.map.kakao.com/1755797664,정산포항,경북 포항시 남구 해도동 41-16,정산건설(주),129.36665695992167,"서비스,산업 > 건설,건축 > 종합건설사",,36.02644910404548
벽파항,True,http://place.map.kakao.com/7898037,벽파항,전남 진도군 고군면 벽파리,벽파항,126.345648087937,"교통,수송 > 교통시설 > 항구,포구",,34.539749105222
인성포구,True,http://place.map.kakao.com/18099474,인성포구,전남 진도군 고군면 내산리 627,인성포구,126.378797402409,"교통,수송 > 교통시설 > 항구,포구",,34.4924237645032
벌포항,True,http://place.map.kakao.com/514147527,벌포항,전남 진도군 고군면 지막리 1715,벌포항 방파제,126.371518894234,"교통,수송 > 교통시설 > 선착장,항만시설 > 방파제",,34.4711341797138
용호항,True,http://place.map.kakao.com/1028515241,용호항,전남 진도군 고군면 금계리 7-11,용호항,126.365233764649,"교통,수송 > 교통시설 > 항구,포구",,34.4432903541961
초평항,True,http://place.map.kakao.com/25691928,초평항,전남 진도군 의신면 초사리 509-7,초평항,126.336696810194,"교통,수송 > 교통시설 > 항구,포구",,34.4122589314856
구자도,True,http://place.map.kakao.com/14864509,구자도,전남 진도군 의신면 구자도리,구자도,126.298165406315,"여행 > 관광,명소 > 섬",,34.3232472534135
두룩도,True,http://place.map.kakao.com/20152321,두룩도,전남 진도군 의신면 모도리 산 2,두룩도,126.350956000571,"여행 > 관광,명소 > 섬",,34.3990696768301
성산방파제,True,http://place.map.kakao.com/975796873,성산방파제,제주특별자치도 서귀포시 성산읍 고성리,섭지방파제,126.928054117333,"교통,수송 > 교통시설 > 선착장,항만시설 > 방파제",,33.4348353250639
송평항,True,http://place.map.kakao.com/17554486,송평항,전남 해남군 화산면 평호리 395-39,송평항,126.482589459888,"교통,수송 > 교통시설 > 항구,포구",,34.4259259791791
두모,True,http://place.map.kakao.com/25371854,두모,경남 거제시 두모동,찬몰골,128.726050658235,"여행 > 관광,명소 > 계곡",,34.8772918593841
어불항,True,http://place.map.kakao.com/664832963,어불항,전남 해남군 송지면 어란리 1773,어불항,126.473120264213,"교통,수송 > 교통시설 > 항구,포구",,34.337277326836
송호항,True,http://place.map.kakao.com/2050401817,송호항,전남 해남군 송지면 송호리 1310,땅끝항,126.529575695578,"교통,수송 > 교통시설 > 항구,포구",,34.29834542825679
갈두항,True,http://place.map.kakao.com/2050401817,갈두항,전남 해남군 송지면 송호리 1310,땅끝항,126.529575695578,"교통,수송 > 교통시설 > 항구,포구",,34.29834542825679
안평방파제,True,http://place.map.kakao.com/443355311,안평방파제,전남 해남군 북평면 평암리 131-10,안평방파제,126.60873454854,"여행 > 관광,명소 > 방조제",,34.3433361311647
사내방조제,True,http://place.map.kakao.com/17434206,사내방조제,전남 강진군 신전면 사초리 858,사내방조제,126.736347778404,"여행 > 관광,명소 > 방조제",,34.4579412989134
고온항,True,http://place.map.kakao.com/861583719,고온항,경기 화성시 우정읍 매향리 945-21,고온항,126.747065791818,"교통,수송 > 교통시설 > 항구,포구",,37.0339610403454
굴포항,True,http://place.map.kakao.com/959959061,굴포항,전남 진도군 임회면,굴포항,126.209764977863,"교통,수송 > 교통시설 > 항구,포구",,34.368590699163
진도항,True,http://place.map.kakao.com/19471460,진도항,전남 진도군 임회면 남동리,진도항,126.134334074287,"교통,수송 > 교통시설 > 항구,포구",061-544-5353,34.3740749970017
장죽도,True,http://place.map.kakao.com/14864705,장죽도,전남 해남군 북일면 내동리,장죽도,126.70890592677,"여행 > 관광,명소 > 섬",,34.4338965585432
독거도,True,http://place.map.kakao.com/18376857,독거도,전남 진도군 조도면 독거도리 산 39,독거도,126.18006828716847,"여행 > 관광,명소 > 섬",,34.25127324640317
탄항도,True,http://place.map.kakao.com/18376907,탄항도,전남 진도군 조도면 독거도리,탄항도,126.176133007636,"여행 > 관광,명소 > 섬",,34.2389077567761
슬도,True,http://place.map.kakao.com/18376712,슬도,전남 진도군 조도면 독거도리,슬도,126.150140284615,"여행 > 관광,명소 > 섬",,34.2625360378431
행금도,True,http://place.map.kakao.com/20152163,행금도,전남 진도군 조도면 독거도리 101,행금도,126.126623695146,"여행 > 관광,명소 > 섬",,34.2683744021587
죽항도,True,http://place.map.kakao.com/18376892,죽항도,전남 진도군 조도면 죽항도리,죽항도,126.104217494977,"여행 > 관광,명소 > 섬",,34.2650467830163
청등도,True,http://place.map.kakao.com/18376893,청등도,전남 진도군 조도면 청등도리,청등도,126.082612797937,"여행 > 관광,명소 > 섬",,34.2464613154602
대마도,True,http://place.map.kakao.com/20152378,대마도,경남 남해군 남면 덕월리 산 171,대마도,127.840714143089,"여행 > 관광,명소 > 섬",,34.7755574349515
동거차도,True,http://place.map.kakao.com/18376695,동거차도,전남 진도군 조도면 동거차도리,동거차도,125.941725736924,"여행 > 관광,명소 > 섬",,34.2353813847111
몽덕도,True,http://place.map.kakao.com/10336863,몽덕도,전남 진도군 조도면 맹골도리,몽덕도,125.87996100996,"여행 > 관광,명소 > 섬",,34.2100612817094
맹골도,True,http://place.map.kakao.com/18376808,맹골도,전남 진도군 조도면 맹골도리,맹골도,125.855957042497,"여행 > 관광,명소 > 섬",061-544-0902,34.212540419969
곽도,True,http://place.map.kakao.com/18376738,곽도,전남 진도군 조도면 맹골도리,곽도,125.859402838248,"여행 > 관광,명소 > 섬",061-285-9045,34.1964584639541
다물도,True,http://place.map.kakao.com/18376799,다물도,전남 신안군 흑산면 다물도리,다물도,125.443813013796,"여행 > 관광,명소 > 섬",,34.7381071871679
유금도,True,http://place.map.kakao.com/8479280,유금도,전남 진도군 조도면 여미리,유금도,125.986406676932,"여행 > 관광,명소 > 섬",,34.3516114745522
모도,True,http://place.map.kakao.com/7869332,모도,인천 옹진군 북도면 모도리,모도,126.408644548745,"여행 > 관광,명소 > 섬",032-899-3401,37.5331276251711
관사도,True,http://place.map.kakao.com/18376794,관사도,전남 진도군 조도면 관사도리,관사도,125.974403275306,"여행 > 관광,명소 > 섬",,34.3151911112371
진목도,True,http://place.map.kakao.com/18376896,진목도,전남 진도군 조도면 진목도리,진목도,125.958698733988,"여행 > 관광,명소 > 섬",061-285-9045,34.311290616259
갈목도,True,http://place.map.kakao.com/25588240,갈목도,전남 진도군 조도면 진목도리,갈목도,125.94459398236,"여행 > 관광,명소 > 섬",,34.308141086201
눌옥도,True,http://place.map.kakao.com/18376688,눌옥도,전남 진도군 조도면 눌옥도리,눌옥도,125.953353156553,"여행 > 관광,명소 > 섬",,34.3480990176414
내병도,True,http://place.map.kakao.com/18376797,내병도,전남 진도군 조도면 내병도리,내병도,125.967206547601,"여행 > 관광,명소 > 섬",,34.3705359527344
세포항,True,http://place.map.kakao.com/25497366,세포항,전남 진도군 지산면 가학리 629-20,세포항,126.093944953085,"교통,수송 > 교통시설 > 항구,포구",,34.4191426869401
금노항,True,http://place.map.kakao.com/25155833,금노항,전남 진도군 지산면 와우리 774-2,금노항,126.11827939223,"교통,수송 > 교통시설 > 항구,포구",,34.4536036545735
장도,True,http://place.map.kakao.com/18376922,장도,전남 완도군 금일읍 장원리,장도,127.165570718295,"여행 > 관광,명소 > 섬",,34.2060016883906
주지도,True,http://place.map.kakao.com/18376894,주지도,전남 진도군 조도면 가사도리,주지도,126.082232758327,"여행 > 관광,명소 > 섬",,34.4890994900314
양덕도,True,http://place.map.kakao.com/18376825,양덕도,전남 진도군 조도면 가사도리,양덕도,126.106143395411,"여행 > 관광,명소 > 섬",,34.4924281016709
가사도,True,http://place.map.kakao.com/18376842,가사도,전남 진도군 조도면 가사도리,가사도,126.050766571877,"여행 > 관광,명소 > 섬",,34.4798449485682
송도,True,http://place.map.kakao.com/26350965,송도,인천 연수구 송도동 24-17,송도한옥마을,126.638869485458,"여행 > 관광,명소",,37.3908644068249
혈도,True,http://place.map.kakao.com/18376788,혈도,전남 진도군 조도면 가사도리,혈도,126.087873840783,"여행 > 관광,명소 > 섬",,34.515719078014
광대도,True,http://place.map.kakao.com/18376739,광대도,전남 진도군 조도면 가사도리,광대도,126.105803155536,"여행 > 관광,명소 > 섬",,34.5287707218813
저도,True,http://place.map.kakao.com/8068367,저도,경남 거제시 장목면 유호리,저도,128.740962807676,"여행 > 관광,명소 > 섬",,35.0184740257305
율도,True,http://place.map.kakao.com/8219392,율도,전남 목포시 율도동,율도(눌도),126.323546443696,"여행 > 관광,명소 > 섬",,34.803464132188
마진도,True,http://place.map.kakao.com/18376697,마진도,전남 신안군 장산면 마진도리,마진도,126.205908544517,"여행 > 관광,명소 > 섬",,34.6217387298992
북강,True,http://place.map.kakao.com/25256898,북강,전남 신안군 장산면 오음리,북강,126.16143788045,부동산 > 지명,,34.6685231354039
자라도,True,http://place.map.kakao.com/18376779,자라도,전남 신안군 안좌면 자라리,자라도,126.172025047016,"여행 > 관광,명소 > 섬",,34.6843086731957
부소도,True,http://place.map.kakao.com/10461274,부소도,전남 신안군 안좌면 존포리 산 61-9,부소도,126.14132049143196,"여행 > 관광,명소 > 섬",,34.693706878299004
기도,True,http://place.map.kakao.com/18376848,기도,전남 신안군 신의면 상태서리,기도,126.084589280596,"여행 > 관광,명소 > 섬",,34.6350225238871
박지도,True,http://place.map.kakao.com/10406409,박지도,전남 신안군 안좌면 박지리,박지도,126.129091687213,"여행 > 관광,명소 > 섬",,34.7072833831892
불무기도,True,http://place.map.kakao.com/14864620,불무기도,전남 신안군 팔금면 진고리,불무기도,126.223797588191,"여행 > 관광,명소 > 섬",,34.7589892737652
반월도,True,http://place.map.kakao.com/7889678,반월도,전남 신안군 안좌면 반월리,반월도,126.105374884397,"여행 > 관광,명소 > 섬",,34.7073206739465
구대리,True,http://place.map.kakao.com/10188683,구대리,전남 신안군 안좌면 구대리,내우목도,126.082403640416,"여행 > 관광,명소 > 섬",,34.7220803816621
신의상태,True,http://place.map.kakao.com/27187888,신의상태,전남 신안군 신의면 상태서리 949,신의상태선착장,126.06732319126985,"교통,수송 > 교통시설 > 항구,포구",,34.60288939256684
내우목도,True,http://place.map.kakao.com/10188683,내우목도,전남 신안군 안좌면 구대리,내우목도,126.082403640416,"여행 > 관광,명소 > 섬",,34.7220803816621
상태동리,True,http://place.map.kakao.com/18376823,상태동리,전남 신안군 신의면 상태동리,신의도,126.091086182244,"여행 > 관광,명소 > 섬",061-271-7002,34.5832658052369
외우목도,True,http://place.map.kakao.com/8022071,외우목도,전남 신안군 안좌면 구대리,외우목도,126.076618120929,"여행 > 관광,명소 > 섬",,34.7110361734977
개도,True,http://place.map.kakao.com/8176653,개도,전남 신안군 하의면 후광리,개도,126.011261098252,"여행 > 관광,명소 > 섬",,34.6404569333576
문병도,True,http://place.map.kakao.com/18376863,문병도,전남 신안군 하의면 후광리,문병도,126.036237176156,"여행 > 관광,명소 > 섬",,34.6705469451718
장병도,True,http://place.map.kakao.com/18376888,장병도,전남 신안군 하의면 후광리,장병도,126.047696982653,"여행 > 관광,명소 > 섬",,34.6537918475438
장재도,True,http://place.map.kakao.com/20098169,장재도,전남 장흥군 안양면 사촌리 95,장재도,127.012221031754,"여행 > 관광,명소 > 섬",,34.6176666044497
신도,True,http://place.map.kakao.com/18376876,신도,인천 옹진군 북도면 신도리,신도,126.454716424347,"여행 > 관광,명소 > 섬",,37.5266351611673
시목해변,True,http://place.map.kakao.com/25626390,시목해변,전남 신안군 도초면 오류리 116-1,시목해수욕장,125.95197660498381,"여행 > 관광,명소 > 해수욕장,해변",,34.67307586810271
외공도,True,http://place.map.kakao.com/20098084,외공도,전남 진도군 조도면 가사도리 산 400,외공도,125.988956874118,"여행 > 관광,명소 > 섬",,34.4623990778564
수치도,True,http://place.map.kakao.com/18376767,수치도,전남 신안군 비금면 수치리,수치도,126.020564942738,"여행 > 관광,명소 > 섬",,34.734701304779
원평항,True,http://place.map.kakao.com/17434406,원평항,전남 신안군 비금면,원평항,125.912230935948,"교통,수송 > 교통시설 > 항구,포구",,34.7786661876339
상사치도,True,http://place.map.kakao.com/11136912,상사치도,전남 신안군 안좌면 한운리,상사치도,126.045485885171,"여행 > 관광,명소 > 섬",,34.7597411023412
하사치도,True,http://place.map.kakao.com/10859048,하사치도,전남 신안군 안좌면 한운리,하사치도,126.0550070518,"여행 > 관광,명소 > 섬",,34.7530838917935
도례도,True,http://place.map.kakao.com/11129453,도례도,전남 신안군 안좌면 시서리,소도례도,126.080587327094,"여행 > 관광,명소 > 섬",,34.7776313327494
소마진도,True,http://place.map.kakao.com/10561269,소마진도,전남 신안군 안좌면 마진리,소마진도,126.120686159397,"여행 > 관광,명소 > 섬",,34.7749710634418
읍동,True,http://place.map.kakao.com/25341405,읍동,전남 여수시 묘도동,읍동,127.713692681569,부동산 > 지명,,34.8851365964564
암태남강,True,http://place.map.kakao.com/27320492,암태남강,전남 신안군 암태면 와촌리 679-2,암태도 남강선착장,126.119922816673,"교통,수송 > 교통시설 > 선착장,항만시설",,34.8024070820749
고산방파제,True,http://place.map.kakao.com/1677897226,고산방파제,제주특별자치도 제주시 한경면 두모리 2604-2,두모방파제,126.180574452563,"교통,수송 > 교통시설 > 선착장,항만시설 > 방파제",,33.3571176824919
당사도,True,http://place.map.kakao.com/18376689,당사도,전남 신안군 암태면 당사리,당사도,126.182913856635,"여행 > 관광,명소 > 섬",,34.8900705050525
북송도,True,http://place.map.kakao.com/20152319,북송도,전남 진도군 조도면 내병도리 산 1,북송도,125.987763687073,"여행 > 관광,명소 > 섬",,34.4241872395423
외안도,True,http://place.map.kakao.com/11196634,외안도,전남 신안군 압해읍 동서리,외안도,126.305942992851,"여행 > 관광,명소 > 섬",,34.8405490136748
율도,True,http://place.map.kakao.com/8219392,율도,전남 목포시 율도동,율도(눌도),126.323546443696,"여행 > 관광,명소 > 섬",,34.803464132188
압해도,True,http://place.map.kakao.com/18376733,압해도,전남 신안군 압해읍 신용리,압해도,126.30608870486,"여행 > 관광,명소 > 섬",,34.8721558929447
구도,True,http://place.map.kakao.com/18376684,구도,전남 진도군 조도면 독거도리,구도,126.17528822587,"여행 > 관광,명소 > 섬",,34.2627510996958
가란도,True,http://place.map.kakao.com/8100465,가란도,전남 신안군 압해읍 가란리,가란도,126.366993868593,"여행 > 관광,명소 > 섬",,34.8717490944637
숭의,True,http://place.map.kakao.com/1599915610,숭의,인천 미추홀구 숭의동 10-46,미추홀구 수봉공원 무장애나눔길,126.661757762284,"여행 > 관광,명소 > 도보여행 > 무장애나눔길",,37.4585270234515
우간도,True,http://place.map.kakao.com/25329689,우간도,전남 신안군 압해읍 복룡리,우간도,126.351689298763,부동산 > 지명,,34.9053584301901
나룻가,True,http://place.map.kakao.com/25192001,나룻가,전남 완도군 군외면 원동리,나룻가,126.6435367302,부동산 > 지명,,34.3956348358337
탄도,True,http://place.map.kakao.com/25043829,탄도,경기 안산시 단원구 선감동 산 147-7,탄도,126.647603635896,"여행 > 관광,명소 > 섬 > 섬(내륙)",,37.197809304906485
주포항,True,http://place.map.kakao.com/169480908,주포항,전남 함평군 함평읍 석성리 316-6,주포항,126.461666274676,"교통,수송 > 교통시설 > 항구,포구",,35.0951360741912
월두,True,http://place.map.kakao.com/25335700,월두,제주특별자치도 제주시 아라이동,월두,126.544506365362,부동산 > 지명,,33.4847978344726
월천방조제,True,http://place.map.kakao.com/17434205,월천방조제,전남 함평군 손불면 월천리 1775,월천방조제,126.396513015824,"여행 > 관광,명소 > 방조제",,35.1346040365181
함평항,True,http://place.map.kakao.com/26089436,함평항,전남 함평군 손불면 학산리,함평항,126.372980285523,"교통,수송 > 교통시설 > 항구,포구",,35.1603242701157
설도항,True,http://place.map.kakao.com/21860534,설도항,전남 영광군 염산면 봉남리 695-16,설도항,126.375941883069,"교통,수송 > 교통시설 > 항구,포구",,35.2116833595269
소악도,True,http://place.map.kakao.com/18376710,소악도,전남 신안군 증도면 병풍리,소악도,126.195507098209,"여행 > 관광,명소 > 섬",,34.9241828841336
소기점도,True,http://place.map.kakao.com/18376708,소기점도,전남 신안군 증도면 병풍리,소기점도,126.20099889824,"여행 > 관광,명소 > 섬",,34.9325188782649
대기점도,True,http://place.map.kakao.com/18376745,대기점도,전남 신안군 증도면 병풍리,대기점도,126.199876935694,"여행 > 관광,명소 > 섬",,34.9439119229865
병풍도,True,http://place.map.kakao.com/14864562,병풍도,충남 태안군 근흥면 가의도리,병풍도,126.08547530198045,"여행 > 관광,명소 > 섬",,36.63578041703522
몰암도,True,http://place.map.kakao.com/2117337894,몰암도,전남 고흥군 영남면 남열리 산 225,몰암도,127.474067902843,"여행 > 관광,명소 > 섬",,34.5741119587692
증도버지,True,http://place.map.kakao.com/19293673,증도버지,전남 신안군 증도면 대초리 1648-10,버지선착장,126.181613571097,"교통,수송 > 교통시설 > 선착장,항만시설",,34.9967827803816
사옥도,True,http://place.map.kakao.com/11295184,사옥도,전남 신안군 지도읍 탄동리,사옥도,126.167631059338,"여행 > 관광,명소 > 섬",,35.0436298995249
하우리항,True,http://place.map.kakao.com/26924135,하우리항,전남 신안군 임자면 광산리 514-44,하우리항,126.055228691057,"교통,수송 > 교통시설 > 항구,포구",,35.0980221876932
어의도,True,http://place.map.kakao.com/18376716,어의도,전남 신안군 지도읍 어의리,어의도,126.192395293524,"여행 > 관광,명소 > 섬",,35.1397718717268
포작도,True,http://place.map.kakao.com/11169131,포작도,전남 신안군 지도읍 어의리,작은포작도,126.204711657994,"여행 > 관광,명소 > 섬",,35.1261638682766
노록도,True,http://place.map.kakao.com/8232748,노록도,전남 완도군 노화읍 등산리,노록도,126.542851031709,"여행 > 관광,명소 > 섬",,34.2010822949072
허사도,True,http://place.map.kakao.com/107499138,허사도,전남 목포시 달동 1329,허사도,126.352406744612,"여행 > 관광,명소 > 섬",,34.7557209532319
대각시도,True,http://place.map.kakao.com/18376800,대각시도,전남 영광군 낙월면 각이리 산 88,대각이도,126.096854605401,"여행 > 관광,명소 > 섬",,35.2473167586497
하낙월도,True,http://place.map.kakao.com/18376918,하낙월도,전남 영광군 낙월면 하낙월리,하낙월도,126.125937257386,"여행 > 관광,명소 > 섬",,35.1971287805466
상낙월도,True,http://place.map.kakao.com/18376813,상낙월도,전남 영광군 낙월면 상낙월리,상낙월도,126.143143638625,"여행 > 관광,명소 > 섬",,35.2044226566056
각이도,True,http://place.map.kakao.com/133229313,각이도,부산 강서구 명지동 3266-7,깊은생각이도국어,128.909478159453,"교육,학문 > 학원",0507-1369-7660,35.0847864485987
석만도,True,http://place.map.kakao.com/18376691,석만도,전남 영광군 낙월면 석만리,대석만도,126.048304750788,"여행 > 관광,명소 > 섬",,35.3723942282588
횡도,True,http://place.map.kakao.com/18376839,횡도,전남 영광군 낙월면 오도리,횡도,125.991051268708,"여행 > 관광,명소 > 섬",,35.3368661577698
노인도,True,http://place.map.kakao.com/7951749,노인도,전남 영광군 낙월면 송이리,소노인도,126.210864257978,"여행 > 관광,명소 > 섬",,35.2841484949776
도음소도,True,http://place.map.kakao.com/610946674,도음소도,전남 영광군 백수읍 대신리 산 270-3,도음소도,126.395615440788,"여행 > 관광,명소 > 섬",,35.373530992462
다보도,True,http://place.map.kakao.com/8194237,다보도,충남 보령시 신흑동,다보도,126.479487779471,"여행 > 관광,명소 > 섬",,36.281733890706
좌치나루터,True,http://place.map.kakao.com/19263536,좌치나루터,전북특별자치도 고창군 심원면 용기리 1-1,좌치나루터,126.59330820910591,"여행 > 관광,명소",,35.5371559348505
왕포,True,http://place.map.kakao.com/1721211356,왕포,전북특별자치도 부안군 진서면 운호리,왕포선착장,126.557689499645,"교통,수송 > 교통시설 > 선착장,항만시설",,35.584139238719
모항방파제,True,http://place.map.kakao.com/27015923,모항방파제,충남 태안군 소원면 모항리,모항방파제,126.12919962442,"교통,수송 > 교통시설 > 선착장,항만시설 > 방파제",,36.7774189817919
궁항,True,http://place.map.kakao.com/19175075,궁항,전북특별자치도 부안군 변산면 격포리,궁항,126.469660462781,"교통,수송 > 교통시설 > 항구,포구",,35.6031724433648
쌍여도,True,http://place.map.kakao.com/17446065,쌍여도,전북특별자치도 고창군 심원면 만돌리 산 1-1,쌍여도,126.441856084058,"여행 > 관광,명소 > 섬",,35.544459812786
대형제도,True,http://place.map.kakao.com/20175084,대형제도,전북특별자치도 부안군 위도면 치도리 산 232,대형제도,126.347191321694,"여행 > 관광,명소 > 섬",,35.5639100310068
임수도,True,http://place.map.kakao.com/14864700,임수도,전북특별자치도 부안군 위도면 진리 산 302,임수도,126.368968844632,"여행 > 관광,명소 > 섬",,35.6247360001172
석금방파제,True,http://place.map.kakao.com/27001185,석금방파제,전북특별자치도 부안군 위도면 대리,석금방파제,126.267881066765,"교통,수송 > 교통시설 > 선착장,항만시설 > 방파제",,35.5690496030884
거륜도,True,http://place.map.kakao.com/8174245,거륜도,전북특별자치도 부안군 위도면 거륜리,거륜도,126.24590286785,"여행 > 관광,명소 > 섬",,35.5756592464217
식도,True,http://place.map.kakao.com/18376768,식도,전북특별자치도 부안군 위도면 식도리,식도,126.289057427851,"여행 > 관광,명소 > 섬",,35.6297850484817
무녀도항,True,http://place.map.kakao.com/18354264,무녀도항,전북특별자치도 군산시 옥도면 무녀도리,무녀도항,126.417601756522,"교통,수송 > 교통시설 > 항구,포구",,35.8068663110809
장자도방파제,True,http://place.map.kakao.com/27020336,장자도방파제,전북특별자치도 군산시 옥도면 관리도리 84,관리도방파제,126.375163256013,"교통,수송 > 교통시설 > 선착장,항만시설 > 방파제",,35.8178647150257
대장도,True,http://place.map.kakao.com/8294579,대장도,전북특별자치도 군산시 옥도면 대장도리,대장도,126.394001483391,"여행 > 관광,명소 > 섬",,35.8166237153084
관리도방파제,True,http://place.map.kakao.com/27020336,관리도방파제,전북특별자치도 군산시 옥도면 관리도리 84,관리도방파제,126.375163256013,"교통,수송 > 교통시설 > 선착장,항만시설 > 방파제",,35.8178647150257
명도방파제,True,http://place.map.kakao.com/27020343,명도방파제,전북특별자치도 군산시 옥도면 말도리 13,말도방파제,126.316330179018,"교통,수송 > 교통시설 > 선착장,항만시설 > 방파제",,35.8540987098794
송도방조제,True,http://place.map.kakao.com/27086212,송도방조제,부산 서구 남부민동,남부민방파제,129.02862580512468,"여행 > 관광,명소 > 방조제",,35.08562420211654
저두,True,http://place.map.kakao.com/24895133,저두,충남 보령시 오천면 원산도리,저두해수욕장,126.45337788411,"여행 > 관광,명소 > 해수욕장,해변",041-932-4301,36.3566779173007
초전항,True,http://place.map.kakao.com/18354445,초전항,충남 보령시 오천면 원산도리,초전항,126.39775804381,"교통,수송 > 교통시설 > 항구,포구",,36.3813799545535
진고지,True,http://place.map.kakao.com/72212012,진고지,충남 보령시 오천면 원산도리 393-1,진고지마을회관,126.435601766105,"가정,생활 > 친목 > 마을회관",,36.3750907939535
선촌,True,http://place.map.kakao.com/129644259,선촌,경남 통영시 용남면 화삼리 133-12,선촌가는길,128.450379798201,음식점 > 카페,,34.8521422842292
효자도,True,http://place.map.kakao.com/18376902,효자도,충남 보령시 오천면 효자도리,효자도,126.444613078588,"여행 > 관광,명소 > 섬",,36.3834922239538
고대도,True,http://place.map.kakao.com/18376737,고대도,충남 보령시 오천면 삽시도리,고대도,126.36471466776,"여행 > 관광,명소 > 섬",,36.3854262179245
불모도,True,http://place.map.kakao.com/14864834,불모도,충남 보령시 오천면 삽시도리 1200,불모도,126.353267843084,"여행 > 관광,명소 > 섬",,36.3103482878699
추도,True,http://place.map.kakao.com/18376897,추도,충남 보령시 오천면 효자도리,추도,126.438127945567,"여행 > 관광,명소 > 섬",,36.4056196497479
육도,True,http://place.map.kakao.com/20177022,육도,경기 안산시 단원구 풍도동,육도,126.449230912013,"여행 > 관광,명소 > 섬",,37.0993911994943
월도,True,http://place.map.kakao.com/18376722,월도,충남 보령시 오천면 효자도리,월도,126.468180941639,"여행 > 관광,명소 > 섬",,36.4099026024583
구매항,True,http://place.map.kakao.com/8213247,구매항,충남 태안군 고남면 누동리,구매항,126.433096363439,"교통,수송 > 교통시설 > 항구,포구",,36.4248554190795
장곰포,True,http://place.map.kakao.com/305861527,장곰포,충남 태안군 고남면 누동리,장곰항,126.43215348545,"교통,수송 > 교통시설 > 항구,포구",,36.435506203491
옷점항,True,http://place.map.kakao.com/12576565,옷점항,충남 태안군 고남면 고남리,옷점항,126.396929410856,"교통,수송 > 교통시설 > 항구,포구",,36.4142067933094
황포항,True,http://place.map.kakao.com/24925120,황포항,충남 태안군 안면읍 신야리 354-4,황포항,126.357035406633,"교통,수송 > 교통시설 > 항구,포구",,36.4409142705552
내포항,True,http://place.map.kakao.com/773035459,내포항,충남 태안군 안면읍 중장리,내포항,126.410245648395,"교통,수송 > 교통시설 > 항구,포구",,36.4914875464763
궁리항,True,http://place.map.kakao.com/19585893,궁리항,충남 홍성군 서부면 궁리,궁리항,126.45631064238,"교통,수송 > 교통시설 > 항구,포구",,36.5879445303121
서산A지구방조제,True,http://place.map.kakao.com/17434185,서산A지구방조제,충남 홍성군 서부면 궁리,서산A지구방조제,126.442312375056,"여행 > 관광,명소 > 방조제",,36.6002397776639
간월도어항,True,http://place.map.kakao.com/21274985,간월도어항,충남 태안군 남면 당암리 1-11,당암수족관,126.354283362167,"가정,생활 > 반려동물 > 열대어,관상어 > 수족관",041-674-1210,36.6197678746702
황도어항,True,http://place.map.kakao.com/21274985,황도어항,충남 태안군 남면 당암리 1-11,당암수족관,126.354283362167,"가정,생활 > 반려동물 > 열대어,관상어 > 수족관",041-674-1210,36.6197678746702
우포나루터,True,http://place.map.kakao.com/11176003,우포나루터,충남 태안군 남면 당암리,우포나루터,126.361497867662,부동산 > 지명,,36.6108603889746
서산B지구방조제,True,http://place.map.kakao.com/17434195,서산B지구방조제,충남 태안군 남면 당암리 980,서산B지구방조제,126.359938912983,"여행 > 관광,명소 > 방조제",,36.6252916371171
안면대교,True,http://place.map.kakao.com/1117011973,안면대교,충남 태안군 남면 신온리 701-65,안면대교,126.323395922708,"교통,수송 > 도로시설 > 교량,다리 > 대교",,36.6002241360096
드르니항,True,http://place.map.kakao.com/8269439,드르니항,충남 태안군 남면 신온리,드르니항,126.31472940261,"교통,수송 > 교통시설 > 항구,포구",,36.5893016426221
거아도,True,http://place.map.kakao.com/19156958,거아도,충남 태안군 남면 거아도리 59,거아도,126.241018531317,"여행 > 관광,명소 > 섬",,36.5988863356037
지치섬,True,http://place.map.kakao.com/19156983,지치섬,충남 태안군 남면 거아도리 산 10,지치섬,126.193134390535,"여행 > 관광,명소 > 섬",,36.5699522117858
나치도,True,http://place.map.kakao.com/20181319,나치도,충남 태안군 안면읍 승언리 산 42,나치도,126.160095560672,"여행 > 관광,명소 > 섬",,36.5115294478166
안목도,True,http://place.map.kakao.com/14864651,안목도,충남 태안군 남면 몽산리,안목도,126.264067661333,"여행 > 관광,명소 > 섬",,36.6684637179453
연포방파제,True,http://place.map.kakao.com/25766330,연포방파제,충남 태안군 근흥면 도황리 1525-223,연포방파제,126.209188538045,"교통,수송 > 교통시설 > 선착장,항만시설 > 방파제",,36.6891581850412
안흥방파제,True,http://place.map.kakao.com/609610287,안흥방파제,충남 태안군 근흥면 정죽리 1268-3,안흥방파제,126.155496812081,"교통,수송 > 교통시설 > 선착장,항만시설 > 방파제",,36.6772012906544
마도방파제,True,http://place.map.kakao.com/21191460,마도방파제,충남 태안군 근흥면 신진도리,신진도마도방파제,126.126064855948,"교통,수송 > 교통시설 > 선착장,항만시설 > 방파제",,36.6773061098222
안흥항,True,http://place.map.kakao.com/7996107,안흥항,충남 태안군 근흥면 정죽리 1298,안흥항,126.153095342458,"교통,수송 > 교통시설 > 항구,포구",,36.6791053864968
안가름이,True,http://place.map.kakao.com/25306650,안가름이,제주특별자치도 서귀포시 서홍동,안가름,126.551467087075,부동산 > 지명,,33.2668027423863
도비도방파제,True,http://place.map.kakao.com/434742226,도비도방파제,충남 서산시 대산읍 화곡리 1-35,삼길포항방파제등대,126.451978603167,"교통,수송 > 교통시설 > 등대",,37.0068990096715
소난지도,True,http://place.map.kakao.com/18376871,소난지도,충남 당진시 석문면 난지도리,소난지도,126.448119281892,"여행 > 관광,명소 > 섬",,37.0373462168522
육도,True,http://place.map.kakao.com/20177022,육도,경기 안산시 단원구 풍도동,육도,126.449230912013,"여행 > 관광,명소 > 섬",,37.0993911994943
소이작도,True,http://place.map.kakao.com/18376766,소이작도,인천 옹진군 자월면 이작리,소이작도,126.234231128207,"여행 > 관광,명소 > 섬",,37.1821276491925
강화하리,True,http://place.map.kakao.com/69436345,강화하리,인천 강화군 삼산면 석모리 1425-7,삼산저수지,126.2876369447655,"여행 > 관광,명소 > 호수",,37.70999934598805
소래포구,True,http://place.map.kakao.com/14863190,소래포구,인천 남동구 논현동 680-1,소래포구종합어시장,126.73718513522223,"가정,생활 > 시장",,37.39902662770026
진두항,True,http://place.map.kakao.com/18354463,진두항,경남 통영시 한산면 하소리 43-13,진두항,128.50741309348925,"교통,수송 > 교통시설 > 항구,포구",,34.76659733549777
장자도,True,http://place.map.kakao.com/18376726,장자도,전북특별자치도 군산시 옥도면 장자도리,장자도,126.397449141606,"여행 > 관광,명소 > 섬",,35.8102133603805
가거도,True,http://place.map.kakao.com/8100015,가거도,전남 신안군 흑산면 가거도리,가거도,125.11874890596,"여행 > 관광,명소 > 섬",,34.0658864248533
대청도,True,http://place.map.kakao.com/18376802,대청도,인천 옹진군 대청면 대청리 산 171-9,대청도,124.69854533677459,"여행 > 관광,명소 > 섬",,37.823074015318994
백령도,True,http://place.map.kakao.com/18376785,백령도,인천 옹진군 백령면 북포리,백령도,124.678130592844,"여행 > 관광,명소 > 섬",,37.9536241230669
거진,True,http://place.map.kakao.com/26952651,거진,강원특별자치도 고성군 현내면 초도리,화진포해변,128.439373564159,"여행 > 관광,명소 > 해수욕장,해변",,38.4785382598549
속초,True,http://place.map.kakao.com/10482115,속초,강원특별자치도 속초시 장사동 24-9,설악워터피아,128.527533176067,"여행 > 관광,명소 > 테마파크 > 워터테마파크",033-630-5800,38.2080672950919
기사문항,True,http://place.map.kakao.com/17806381,기사문항,강원특별자치도 양양군 현북면 기사문리,기사문항,128.730686542293,"교통,수송 > 교통시설 > 항구,포구",,38.0070251293179
주문진,True,http://place.map.kakao.com/8073114,주문진,강원특별자치도 강릉시 주문진읍 향호리 8-35,주문진해변,128.818780222834,"여행 > 관광,명소 > 해수욕장,해변",033-640-4535,37.9111195197386
묵호,True,http://place.map.kakao.com/1437031172,묵호,강원특별자치도 동해시 묵호진동 2-109,도째비골스카이밸리,129.1191308640915,"여행 > 관광,명소",033-534-6955,37.555254601862806
동해항,True,http://place.map.kakao.com/10285815,동해항,강원특별자치도 동해시 송정동,동해항,129.12355183414,"교통,수송 > 교통시설 > 항구,포구",,37.4904406679604
임원항,True,http://place.map.kakao.com/8539926,임원항,강원특별자치도 삼척시 원덕읍 임원리,임원항,129.346320865434,"교통,수송 > 교통시설 > 항구,포구",,37.2293230016059
죽변항,True,http://place.map.kakao.com/8522118,죽변항,경북 울진군 죽변면 죽변리,죽변항,129.421871336377,"교통,수송 > 교통시설 > 항구,포구",054-789-6862,37.0581009124802
후포,True,http://place.map.kakao.com/188953881,후포,경북 울진군 후포면 후포리 산 141-1,등기산스카이워크,129.46485722506384,"여행 > 관광,명소 > 전망대",054-787-5862,36.68024188122708
축산항,True,http://place.map.kakao.com/10844661,축산항,경북 영덕군 축산면,축산항,129.448192039963,"교통,수송 > 교통시설 > 항구,포구",,36.5086104978118
강구항,True,http://place.map.kakao.com/26955538,강구항,경북 영덕군 강구면 강구리 253-51,강구항,129.391312764605,"교통,수송 > 교통시설 > 항구,포구",,36.3587105199347
월포리,True,http://place.map.kakao.com/17408382,월포리,경북 포항시 북구 청하면 월포리 92-111,월포해수욕장,129.371254482265,"여행 > 관광,명소 > 해수욕장,해변",054-232-9770,36.2016482179639
포항,True,http://place.map.kakao.com/8161524,포항,경북 포항시 남구 호미곶면 대보리,호미곶,129.56973687334,"여행 > 관광,명소",054-270-5855,36.0780561712913
구룡포항,True,http://place.map.kakao.com/10132683,구룡포항,경북 포항시 남구 구룡포읍 구룡포리 954-2,구룡포항,129.555754375252,"교통,수송 > 교통시설 > 항구,포구",,35.9893054093577
양포항,True,http://place.map.kakao.com/8495016,양포항,경북 포항시 남구 장기면 양포리 9-32,양포항,129.520018851223,"교통,수송 > 교통시설 > 항구,포구",,35.8810769062536
감포,True,http://place.map.kakao.com/11256465,감포,경북 경주시 감포읍 오류리,오류고아라해변,129.509520717781,"여행 > 관광,명소 > 해수욕장,해변",,35.8213166189963
정자항,True,http://place.map.kakao.com/12553359,정자항,울산 북구 정자동,정자항,129.451306713628,"교통,수송 > 교통시설 > 항구,포구",,35.6166303603646
미포,True,http://place.map.kakao.com/8077473,미포,울산 동구 미포동,지경바위,129.453403907164,"여행 > 관광,명소 > 바위",,35.5458137208012
방어진항,True,http://place.map.kakao.com/10395538,방어진항,울산 동구 방어동,방어진항,129.427687096483,"교통,수송 > 교통시설 > 항구,포구",,35.4832399758743
온산,True,http://place.map.kakao.com/26564184,온산,울산 울주군 온산읍 덕신리 535-1,해파랑길 5코스,129.30345732044026,"여행 > 관광,명소 > 도보여행 > 해파랑길",,35.434279265752544
왕돌초,True,http://place.map.kakao.com/682316415,왕돌초,경북 울진군 죽변면 봉평리 190,왕돌초,129.414274460457,"음식점 > 한식 > 해물,생선 > 굴,전복",054-781-8080,37.0385739962216
아야진항,True,http://place.map.kakao.com/7983534,아야진항,강원특별자치도 고성군 토성면 아야진리 1-3,아야진항,128.55711415226696,"교통,수송 > 교통시설 > 항구,포구",,38.273776710029075
수산항,True,http://place.map.kakao.com/8437031,수산항,강원특별자치도 양양군 손양면,수산항,128.675227730742,"교통,수송 > 교통시설 > 항구,포구",,38.0786264421028
강릉금진항,True,http://place.map.kakao.com/11017236,강릉금진항,강원특별자치도 강릉시 옥계면 금진리 124-52,금진항,129.052285576855,"교통,수송 > 교통시설 > 항구,포구",033-640-4414,37.6525304630476
덕산항,True,http://place.map.kakao.com/8266197,덕산항,강원특별자치도 삼척시 근덕면 덕산리 4-6,덕산항,129.254806487727,"교통,수송 > 교통시설 > 항구,포구",033-573-9153,37.3775040353863
장호항,True,http://place.map.kakao.com/26952521,장호항,강원특별자치도 삼척시 근덕면 장호리 1-13,장호항,129.31786815499595,"교통,수송 > 교통시설 > 항구,포구",033-570-3412,37.28852224018127
호산항,True,http://place.map.kakao.com/18848573,호산항,강원특별자치도 삼척시 원덕읍 호산리,호산항,129.342458310254,"교통,수송 > 교통시설 > 항구,포구",,37.1761269977699
구산항,True,http://place.map.kakao.com/8223281,구산항,경북 울진군 기성면 구산리 101-12,구산항,129.470915934841,"교통,수송 > 교통시설 > 항구,포구",,36.7582084886276
오산항,True,http://place.map.kakao.com/25037113,오산항,경북 울진군 매화면 오산리 226-14,오산항,129.416654731169,"교통,수송 > 교통시설 > 항구,포구",,36.8919765739588
강양항,True,http://place.map.kakao.com/18445207,강양항,울산 울주군 온산읍 강양리 86,강양항,129.346144826581,"교통,수송 > 교통시설 > 항구,포구",,35.3904109500858
읍천항,True,http://place.map.kakao.com/17434180,읍천항,경북 경주시 양남면 읍천리,읍천항,129.475670915367,"교통,수송 > 교통시설 > 항구,포구",,35.6914278467318
강릉,True,http://place.map.kakao.com/8199114,강릉,강원특별자치도 강릉시 강문동 산 1,경포해수욕장,128.910210247605,"여행 > 관광,명소 > 해수욕장,해변",,37.8034055083125
공현진항,True,http://place.map.kakao.com/25050148,공현진항,강원특별자치도 고성군 죽왕면 공현진리 431-22,공현진항,128.513769121485,"교통,수송 > 교통시설 > 항구,포구",,38.354642045576
옥계항,True,http://place.map.kakao.com/14691214,옥계항,강원특별자치도 강릉시 옥계면 주수리,옥계항,129.056988021956,"교통,수송 > 교통시설 > 항구,포구",,37.6230560459779
궁촌항,True,http://place.map.kakao.com/26398942,궁촌항,강원특별자치도 삼척시 근덕면 궁촌리 213-18,궁촌항,129.268669392365,"교통,수송 > 교통시설 > 항구,포구",,37.327015112374
대진항,True,http://place.map.kakao.com/7830287,대진항,강원특별자치도 고성군 현내면 대진리 130-5,대진항,128.42478573422738,"교통,수송 > 교통시설 > 항구,포구",033-682-0138,38.49977532209727
속초대포항,True,http://place.map.kakao.com/10324177,속초대포항,강원특별자치도 속초시 대포동,대포항,128.609131231383,"교통,수송 > 교통시설 > 항구,포구",033-639-2690,38.172227102312
사천진항,True,http://place.map.kakao.com/26260120,사천진항,강원특별자치도 강릉시 사천면 사천진리 2,사천진항,128.876988869022,"교통,수송 > 교통시설 > 항구,포구",033-640-4414,37.8372562056956
남애항,True,http://place.map.kakao.com/8226156,남애항,강원특별자치도 양양군 현남면 남애리 2-8,남애항,128.787405857015,"교통,수송 > 교통시설 > 항구,포구",,37.944487913925
영덕대진항,True,http://place.map.kakao.com/8293761,영덕대진항,경북 영덕군 영해면 대진리,대진항,129.433357155272,"교통,수송 > 교통시설 > 항구,포구",,36.5581545844922
울진사동항,True,http://place.map.kakao.com/11055759,울진사동항,경북 울진군 기성면 사동리 289-11,사동항,129.446635543164,"교통,수송 > 교통시설 > 항구,포구",,36.8258585102527
대보항,True,http://place.map.kakao.com/1335798844,대보항,경북 포항시 남구 호미곶면 구만리 61-24,대보항 트릭아트벽화,129.561329995707,"여행 > 관광,명소 > 문화유적 > 그림,벽화",,36.0813796372088
영일만항,True,http://place.map.kakao.com/8126046,영일만항,경북 포항시 북구 흥해읍 용한리 853,포항영일만항,129.435298666205,"교통,수송 > 교통시설 > 항구,포구",054-250-8000,36.110470848669
구계항,True,http://place.map.kakao.com/8703744,구계항,경북 영덕군 남정면 구계리 189-4,구계항,129.37937044653,"교통,수송 > 교통시설 > 항구,포구",,36.3192856714178
발산항,True,http://place.map.kakao.com/112463300,발산항,경북 포항시 남구 동해면 발산리 189,발산항,129.516067624022,"교통,수송 > 교통시설 > 항구,포구",,36.0455539285564
신리방파제,True,http://place.map.kakao.com/133465604,신리방파제,울산 울주군 서생면 신암리 969-1,신리방파제,129.321162530821,"교통,수송 > 교통시설 > 선착장,항만시설 > 방파제",,35.3421992670508
나사리방파제,True,http://place.map.kakao.com/212380982,나사리방파제,울산 울주군 서생면 나사리 168-8,나사리방파제,129.341500564024,"교통,수송 > 교통시설 > 선착장,항만시설 > 방파제",,35.3541480201912
잿골방파제,True,http://place.map.kakao.com/1547073575,잿골방파제,울산 울주군 서생면 대송리 339-15,송정방파제,129.357300808442,"교통,수송 > 교통시설 > 선착장,항만시설 > 방파제",,35.3687228900769
간절곶방파제,True,http://place.map.kakao.com/1547073575,간절곶방파제,울산 울주군 서생면 대송리 339-15,송정방파제,129.357300808442,"교통,수송 > 교통시설 > 선착장,항만시설 > 방파제",,35.3687228900769
선경방파제,True,http://place.map.kakao.com/976327052,선경방파제,울산 남구 황성동 830,선경방파제,129.37053541321103,"교통,수송 > 교통시설 > 선착장,항만시설 > 방파제",,35.45281451548025
수렴항,True,http://place.map.kakao.com/836310890,수렴항,경북 경주시 양남면 수렴리 665-2,수렴항,129.462229128782,"교통,수송 > 교통시설 > 항구,포구",,35.6655148266001
동방파제,True,http://place.map.kakao.com/27456398,동방파제,부산 해운대구 중동 591-21,청사포어항동방파제등대,129.191520969114,"교통,수송 > 교통시설 > 등대",,35.1592915773208
화암방파제,True,http://place.map.kakao.com/27021511,화암방파제,울산 동구 방어동 955-1,화암방파제,129.405425088392,"교통,수송 > 교통시설 > 선착장,항만시설 > 방파제",,35.4716984494541
방어진방파제,True,http://place.map.kakao.com/190195871,방어진방파제,울산 동구 방어동,상진방파제,129.420841952426,"교통,수송 > 교통시설 > 선착장,항만시설 > 방파제",,35.4812691171305
주전항,True,http://place.map.kakao.com/25411865,주전항,울산 동구 주전동 94-12,주전항,129.458258218573,"교통,수송 > 교통시설 > 항구,포구",,35.5616630329235
당사항,True,http://place.map.kakao.com/18354252,당사항,전남 신안군 암태면 당사리 180-8,당사도항(암태면),126.17367528492684,"교통,수송 > 교통시설 > 항구,포구",,34.88638726129386
정자방파제,True,http://place.map.kakao.com/27021523,정자방파제,울산 북구 정자동 638,정자방파제,129.453439426563,"교통,수송 > 교통시설 > 등대",052-228-5682,35.6170914985742
삼정방파제,True,http://place.map.kakao.com/24994772,삼정방파제,경북 포항시 남구 구룡포읍 삼정리,삼정방파제,129.574082638197,"교통,수송 > 교통시설 > 선착장,항만시설 > 방파제",,36.0024275717225
임곡항,True,http://place.map.kakao.com/107404915,임곡항,경북 포항시 남구 동해면 임곡리 244-2,임곡항,129.457475518292,"교통,수송 > 교통시설 > 항구,포구",,35.9982976117405
모포항,True,http://place.map.kakao.com/1190550997,모포항,경북 포항시 남구 장기면 모포리 61-5,모포항,129.52599025771,"교통,수송 > 교통시설 > 항구,포구",,35.9329555190632
부산,True,http://place.map.kakao.com/7913306,부산,부산 해운대구 우동,해운대해수욕장,129.159854668484,"여행 > 관광,명소 > 해수욕장,해변",051-749-7612,35.1585232170784
영도,True,http://place.map.kakao.com/22875776,영도,부산 영도구 영선동4가 1044-6,흰여울문화마을,129.04527260373365,"여행 > 관광,명소",,35.077914975149746
다대포,True,http://place.map.kakao.com/8214103,다대포,부산 사하구 다대동,다대포해수욕장,128.962741189119,"여행 > 관광,명소 > 해수욕장,해변",051-220-4912,35.0465263488422
대항동,True,http://place.map.kakao.com/626286513,대항동,부산 강서구 대항동 산 33,대항항포진지동굴,128.826622230377,"여행 > 관광,명소 > 동굴",051-970-4062,35.01440554788832
가덕도,True,http://place.map.kakao.com/8094767,가덕도,부산 강서구 성북동 산 85,가덕도,128.82787787290388,"여행 > 관광,명소 > 섬",,35.06168718045022
진해,True,http://place.map.kakao.com/19522891,진해,경남 창원시 진해구 여좌동,여좌천,128.660414261631,"여행 > 관광,명소 > 하천",,35.1622297838177
행암만,True,http://place.map.kakao.com/746914598,행암만,경남 창원시 진해구 행암동 121-3,행암문예마루,128.699769572278,"문화,예술 > 문화시설",,35.1179571930942
마산,True,http://place.map.kakao.com/24286081,마산,경남 창원시 마산합포구 구산면 반동리 산 105,경남 마산로봇랜드,128.5870460366396,"여행 > 관광,명소 > 테마파크",055-214-6000,35.07712259000571
고현항,True,http://place.map.kakao.com/145671904,고현항,경남 거제시 거제면 오수리 836-3,오수항,128.588614974299,"교통,수송 > 교통시설 > 항구,포구",,34.8309534145138
통영죽도,True,http://place.map.kakao.com/18376895,통영죽도,경남 통영시 한산면 매죽리,죽도,128.529322942192,"여행 > 관광,명소 > 섬",,34.7314281319378
견내량,True,http://place.map.kakao.com/25175247,견내량,경남 거제시 사등면 덕호리,견내량,128.481138486889,부동산 > 지명,,34.8851087203861
성포항,True,http://place.map.kakao.com/745853702,성포항,경남 거제시 사등면 성포리 331-29,성포항,128.525930867339,"교통,수송 > 교통시설 > 항구,포구",,34.9210675587311
우두포,True,http://place.map.kakao.com/25329910,우두포,경남 고성군 동해면 장좌리,우두포,128.475748417101,부동산 > 지명,,34.999457645776
옥포항,True,http://place.map.kakao.com/8017755,옥포항,경남 거제시 옥포동,옥포항,128.698521532348,"교통,수송 > 교통시설 > 항구,포구",,34.8906722692398
장승포항,True,http://place.map.kakao.com/552211212,장승포항,경남 거제시 장승포동 685-1,장승포유람선터미널,128.724635332239,"교통,수송 > 교통시설 > 선착장,항만시설 > 유람선선착장",,34.8662895400078
지세포항,True,http://place.map.kakao.com/10782588,지세포항,경남 거제시 일운면 지세포리 929-121,지세포항,128.70349251697442,"교통,수송 > 교통시설 > 항구,포구",,34.8316978214571
구조라,True,http://place.map.kakao.com/11026203,구조라,경남 거제시 일운면 구조라리 423-1,구조라해수욕장,128.692890014526,"여행 > 관광,명소 > 해수욕장,해변",055-639-3000,34.8069653420412
저구리,True,http://place.map.kakao.com/878703964,저구리,경남 거제시 남부면 저구리 423,근포땅굴,128.5910853399403,"여행 > 관광,명소 > 동굴",,34.72292895533716
죽림항,True,http://place.map.kakao.com/274906958,죽림항,전남 여수시 소호동,소호항,127.65635168488,"교통,수송 > 교통시설 > 항구,포구",,34.7456829464063
용초도,True,http://place.map.kakao.com/8462995,용초도,경남 통영시 한산면 용호리 산 131,용호도,128.49052824136987,"여행 > 관광,명소 > 섬",,34.741235923321604
통영,True,http://place.map.kakao.com/11657791,통영,경남 통영시 도남동 349-1,통영케이블카,128.426207930721,"여행 > 관광,명소 > 케이블카",1544-3303,34.8267877405814
고성만,True,http://place.map.kakao.com/288883330,고성만,경남 고성군 삼산면 판곡리 산 211-2,고성만 해지개길,128.312359597628,"여행 > 관광,명소 > 드라이브코스",,34.9439346398521
자란도,True,http://place.map.kakao.com/8060781,자란도,경남 고성군 하일면 송천리,자란도,128.22414335776,"여행 > 관광,명소 > 섬",,34.929591875539
사량도,True,http://place.map.kakao.com/18376734,사량도,경남 통영시 사량면 금평리,사량도,128.193415539474,"여행 > 관광,명소 > 섬",055-650-0580,34.8466073354244
욕지도,True,http://place.map.kakao.com/8014966,욕지도,경남 통영시 욕지면 동항리,욕지도,128.252369035815,"여행 > 관광,명소 > 섬",055-649-9905,34.6363687135464
물건항,True,http://place.map.kakao.com/7873249,물건항,경남 남해군 삼동면 물건리,물건항,128.055025669155,"교통,수송 > 교통시설 > 항구,포구",,34.7953988228938
삼천포,True,http://place.map.kakao.com/8356009,삼천포,경남 사천시 벌리동 69,삼천포터미널,128.080387365182,"교통,수송 > 교통시설 > 고속,시외버스터미널",1688-3006,34.9394603725928
노량리,True,http://place.map.kakao.com/356674812,노량리,경남 하동군 금남면 노량리,동살낚시광장,127.881926840616,"여행 > 관광,명소 > 광장",,34.950340066631
양아리,True,http://place.map.kakao.com/1138763769,양아리,경남 남해군 상주면 양아리 914-1,남파랑길 41코스,127.95896959576,"여행 > 관광,명소 > 도보여행 > 남파랑길",,34.7166842357805
미조항,True,http://place.map.kakao.com/18354359,미조항,경남 통영시 산양읍 추도리,미조항,128.288511794023,"교통,수송 > 교통시설 > 항구,포구",,34.7573315888481
평산리,True,http://place.map.kakao.com/2036248218,평산리,경남 남해군 남면 평산리 888-4,섬이정원,127.860651270157,"여행 > 관광,명소",010-2255-3577,34.7522489751291
서상항,True,http://place.map.kakao.com/18377093,서상항,경남 남해군 서면 서상리 1316-5,서상항,127.83335271855653,"교통,수송 > 교통시설 > 항구,포구",,34.80936926689529
여수,True,http://place.map.kakao.com/1576142949,여수,전남 여수시 소라면 죽림리 116,유월드루지테마파크,127.64145820546894,"여행 > 관광,명소 > 테마파크",061-810-6000,34.747911242414574
사포리,True,http://place.map.kakao.com/8233488,사포리,전북특별자치도 고창군 흥덕면 사포리 335,김소희 생가,126.67684264025,"여행 > 관광,명소 > 문화유적 > 생가,고택",,35.5459890578488
낭도항,True,http://place.map.kakao.com/17434292,낭도항,전남 여수시 화정면 낭도리 1306-15,낭도항,127.538682271077,"교통,수송 > 교통시설 > 항구,포구",,34.6041896509331
월전항,True,http://place.map.kakao.com/18354367,월전항,전남 여수시 남면 화태리,월전항,127.736601667612,"교통,수송 > 교통시설 > 항구,포구",,34.5778543283482
대여자도,True,http://place.map.kakao.com/7998779,대여자도,전남 여수시 화정면 여자리 544-1,대여자도,127.49652541833682,"여행 > 관광,명소 > 섬",,34.760264328744505
조발도,True,http://place.map.kakao.com/8064806,조발도,전남 여수시 화정면 조발리,조발도,127.558958725814,"여행 > 관광,명소 > 섬",,34.6365533335492
사양도,True,http://place.map.kakao.com/8341565,사양도,전남 고흥군 봉래면 사양리,사양도,127.441975179855,"여행 > 관광,명소 > 섬",061-830-6570,34.4734545018355
나로도항,True,http://place.map.kakao.com/18377094,나로도항,전남 고흥군 봉래면 신금리 1256-3,나로도항,127.45374795530168,"교통,수송 > 교통시설 > 항구,포구",,34.46393349744214
손죽도,True,http://place.map.kakao.com/18376711,손죽도,전남 여수시 삼산면 손죽리,손죽도,127.35730804063,"여행 > 관광,명소 > 섬",,34.2830886383545
광도,True,http://place.map.kakao.com/1159883746,광도,경남 통영시 광도면 노산리 911,광도천수국꽃길,128.416682953316,"여행 > 관광,명소 > 테마거리",,34.8962600859406
거문도,True,http://place.map.kakao.com/18376681,거문도,전남 여수시 삼산면 거문리,거문도,127.316168438845,"여행 > 관광,명소 > 섬",,34.0268970702321
초도,True,http://place.map.kakao.com/8098392,초도,전남 여수시 경호동,초도,127.712730894162,"여행 > 관광,명소 > 섬",,34.6927062309379
금당도,True,http://place.map.kakao.com/8215568,금당도,전남 완도군 금당면 육산리,금당도,127.052225339308,"여행 > 관광,명소 > 섬",,34.4366441817221
평일도,True,http://place.map.kakao.com/18376732,평일도,전남 완도군 금일읍 신구리,평일도,127.04754894475,"여행 > 관광,명소 > 섬",,34.3480925541832
약산도,True,http://place.map.kakao.com/18376890,약산도,전남 완도군 약산면 우두리,조약도(약산도),126.90260747947,"여행 > 관광,명소 > 섬",,34.3811797148888
완도,True,http://place.map.kakao.com/18376774,완도,전남 완도군 완도읍 장좌리,완도,126.699482239184,"여행 > 관광,명소 > 섬",,34.3516165266404
청산도,True,http://place.map.kakao.com/18376916,청산도,전남 완도군 청산면 부흥리,청산도,126.887186779959,"여행 > 관광,명소 > 섬",061-550-5608,34.1815731474627
마량항,True,http://place.map.kakao.com/10353983,마량항,전남 강진군 마량면,마량미항,126.819249378887,"교통,수송 > 교통시설 > 항구,포구",,34.4482227615815
소안항,True,http://place.map.kakao.com/18377118,소안항,전남 완도군 소안면 이월리,소안항,126.634506179841,"교통,수송 > 교통시설 > 항구,포구",,34.1799123538671
이목항,True,http://place.map.kakao.com/17434396,이목항,전남 완도군 노화읍 이포리,이목항,126.574043512777,"교통,수송 > 교통시설 > 항구,포구",,34.17662343972
여서도,True,http://place.map.kakao.com/18376826,여서도,전남 완도군 청산면 여서리,여서도,126.923166854304,"여행 > 관광,명소 > 섬",,33.978528340064
고리,True,http://place.map.kakao.com/12705903,고리,부산 기장군 장안읍 고리 산 4,기장아이봉수대,129.29507793296142,"여행 > 관광,명소 > 문화유적 > 봉수대",,35.32544347314517
대변항,True,http://place.map.kakao.com/7825588,대변항,부산 기장군 기장읍 대변리 274-17,대변항,129.230866975966,"교통,수송 > 교통시설 > 항구,포구",051-709-4501,35.2205271966255
녹동,True,http://place.map.kakao.com/15694552,녹동,전남 고흥군 도양읍 봉암리 3163,녹동농협,127.14047404016158,"금융,보험 > 금융서비스 > 은행 > 농축협",061-844-3701,34.52620315237243
고흥발포,True,http://place.map.kakao.com/11063170,고흥발포,전남 고흥군 도화면 발포리 13-6,발포해수욕장,127.3558336526,"여행 > 관광,명소 > 해수욕장,해변",,34.4913680774791
순천만,True,http://place.map.kakao.com/7960510,순천만,전남 순천시 대대동 162-2,순천만자연생태관,127.509820497776,"여행 > 관광,명소",061-749-6052,34.8853801201683
백야도,True,http://place.map.kakao.com/18376864,백야도,전남 여수시 화정면 백야리,백야도,127.637852072192,"여행 > 관광,명소 > 섬",,34.6152785576959
부산신항,True,http://place.map.kakao.com/1276455388,부산신항,부산 강서구 생곡동 1594-8,부산신항주유소,128.86962183325048,"교통,수송 > 자동차 > 주유,가스 > 주유소 > HD현대오일뱅크주유소",051-971-5104,35.136900652897054
소매물도,True,http://place.map.kakao.com/18376872,소매물도,경남 통영시 한산면 매죽리,소매물도,128.549524680009,"여행 > 관광,명소 > 섬",055-642-8515,34.6260326904259
고흥우도,True,http://place.map.kakao.com/8019937,고흥우도,전남 고흥군 남양면 남양리,우도,127.31063407928,"여행 > 관광,명소 > 섬",,34.7244478728563
해운대,True,http://place.map.kakao.com/7913306,해운대,부산 해운대구 우동,해운대해수욕장,129.159854668484,"여행 > 관광,명소 > 해수욕장,해변",051-749-7612,35.1585232170784
해양박물관,True,http://place.map.kakao.com/17657287,해양박물관,부산 영도구 동삼동 1156,국립해양박물관,129.08028722464732,"문화,예술 > 문화시설 > 박물관",051-309-1900,35.078517720104706
능포항,True,http://place.map.kakao.com/17434245,능포항,경남 거제시 능포동,능포항,128.737617284785,"교통,수송 > 교통시설 > 항구,포구",,34.8850004345519
귀산동,True,http://place.map.kakao.com/12644295,귀산동,경남 창원시 성산구 귀산동,삼귀해안,128.600718049504,"여행 > 관광,명소",,35.1636138526141
원전항,True,http://place.map.kakao.com/8034669,원전항,경남 창원시 마산합포구 구산면 심리,원전항,128.631430660419,"교통,수송 > 교통시설 > 항구,포구",,35.067283097563
광암항,True,http://place.map.kakao.com/10155841,광암항,경남 창원시 마산합포구 진동면 요장리,광암항,128.496792334439,"교통,수송 > 교통시설 > 항구,포구",,35.1025756532708
사등면,True,http://place.map.kakao.com/8679236,사등면,경남 거제시 사등면 창호리,가조도,128.521695856991,"여행 > 관광,명소 > 섬",,34.9602687633789
안정리예포,True,http://place.map.kakao.com/323492774,안정리예포,경남 통영시 광도면 안정리 46-6,예포방파제,128.427445751276,"교통,수송 > 교통시설 > 선착장,항만시설 > 방파제",,34.939392868425
통영홍도,True,http://place.map.kakao.com/9627617,통영홍도,경남 통영시 미수동 1-8,홍도복어,128.411630602814,"음식점 > 한식 > 해물,생선 > 복어",055-648-3678,34.8328848181225
다대다포항,True,http://place.map.kakao.com/8219842,다대다포항,경남 거제시 남부면 다포리 214-3,다대다포항,128.62420802880655,"교통,수송 > 교통시설 > 항구,포구",,34.73051148233917
대포근포항,True,http://place.map.kakao.com/519073097,대포근포항,경남 거제시 남부면 저구리 637-3,대포근포항,128.58604712004345,"교통,수송 > 교통시설 > 항구,포구",,34.71507762347521
매물도항,True,http://place.map.kakao.com/17434253,매물도항,경남 통영시 한산면 매죽리,매물도항,128.575107248377,"교통,수송 > 교통시설 > 항구,포구",,34.6476429807983
실리항,True,http://place.map.kakao.com/233418622,실리항,경남 거제시 거제면 법동리 84-14,실리항,128.54004395707,"교통,수송 > 교통시설 > 항구,포구",,34.8064472808764
호두항,True,http://place.map.kakao.com/17434252,호두항,경남 통영시 한산면 용호리,호두항,128.503220089656,"교통,수송 > 교통시설 > 항구,포구",,34.7390609683932
연화도,True,http://place.map.kakao.com/18376827,연화도,경남 통영시 욕지면 연화리,연화도,128.354324208877,"여행 > 관광,명소 > 섬",,34.6459942292734
삼덕항,True,http://place.map.kakao.com/7910852,삼덕항,경남 통영시 산양읍 삼덕리,삼덕항,128.383424057909,"교통,수송 > 교통시설 > 항구,포구",,34.7957428903292
풍화리,True,http://place.map.kakao.com/25200746,풍화리,경남 통영시 산양읍 풍화리,다랑골,128.375662943219,"여행 > 관광,명소 > 계곡",,34.8176212094884
남포항,True,http://place.map.kakao.com/17434237,남포항,경남 고성군 고성읍 수남리,남포항,128.321579911188,"교통,수송 > 교통시설 > 항구,포구",,34.9571352648139
용암포,True,http://place.map.kakao.com/25329028,용암포,경남 고성군 하일면 춘암리,용암포,128.169946827089,부동산 > 지명,,34.9057575235109
능양항,True,http://place.map.kakao.com/17434254,능양항,경남 통영시 사량면,능양항,128.243450299982,"교통,수송 > 교통시설 > 항구,포구",,34.8102906196902
북구항,True,http://place.map.kakao.com/18354203,북구항,경남 통영시 욕지면 두미리,북구항,128.18175649353,"교통,수송 > 교통시설 > 항구,포구",,34.709337587141
동천리,True,http://place.map.kakao.com/1139951394,동천리,경남 남해군 삼동면 동천리 1526,남파랑길 39코스,128.03836189790565,"여행 > 관광,명소 > 도보여행 > 남파랑길",,34.82417203072431
두문포,True,http://place.map.kakao.com/7845480,두문포,전남 여수시 돌산읍 죽포리 135,두문포,127.79314577500307,부동산 > 지명,,34.642902712365576
율림리,True,http://place.map.kakao.com/17583176,율림리,전남 여수시 돌산읍 율림리 산 7-2,향일암 종각,127.804037258166,"여행 > 관광,명소 > 문화유적 > 유적지",,34.5915700865782
여수연도항,True,http://place.map.kakao.com/18354439,여수연도항,전남 여수시 남면 연도리,역포항,127.803357398468,"교통,수송 > 교통시설 > 항구,포구",,34.4527591238344
작도,True,http://place.map.kakao.com/14864745,작도,전남 여수시 남면 연도리 산 607,작도,127.903866469884,"여행 > 관광,명소 > 섬",,34.4163103650724
돌산항,True,http://place.map.kakao.com/7834518,돌산항,전남 여수시 돌산읍 군내리,돌산항,127.723450121719,"교통,수송 > 교통시설 > 항구,포구",,34.6136255265138
국동항,True,http://place.map.kakao.com/17434280,국동항,전남 여수시 국동,국동항,127.721832073698,"교통,수송 > 교통시설 > 항구,포구",,34.7253086314072
소호동,True,http://place.map.kakao.com/530749902,소호동,전남 여수시 소호동 498-1,소호동동다리,127.65074568267204,"여행 > 관광,명소",061-659-3971,34.74087611212171
세포리,True,http://place.map.kakao.com/25286933,세포리,전남 완도군 금당면 차우리,세포리,127.066237902346,부동산 > 지명,,34.4185287034193
비토리,True,http://place.map.kakao.com/27306528,비토리,경남 사천시 서포면 비토리,비토도,127.971820057869,"여행 > 관광,명소 > 섬",,34.9725157964354
초음리,True,http://place.map.kakao.com/23182437,초음리,경남 남해군 이동면 초음리 1594,장평소류지,127.92294463755562,"여행 > 관광,명소 > 저수지",,34.81891810411396
신노량항,True,http://place.map.kakao.com/17645975,신노량항,경남 하동군 금남면 노량리 742-12,노량항,127.860439782112,"교통,수송 > 교통시설 > 항구,포구",055-882-3067,34.9470113412667
갈사리,True,http://place.map.kakao.com/14864851,갈사리,경남 하동군 금성면 갈사리 산 75-1,소마도,127.781832877424,"여행 > 관광,명소 > 섬",,34.9355257544373
월내동,True,http://place.map.kakao.com/24202164,월내동,전남 여수시 월내동 455,월내제,127.72791106487446,"여행 > 관광,명소 > 저수지",,34.84159413730701
사도,True,http://place.map.kakao.com/7922043,사도,전남 여수시 화정면 낭도리 125,사도,127.554777334735,"여행 > 관광,명소 > 섬",,34.590996343673
달천도,True,http://place.map.kakao.com/13122493,달천도,전남 여수시 소라면 복산리 2110,달천도,127.56391427840404,"여행 > 관광,명소 > 섬",,34.765223365503665
해도,True,http://place.map.kakao.com/10987117,해도,경북 포항시 남구 송정동,형산강,129.377925689723,"여행 > 관광,명소 > 하천",,36.0193884555177
백일도,True,http://place.map.kakao.com/7885882,백일도,전남 고흥군 과역면 백일리,백일도,127.434508662124,"여행 > 관광,명소 > 섬",,34.6946972438291
금사리,True,http://place.map.kakao.com/15171169,금사리,전남 고흥군 영남면 금사리 산 37-1,팔영산,127.43645280822943,"여행 > 관광,명소 > 산",,34.61715240299595
봉영리,True,http://place.map.kakao.com/20098064,봉영리,전남 고흥군 동일면 봉영리 105,항도,127.500376698715,"여행 > 관광,명소 > 섬",,34.5036405777548
염포,True,http://place.map.kakao.com/1753610805,염포,울산 북구 염포동 산 50-1,염포전망대,129.405455783963,"여행 > 관광,명소 > 전망대",,35.5416776797134
익금,True,http://place.map.kakao.com/8049213,익금,전남 고흥군 금산면 어전리 424-15,익금해수욕장,127.145574927281,"여행 > 관광,명소 > 해수욕장,해변",061-830-6507,34.429804081399
득량도,True,http://place.map.kakao.com/7854107,득량도,전남 고흥군 도양읍 득량리,득량도,127.098384442783,"여행 > 관광,명소 > 섬",,34.6002225214902
고흥방조제,True,http://place.map.kakao.com/17434190,고흥방조제,전남 고흥군 도덕면 용동리 1454,고흥만방조제,127.21309367315261,"여행 > 관광,명소 > 방조제",,34.65091715385947
풍류리,True,http://place.map.kakao.com/17434190,풍류리,전남 고흥군 도덕면 용동리 1454,고흥만방조제,127.21309367315261,"여행 > 관광,명소 > 방조제",,34.65091715385947
평도,True,http://place.map.kakao.com/18376898,평도,전남 여수시 삼산면 손죽리,평도,127.450804174998,"여행 > 관광,명소 > 섬",,34.2459313673391
문도,True,http://place.map.kakao.com/180269555,문도,충남 보령시 궁촌동 344-1,문도노보,126.58821773330875,음식점 > 카페,041-932-1005,36.341860883629494
덕우도,True,http://place.map.kakao.com/18376856,덕우도,전남 완도군 생일면 봉선리,덕우도,127.015280972841,"여행 > 관광,명소 > 섬",,34.248814622283
대모도,True,http://place.map.kakao.com/18376801,대모도,전남 완도군 청산면 모도리,대모도,126.761320813614,"여행 > 관광,명소 > 섬",,34.1943672822622
방죽포항,True,http://place.map.kakao.com/25461655,방죽포항,전남 완도군 신지면 동고리 2-35,방죽포항,126.892326088758,"교통,수송 > 교통시설 > 선착장,항만시설",,34.3436227659424
득암리,True,http://place.map.kakao.com/14685168,득암리,전남 완도군 약산면 득암리,조약돌해변가 해수욕장,126.907873241812,"여행 > 관광,명소 > 해수욕장,해변",,34.3584088919251
화흥포,True,http://place.map.kakao.com/8185203,화흥포,전남 완도군 완도읍 정도리 830-14,화흥포항 대합실,126.67938495152,"교통,수송 > 교통시설 > 여객선터미널",061-555-1010,34.3053630064785
마삭도,True,http://place.map.kakao.com/18376806,마삭도,전남 완도군 노화읍 신양리,마삭도,126.565171083512,"여행 > 관광,명소 > 섬",,34.2450443106243
넙도,True,http://place.map.kakao.com/18376742,넙도,전남 완도군 노화읍 내리,넙도,126.50204348404,"여행 > 관광,명소 > 섬",,34.1921104759684
보옥항,True,http://place.map.kakao.com/17434398,보옥항,전남 완도군 보길면,보옥항,126.5122664732,"교통,수송 > 교통시설 > 항구,포구",,34.1288737681433
진해동섬,True,http://place.map.kakao.com/11952572,진해동섬,경남 창원시 진해구 명동 337-1,동섬,128.721934380788,"여행 > 관광,명소 > 섬",,35.0954298834597
삼포,True,http://place.map.kakao.com/11142281,삼포,강원특별자치도 고성군 죽왕면 삼포리,삼포해수욕장,128.535096590844,"여행 > 관광,명소 > 해수욕장,해변",,38.3153743689378
시방항,True,http://place.map.kakao.com/1477225580,시방항,경남 거제시 장목면 시방리 731-23,시방항여객선터미널,128.708834853865,"교통,수송 > 교통시설 > 여객선터미널",,34.9646360875918
거제외포,True,http://place.map.kakao.com/1784212839,거제외포,경남 거제시 장목면 외포리 53,거제외포낚시,128.719016340221,"스포츠,레저 > 스포츠용품 > 낚시용품",055-636-6345,34.9419358803844
북여도,True,http://place.map.kakao.com/23987656,북여도,경남 거제시 남부면 갈곶리,북여도,128.77541702086,"여행 > 관광,명소 > 섬",,34.6834039276839
추도리,True,http://place.map.kakao.com/18376923,추도리,경남 통영시 산양읍 추도리,추도,128.295457269933,"여행 > 관광,명소 > 섬",,34.7561870966578
갈도,True,http://place.map.kakao.com/10928180,갈도,경남 거제시 남부면 갈곶리 산 1,거제해금강,128.68370297478623,"여행 > 관광,명소 > 섬",,34.7333284367293
삼천포신항,True,http://place.map.kakao.com/1700436764,삼천포신항,경남 사천시 향촌동 1031-15,삼천포신항,128.087271406891,"교통,수송 > 교통시설 > 항구,포구",,34.9265494900342
지족리,True,http://place.map.kakao.com/672464679,지족리,경남 남해군 삼동면 지족리 192-1,죽방렴 관람대,128.006199698372,"여행 > 관광,명소 > 전망대",,34.8312178182243
대방진굴항,True,http://place.map.kakao.com/10250691,대방진굴항,경남 사천시 대방동 251,대방진굴항,128.056758430202,"교통,수송 > 교통시설 > 항구,포구",055-831-2725,34.9289134383783
안포리,True,http://place.map.kakao.com/11283831,안포리,전남 여수시 화양면 안포리,힛도,127.642836772489,"여행 > 관광,명소 > 섬 > 섬(내륙)",,34.6282508597494
두모리,True,http://place.map.kakao.com/12705872,두모리,제주특별자치도 제주시 한경면 두모리 2605,두모연대,126.18175313804075,"여행 > 관광,명소 > 문화유적 > 봉수대",,33.357450027745756
풍남항,True,http://place.map.kakao.com/27142270,풍남항,전남 고흥군 풍양면,풍남항,127.247649943059,"교통,수송 > 교통시설 > 항구,포구",,34.518375941634
거금도,True,http://place.map.kakao.com/18376736,거금도,전남 고흥군 금산면 신평리,거금도,127.170421064803,"여행 > 관광,명소 > 섬",,34.458647690794
시산항,True,http://place.map.kakao.com/1757490927,시산항,전남 고흥군 도양읍 시산리 178-8,시산항 대합실,127.260163117319,"교통,수송 > 교통시설 > 선착장,항만시설",,34.3950787952405
회진항,True,http://place.map.kakao.com/18377087,회진항,전남 장흥군 회진면 회진리,회진항,126.940862069491,"교통,수송 > 교통시설 > 항구,포구",,34.4819053175853
울포항,True,http://place.map.kakao.com/18354300,울포항,전남 완도군 금당면 차우리,울포항,127.074978888558,"교통,수송 > 교통시설 > 항구,포구",,34.4276970031137
도장항,True,http://place.map.kakao.com/25492303,도장항,전남 완도군 금일읍 장정리,도장항,127.010680163905,"교통,수송 > 교통시설 > 항구,포구",,34.3688100859676
완도사동항,True,http://place.map.kakao.com/17434380,완도사동항,전남 완도군 금일읍 사동리,사동항,127.075481902666,"교통,수송 > 교통시설 > 항구,포구",,34.3336223729866
이월리,True,http://place.map.kakao.com/1852738819,이월리,전남 완도군 소안면 이월리 산 253,황근자생지,126.646346829511,"여행 > 관광,명소 > 생태보존,서식지",,34.1965670520699
녹동항,True,http://place.map.kakao.com/18354410,녹동항,전남 고흥군 도양읍 봉암리 3907,녹동항,127.14364798603607,"교통,수송 > 교통시설 > 항구,포구",1666-7710,34.523057897324406
북형제도,True,http://place.map.kakao.com/7911126,북형제도,부산 사하구 다대동 150,북형제도,128.979275337268,"여행 > 관광,명소 > 섬",,34.933211188059
오비리,True,http://place.map.kakao.com/19835252,오비리,경남 거제시 연초면 오비리,연초천,128.632834345754,"여행 > 관광,명소 > 하천",,34.8981266196462
우학리,True,http://place.map.kakao.com/15147993,우학리,전남 여수시 남면 우학리,다도해해상국립공원,127.763651518363,"여행 > 관광,명소 > 국립공원 > 해상국립공원",,34.4905564642211
사후도,True,http://place.map.kakao.com/7913184,사후도,전남 완도군 군외면 영풍리,사후도,126.738292499284,"여행 > 관광,명소 > 섬",,34.3954775571547
어두리,True,http://place.map.kakao.com/25316376,어두리,전남 완도군 약산면 해동리,어두리,126.944330708338,부동산 > 지명,,34.4059782898985
어룡도,True,http://place.map.kakao.com/18376771,어룡도,전남 완도군 노화읍 내리,어룡도,126.47542058476,"여행 > 관광,명소 > 섬",,34.2866695793101
달도리,True,http://place.map.kakao.com/987559295,달도리,경북 포항시 북구 상원동 511-2,달도리찜닭 포항중앙점,129.36450219566962,"음식점 > 한식 > 육류,고기 > 닭요리",054-232-3902,36.03714404569598
국산리,True,http://place.map.kakao.com/19154077,국산리,전남 완도군 청산면 국산리,진산갯돌해변,126.9035900835,"여행 > 관광,명소 > 해수욕장,해변",,34.2026931090949
생일도,True,http://place.map.kakao.com/18376815,생일도,전남 완도군 생일면 유서리,생일도,126.984475043018,"여행 > 관광,명소 > 섬",061-550-6672,34.3240853276957
동율리,True,http://place.map.kakao.com/9340442,동율리,전남 보성군 회천면 동율리 678,율포해수욕장,127.08902041487755,"여행 > 관광,명소 > 해수욕장,해변",,34.67002619469291
수문리,True,http://place.map.kakao.com/7967341,수문리,전남 장흥군 안양면 수문리 142-20,수문해수욕장,127.034607258258,"여행 > 관광,명소 > 해수욕장,해변",061-860-8325,34.6349410882941
고흥금진항,True,http://place.map.kakao.com/18354296,고흥금진항,전남 고흥군 금산면 신촌리,금진항,127.123888004232,"교통,수송 > 교통시설 > 항구,포구",,34.4902476128877
여호항,True,http://place.map.kakao.com/10659855,여호항,전남 고흥군 점암면,여호항,127.470390306102,"교통,수송 > 교통시설 > 항구,포구",,34.6617487209651
곤양면,True,http://place.map.kakao.com/8185576,곤양면,경남 사천시 곤양면 송전리 16,송전저수지,127.97268798670042,"여행 > 관광,명소 > 저수지",,35.0685966392477
맥전포항,True,http://place.map.kakao.com/8353450,맥전포항,경남 고성군 하일면 춘암리 790-7,맥전포항,128.164198237755,"교통,수송 > 교통시설 > 항구,포구",,34.8993880277714
덕호리,True,http://place.map.kakao.com/18356462,덕호리,경남 거제시 사등면 덕호리 181-2,광리1소류지,128.47926783690542,"여행 > 관광,명소 > 저수지",,34.87868452937299
창선도,True,http://place.map.kakao.com/25372926,창선도,경남 남해군 창선면 서대리 산 117,창선도,127.99461982568786,"여행 > 관광,명소 > 섬",,34.8745277503971
선구리,True,http://place.map.kakao.com/24876727,선구리,경남 남해군 남면 선구리 692,몽돌해변,127.860019675713,"여행 > 관광,명소 > 해수욕장,해변",,34.7359888358998
안도항,True,http://place.map.kakao.com/18354284,안도항,전남 여수시 남면 안도리,안도항,127.803039763145,"교통,수송 > 교통시설 > 항구,포구",,34.4895864205724
동선항,True,http://place.map.kakao.com/1684212135,동선항,부산 강서구 동선동 201-26,동선항방파제등대,128.848236065981,"교통,수송 > 교통시설 > 등대",,35.0550718986201
포교항,True,http://place.map.kakao.com/1912794915,포교항,경남 고성군 삼산면 두포리 1086-3,포교항방파제등대,128.273345500532,"교통,수송 > 교통시설 > 등대",055-981-5264,34.9049307968783
수우도,True,http://place.map.kakao.com/7957824,수우도,경남 통영시 사량면 돈지리 산 337-1,수우도,128.13434308004022,"여행 > 관광,명소 > 섬",,34.83055005037563
장포항,True,http://place.map.kakao.com/27226307,장포항,경남 남해군 창선면 진동리 576-1,장포항,128.060975475284,"교통,수송 > 교통시설 > 항구,포구",,34.8446044001692
신수항,True,http://place.map.kakao.com/17434264,신수항,경남 사천시 신수동,신수항,128.073314115885,"교통,수송 > 교통시설 > 항구,포구",,34.902297722798
사천대포항,True,http://place.map.kakao.com/25461615,사천대포항,경남 사천시 대포동 438-6,대포항,128.040491241099,"교통,수송 > 교통시설 > 항구,포구",,34.9902582992444
선소항,True,http://place.map.kakao.com/217214854,선소항,경남 남해군 남해읍 선소리 33-35,선소항,127.915233375384,"교통,수송 > 교통시설 > 항구,포구",,34.8466501569883
동갈화항,True,http://place.map.kakao.com/7834275,동갈화항,경남 남해군 고현면 갈화리,동갈화항,127.835132242816,"교통,수송 > 교통시설 > 항구,포구",,34.8987776426512
문의리,True,http://place.map.kakao.com/25186054,문의리,경남 남해군 설천면 문의리 산 48,국사봉,127.91362456096955,"여행 > 관광,명소 > 산봉우리",,34.935238873955775
술상항,True,http://place.map.kakao.com/14550891,술상항,경남 하동군 진교면 술상리,술상항,127.922108069751,"교통,수송 > 교통시설 > 항구,포구",,34.9886842457926
대벽리,True,http://place.map.kakao.com/698613010,대벽리,경기 김포시 대곶면 대벽리 850,용궁저수지,126.569225340089,"여행 > 관광,명소 > 저수지",,37.611540921218
덕흥항,True,http://place.map.kakao.com/2096197464,덕흥항,전남 고흥군 동일면 덕흥리,덕흥항,127.439196444899,"교통,수송 > 교통시설 > 항구,포구",,34.5289233941707
월정리,True,http://place.map.kakao.com/17600274,월정리,제주특별자치도 제주시 구좌읍 월정리 33-3,월정리해수욕장,126.795805057888,"여행 > 관광,명소 > 해수욕장,해변",064-728-3394,33.556469394054
안남리,True,http://place.map.kakao.com/8055746,안남리,전남 고흥군 대서면 안남리,장선해수욕장,127.250641551117,"여행 > 관광,명소 > 해수욕장,해변",,34.7500241299655
가우도,True,http://place.map.kakao.com/14864655,가우도,전남 강진군 도암면 신기리,가우도,126.7817007002523,"여행 > 관광,명소 > 섬 > 섬(내륙)",,34.534326309990405
용호부두,True,http://place.map.kakao.com/8023506,용호부두,부산 남구 용호동 5-5,용호부두,129.119814539277,"교통,수송 > 교통시설 > 항구,포구 > 부두",,35.1320519832908
장목항,True,http://place.map.kakao.com/25401102,장목항,경남 거제시 장목면 장목리 403-67,장목항,128.680151846516,"교통,수송 > 교통시설 > 항구,포구",,34.9911979597263
하청항,True,http://place.map.kakao.com/1149639660,하청항,경남 거제시 하청면 하청리 1212,세븐일레븐 거제하청항점,128.647809115205,"가정,생활 > 편의점 > 세븐일레븐",,34.959250136374
연구리,True,http://place.map.kakao.com/8588452,연구리,경남 거제시 하청면 연구리,칠천도,128.635827787072,"여행 > 관광,명소 > 섬",,34.9885120314575
당항포,True,http://place.map.kakao.com/1959777166,당항포,경남 고성군 회화면 봉동리 950-1,당항포관광지,128.39947628307243,"여행 > 관광,명소",055-670-7400,35.05945842874727
염호리,True,http://place.map.kakao.com/21025421,염호리,경남 통영시 한산면 염호리 763-9,망산 한산도탐방지원센터,128.474258839182,"여행 > 관광,명소 > 관광안내소",,34.7974631727028
장문리,True,http://place.map.kakao.com/8128667,장문리,경남 통영시 용남면 장문리 995,통영지구전적비,128.417887149287,"여행 > 관광,명소 > 문화유적 > 탑,비석",,34.8690590894927
상주면,True,http://place.map.kakao.com/7931108,상주면,경남 남해군 상주면 상주리 1136-1,상주은모래비치,127.988766753979,"여행 > 관광,명소 > 해수욕장,해변",055-863-3573,34.7206365442324
가학항,True,http://place.map.kakao.com/25810538,가학항,전남 완도군 금당면 가학리 337-3,가학항,127.03405943739098,"교통,수송 > 교통시설 > 항구,포구",,34.44690359622804
대장구도,True,http://place.map.kakao.com/18376692,대장구도,전남 완도군 노화읍 내리,대장구도,126.4517427766,"여행 > 관광,명소 > 섬",,34.2614580206385
대정원도,True,http://place.map.kakao.com/18376855,대정원도,전남 완도군 노화읍 내리,대정원도,126.426691049022,"여행 > 관광,명소 > 섬",,34.2654974082609
죽굴도,True,http://place.map.kakao.com/18376891,죽굴도,전남 완도군 노화읍 방서리,죽굴도,126.421211219018,"여행 > 관광,명소 > 섬",,34.2304258025272
흑일도,True,http://place.map.kakao.com/18376928,흑일도,전남 완도군 군외면 당인리,흑일도,126.555832185705,"여행 > 관광,명소 > 섬",,34.278704652809
예작도,True,http://place.map.kakao.com/8004604,예작도,전남 완도군 보길면 예송리,예작도,126.569345297572,"여행 > 관광,명소 > 섬",,34.1312219683611
당사도,True,http://place.map.kakao.com/18376689,당사도,전남 신안군 암태면 당사리,당사도,126.182913856635,"여행 > 관광,명소 > 섬",,34.8900705050525
동화도,True,http://place.map.kakao.com/18376805,동화도,전남 완도군 군외면 당인리,동화도,126.608915130647,"여행 > 관광,명소 > 섬",,34.2880121562063
대문리방파제,True,http://place.map.kakao.com/1944518672,대문리방파제,전남 완도군 군외면 불목리 469-5,영풍방파제,126.69444728438,"교통,수송 > 교통시설 > 선착장,항만시설 > 방파제",,34.3984120645141
삼두리방파제,True,http://place.map.kakao.com/1944518672,삼두리방파제,전남 완도군 군외면 불목리 469-5,영풍방파제,126.69444728438,"교통,수송 > 교통시설 > 선착장,항만시설 > 방파제",,34.3984120645141
당인리방파제,True,http://place.map.kakao.com/1944518672,당인리방파제,전남 완도군 군외면 불목리 469-5,영풍방파제,126.69444728438,"교통,수송 > 교통시설 > 선착장,항만시설 > 방파제",,34.3984120645141
망호,True,http://place.map.kakao.com/17408054,망호,전남 강진군 도암면 신기리,가우도 망호출렁다리,126.77570205529106,"교통,수송 > 도로시설 > 교량,다리",061-430-3333,34.53063391723291
고마도,True,http://place.map.kakao.com/8176888,고마도,전남 완도군 군외면 불목리,고마도,126.713243337915,"여행 > 관광,명소 > 섬",,34.4152140349984
영풍방파제,True,http://place.map.kakao.com/1944518672,영풍방파제,전남 완도군 군외면 불목리 469-5,영풍방파제,126.69444728438,"교통,수송 > 교통시설 > 선착장,항만시설 > 방파제",,34.3984120645141
강독,True,http://place.map.kakao.com/25118878,강독,전남 완도군 신지면 송곡리 686-6,강독선착장,126.756893660568,"교통,수송 > 교통시설 > 선착장,항만시설",,34.3319944115235
망석항,True,http://place.map.kakao.com/763455571,망석항,전남 완도군 완도읍 망석리 927-5,망석항,126.739819105147,"교통,수송 > 교통시설 > 항구,포구",,34.2966789403973
소모도,True,http://place.map.kakao.com/18376819,소모도,전남 완도군 청산면 모도리,소모도,126.774157675184,"여행 > 관광,명소 > 섬",,34.2251759314779
모서항,True,http://place.map.kakao.com/18354484,모서항,전남 완도군 청산면 모도리,모서항,126.751837114838,"교통,수송 > 교통시설 > 항구,포구",,34.2023357471488
대곡방파제,True,http://place.map.kakao.com/27063726,대곡방파제,경남 거제시 하청면 대곡리 748-11,대곡방파제,128.631623700376,"교통,수송 > 교통시설 > 선착장,항만시설 > 방파제",,35.0053428269834
연동방파제,True,http://place.map.kakao.com/26524358,연동방파제,경북 경주시 감포읍 오류리 140-11,연동방파제,129.518444727183,"교통,수송 > 교통시설 > 선착장,항만시설 > 방파제",,35.8362519622588
화성방파제,True,http://place.map.kakao.com/25036300,화성방파제,경기 화성시 서신면 제부리 289-20,제부도항방파제등대,126.62209278178211,"교통,수송 > 교통시설 > 등대",,37.17945831437002
명사방파제,True,http://place.map.kakao.com/873442846,명사방파제,전남 완도군 신지면 신리 815-34,명사방파제,126.801595804601,"교통,수송 > 교통시설 > 선착장,항만시설 > 방파제",,34.322421934912
방죽포방파제,True,http://place.map.kakao.com/749910737,방죽포방파제,전남 완도군 신지면 월양리 1156-16,방죽포방파제,126.855491677065,"여행 > 관광,명소 > 방조제",,34.3079925098296
동촌방파제,True,http://place.map.kakao.com/994921677,동촌방파제,경북 포항시 남구 청림동 1-177,화성삼화방파제,129.418000217582,"교통,수송 > 교통시설 > 선착장,항만시설 > 방파제",,36.006602768135
동고리방파제,True,http://place.map.kakao.com/2066130960,동고리방파제,전남 완도군 신지면 동고리 746-9,동고리방파제,126.885614292965,"교통,수송 > 교통시설 > 선착장,항만시설 > 방파제",,34.3240905905845
청산항,True,http://place.map.kakao.com/14920017,청산항,충남 태안군 원북면 청산리 87-14,청산리나루터,126.311598435149,부동산 > 지명,,36.8314256484773
당목항,True,http://place.map.kakao.com/18354452,당목항,전남 완도군 약산면 해동리,당목항,126.94644096487,"교통,수송 > 교통시설 > 항구,포구",,34.3782643334687
노력도,True,http://place.map.kakao.com/18376850,노력도,전남 장흥군 회진면 덕산리,노력도,126.965714791717,"여행 > 관광,명소 > 섬",,34.4561690579747
삼산항,True,http://place.map.kakao.com/1460387749,삼산항,울산 남구 신정동 659-6,항구,129.312385137667,"음식점 > 한식 > 해물,생선 > 회",,35.5349526698313
율포항,True,http://place.map.kakao.com/26318564,율포항,경남 거제시 동부면 율포리,율포항,128.592207020714,"교통,수송 > 교통시설 > 항구,포구",,34.7773995440456
선소항,True,http://place.map.kakao.com/217214854,선소항,경남 남해군 남해읍 선소리 33-35,선소항,127.915233375384,"교통,수송 > 교통시설 > 항구,포구",,34.8466501569883
수문동나루터,True,http://place.map.kakao.com/786618311,수문동나루터,전남 고흥군 대서면 안남리 738-82,수문동나루터,127.264275794407,"교통,수송 > 교통시설 > 선착장,항만시설",,34.7308978512666
용동항,True,http://place.map.kakao.com/8534352,용동항,인천 중구 항동7가 10,인천항 제1부두,126.62287414192696,"교통,수송 > 교통시설 > 항구,포구 > 부두",,37.4675734735649
잠두항,True,http://place.map.kakao.com/26238734,잠두항,전남 고흥군 도양읍 용정리 2295-16,잠두항,127.117304699316,"교통,수송 > 교통시설 > 항구,포구",,34.5440060329876
우두항,True,http://place.map.kakao.com/18354182,우두항,전남 고흥군 금산면 신전리 678-3,우두항,127.09932681067897,"교통,수송 > 교통시설 > 항구,포구",,34.450155006884195
신도,True,http://place.map.kakao.com/18376876,신도,인천 옹진군 북도면 신도리,신도,126.454716424347,"여행 > 관광,명소 > 섬",,37.5266351611673
충도항,True,http://place.map.kakao.com/18354396,충도항,전남 완도군 금일읍 충동리 1477-9,충도항,127.0731717038586,"교통,수송 > 교통시설 > 항구,포구",,34.37878604925919
동송항,True,http://place.map.kakao.com/18354188,동송항,전남 완도군 금일읍 충동리 347-12,동송항,127.06376780229219,"교통,수송 > 교통시설 > 항구,포구",,34.35866313645243
금일해당화해변,True,http://place.map.kakao.com/875496081,금일해당화해변,전남 완도군 금일읍 사동리,금일명사십리해수욕장,127.061876344391,"여행 > 관광,명소 > 해수욕장,해변",061-550-6193,34.3334497071232
동백항,True,http://place.map.kakao.com/1716489997,동백항,부산 기장군 일광읍 동백리 233-42,동백항,129.257993366321,"교통,수송 > 교통시설 > 항구,포구",,35.2873198501903
일정항터미널,True,http://place.map.kakao.com/18354302,일정항터미널,전남 완도군 금일읍 장정리 775-4,일정항,126.98906424898392,"교통,수송 > 교통시설 > 항구,포구",,34.3612646963579
서성항,True,http://place.map.kakao.com/18377092,서성항,전남 완도군 생일면 유서리,서성항,126.995774768214,"교통,수송 > 교통시설 > 항구,포구",,34.3367610849227
금곡해변,True,http://place.map.kakao.com/25023046,금곡해변,전남 완도군 생일면 금곡리 277,금곡해수욕장,126.963131351574,"여행 > 관광,명소 > 해수욕장,해변",061-550-6672,34.3119720236655
매물도,True,http://place.map.kakao.com/18376698,매물도,경남 통영시 한산면 매죽리,매물도,128.573415903117,"여행 > 관광,명소 > 섬",,34.6407859839191
황제도,True,http://place.map.kakao.com/18376921,황제도,전남 완도군 금일읍 동백리,황제도,127.073771623167,"여행 > 관광,명소 > 섬",,34.1920530580835
장도,True,http://place.map.kakao.com/18376922,장도,전남 완도군 금일읍 장원리,장도,127.165570718295,"여행 > 관광,명소 > 섬",,34.2060016883906
원도,True,http://place.map.kakao.com/18376831,원도,전남 완도군 금일읍 장원리,원도,127.197512596909,"여행 > 관광,명소 > 섬",,34.2199853316225
초도항,True,http://place.map.kakao.com/8098394,초도항,강원특별자치도 고성군 현내면 초도리 1-2,초도항,128.4384052744824,"교통,수송 > 교통시설 > 항구,포구",,38.48632217688631
어전리방파제,True,http://place.map.kakao.com/291499502,어전리방파제,전남 고흥군 금산면 어전리 446-2,공고지 방파제,127.138647225472,"교통,수송 > 교통시설 > 선착장,항만시설 > 방파제",,34.4247071214472
공고지방파제,True,http://place.map.kakao.com/291499502,공고지방파제,전남 고흥군 금산면 어전리 446-2,공고지 방파제,127.138647225472,"교통,수송 > 교통시설 > 선착장,항만시설 > 방파제",,34.4247071214472
오천항,True,http://place.map.kakao.com/10621096,오천항,충남 보령시 오천면 소성리,오천항,126.519632363757,"교통,수송 > 교통시설 > 항구,포구",041-932-2023,36.4392677794874
오천방파제,True,http://place.map.kakao.com/1266545384,오천방파제,전남 여수시 신덕동 604-7,신덕방파제,127.767152041562,"교통,수송 > 교통시설 > 선착장,항만시설 > 방파제",,34.8078026639328
명천항,True,http://place.map.kakao.com/1586344978,명천항,전남 고흥군 금산면 신평리 44-18,명천항,127.230422356892,"교통,수송 > 교통시설 > 항구,포구",,34.4683500008262
월포방파제,True,http://place.map.kakao.com/1345254351,월포방파제,경남 남해군 남면 석교리 149,월포방파제,127.903606981795,"교통,수송 > 교통시설 > 선착장,항만시설 > 방파제",,34.7619683558557
구암방파제,True,http://place.map.kakao.com/9551441,구암방파제,전북특별자치도 군산시 문화동 899-3,하제방파제회집,126.70673849973271,"음식점 > 한식 > 해물,생선 > 회",063-471-5348,35.97475264990245
죽도,True,http://place.map.kakao.com/18376895,죽도,경남 통영시 한산면 매죽리,죽도,128.529322942192,"여행 > 관광,명소 > 섬",,34.7314281319378
발포항,True,http://place.map.kakao.com/8244101,발포항,전남 고흥군 도화면,발포항,127.340962937472,"교통,수송 > 교통시설 > 항구,포구",,34.4831387361826
소거문도,True,http://place.map.kakao.com/18376763,소거문도,전남 여수시 삼산면 손죽리,소거문도,127.395344729099,"여행 > 관광,명소 > 섬",,34.288514133044
거문항,True,http://place.map.kakao.com/18377088,거문항,전남 여수시 삼산면 거문리 87-53,거문도항,127.308864139999,"교통,수송 > 교통시설 > 항구,포구",,34.0275034254128
꼭두녀,True,http://place.map.kakao.com/8242501,꼭두녀,전남 고흥군 봉래면 외초리,곡두도,127.494943424958,"여행 > 관광,명소 > 섬",,34.3985389090393
중촌방파제,True,http://place.map.kakao.com/1835971212,중촌방파제,전남 고흥군 봉래면 외초리 216-4,중촌방파제,127.490783177247,"교통,수송 > 교통시설 > 선착장,항만시설 > 방파제",061-830-5244,34.4239677882357
꼬리새우섬,True,http://place.map.kakao.com/2055945270,꼬리새우섬,전남 고흥군 봉래면 예내리 산 316,꼬리새우섬,127.546482496233,"여행 > 관광,명소 > 섬",,34.4425881824954
창포항,True,http://place.map.kakao.com/846435291,창포항,경북 영덕군 영덕읍 대부리,창대항,129.42585602238,"교통,수송 > 교통시설 > 항구,포구",,36.405748930219
대룡도,True,http://place.map.kakao.com/20098075,대룡도,전남 고흥군 봉래면 사양리 산 457,대룡도,127.413566597384,"여행 > 관광,명소 > 섬",,34.5116131557665
용흥도,True,http://place.map.kakao.com/11122749,용흥도,경북 포항시 북구 용흥동 17,용흥쌍용아파트,129.35768695502787,부동산 > 주거시설 > 아파트,,36.04496917718586
동래도,True,http://place.map.kakao.com/25743775,동래도,전남 고흥군 포두면 옥강리 산 197,동래도,127.432666616097,"여행 > 관광,명소 > 섬",,34.5341913000832
비사도,True,http://place.map.kakao.com/7903612,비사도,전남 고흥군 포두면 오취리,비사도,127.456126899094,"여행 > 관광,명소 > 섬",,34.566406327494
옥태도,True,http://place.map.kakao.com/7819877,옥태도,전남 고흥군 영남면 남열리 산 222,대옥태도,127.468868218423,"여행 > 관광,명소 > 섬",,34.5664986793941
바래섬,True,http://place.map.kakao.com/20152158,바래섬,전남 고흥군 도양읍 시산리 산 276,바래섬,127.273881835064,"여행 > 관광,명소 > 섬",,34.3777424229062
소영,True,http://place.map.kakao.com/273678394,소영,부산 수영구 광안동 184-15,소영,129.113609665317,"가정,생활 > 패션 > 의류판매",,35.150016765694
원주도,True,http://place.map.kakao.com/8537851,원주도,전남 고흥군 과역면 백일리,원주도,127.470830354744,"여행 > 관광,명소 > 섬",,34.6677973695542
해하도,True,http://place.map.kakao.com/20098038,해하도,전남 고흥군 과역면 백일리 180-1,해하도,127.459093207743,"여행 > 관광,명소 > 섬",,34.6887803394743
진지도,True,http://place.map.kakao.com/11158820,진지도,전남 고흥군 과역면 백일리,진지도,127.444153230181,"여행 > 관광,명소 > 섬",,34.7128783278744
미덕도,True,http://place.map.kakao.com/10417874,미덕도,전남 고흥군 과역면 연등리,미덕도,127.416799180149,"여행 > 관광,명소 > 섬",,34.7124052763141
대포항,True,http://place.map.kakao.com/10324177,대포항,강원특별자치도 속초시 대포동,대포항,128.609131231383,"교통,수송 > 교통시설 > 항구,포구",033-639-2690,38.172227102312
지주도,True,http://place.map.kakao.com/10781697,지주도,전남 보성군 벌교읍 장도리,지주도,127.422937341373,"여행 > 관광,명소 > 섬",,34.7816089886623
상진항,True,http://place.map.kakao.com/22377350,상진항,전남 보성군 벌교읍 장암리,상진항,127.410645640151,"교통,수송 > 교통시설 > 항구,포구",,34.8136293309799
용두항,True,http://place.map.kakao.com/942105576,용두항,전남 순천시 별량면 구룡리 6-8,용두항,127.43306049915,"교통,수송 > 교통시설 > 항구,포구",,34.8352636572087
장도,True,http://place.map.kakao.com/18376922,장도,전남 완도군 금일읍 장원리,장도,127.165570718295,"여행 > 관광,명소 > 섬",,34.2060016883906
화포항,True,http://place.map.kakao.com/941960808,화포항,전남 순천시 별량면 학산리 805-1,화포항,127.484709084906,"교통,수송 > 교통시설 > 항구,포구",,34.8402770956012
대동마을,True,http://place.map.kakao.com/7817988,대동마을,제주특별자치도 제주시 이호일동,대동마을,126.460721717035,부동산 > 지명,,33.4954898252509
여자도,True,http://place.map.kakao.com/7998779,여자도,전남 여수시 화정면 여자리 544-1,대여자도,127.49652541833682,"여행 > 관광,명소 > 섬",,34.760264328744505
송여자도,True,http://place.map.kakao.com/25291486,송여자도,전남 여수시 화정면 여자리,송여자,127.511282376049,부동산 > 지명,,34.758796164291
복개도,True,http://place.map.kakao.com/20158889,복개도,전남 여수시 소라면 사곡리 산 96-1,복개도,127.560643641358,"여행 > 관광,명소 > 섬",,34.7900522443883
섬달천,True,http://place.map.kakao.com/10486035,섬달천,전남 여수시 소라면 복산리,섬달천,127.567135751926,부동산 > 지명,,34.7635065540464
운두도,True,http://place.map.kakao.com/8031756,운두도,전남 여수시 화양면 이천리,운두도,127.56136413435,"여행 > 관광,명소 > 섬",,34.7441386757132
둔병도,True,http://place.map.kakao.com/18376731,둔병도,전남 여수시 화정면 조발리,둔병도,127.541841135844,"여행 > 관광,명소 > 섬",,34.6279372540544
추도항,True,http://place.map.kakao.com/18354458,추도항,충남 보령시 오천면 효자도리,추도항(보령),126.43872572549,"교통,수송 > 교통시설 > 항구,포구",,36.4049664164465
장사도,True,http://place.map.kakao.com/10729703,장사도,경남 통영시 한산면 매죽리,장사도,128.559673242216,"여행 > 관광,명소 > 섬",,34.7119030768921
상계도,True,http://place.map.kakao.com/14864770,상계도,전남 여수시 화정면 낭도리,상계도,127.585861240574,"여행 > 관광,명소 > 섬",,34.6141114604781
백야도방파제,True,http://place.map.kakao.com/1780757049,백야도방파제,전남 여수시 화정면 백야리 402-2,화백리방파제,127.632072603364,"교통,수송 > 교통시설 > 선착장,항만시설 > 방파제",,34.6243877441195
제도항,True,http://place.map.kakao.com/18354389,제도항,전남 여수시 화정면 제도리,제도항,127.654978944674,"교통,수송 > 교통시설 > 항구,포구",,34.5958397078286
화산,True,http://place.map.kakao.com/25255371,화산,경기 화성시 우정읍 화산리 산 78-1,봉화산,126.79630278939815,"여행 > 관광,명소 > 산",,37.06161150900606
자봉도,True,http://place.map.kakao.com/18376724,자봉도,전남 여수시 화정면 월호리,자봉도,127.68598984641,"여행 > 관광,명소 > 섬",,34.5927198653818
호두방파제,True,http://place.map.kakao.com/563352134,호두방파제,전남 여수시 화양면 용주리 457-6,호두방파제,127.636191978638,"교통,수송 > 교통시설 > 선착장,항만시설 > 방파제",,34.7085475050914
소호항,True,http://place.map.kakao.com/274906958,소호항,전남 여수시 소호동,소호항,127.65635168488,"교통,수송 > 교통시설 > 항구,포구",,34.7456829464063
여수구항,True,http://place.map.kakao.com/25048791,여수구항,전남 여수시 중앙동 246-1,여수구항해양공원,127.74065219712607,여행 > 공원 > 도시근린공원,,34.737089588504844
평사방파제,True,http://place.map.kakao.com/1599225828,평사방파제,전남 여수시 돌산읍 평사리,평사방파제,127.744168326596,"교통,수송 > 교통시설 > 선착장,항만시설 > 방파제",,34.6676251483851
모장방파제,True,http://place.map.kakao.com/283242931,모장방파제,전남 여수시 돌산읍 평사리 991-18,모장방파제,127.731646149147,"교통,수송 > 교통시설 > 선착장,항만시설 > 방파제",,34.6591069277073
항대방파제,True,http://place.map.kakao.com/416980822,항대방파제,전남 여수시 돌산읍 금봉리 1540-17,항대방파제,127.717161558464,"교통,수송 > 교통시설 > 선착장,항만시설 > 방파제",,34.6426800563379
돌산방파제,True,http://place.map.kakao.com/27455363,돌산방파제,전남 여수시 돌산읍 죽포리,두문포방파제,127.796749032952,"교통,수송 > 교통시설 > 선착장,항만시설 > 방파제",,34.6478838241353
송도방파제,True,http://place.map.kakao.com/7962408,송도방파제,부산 서구 암남동,송도방파제,129.022047834285,"교통,수송 > 교통시설 > 선착장,항만시설 > 방파제",,35.0764085046037
월호방파제,True,http://place.map.kakao.com/1271721272,월호방파제,전남 여수시 신월동 188-24,넘너리방파제,127.705551998689,"교통,수송 > 교통시설 > 선착장,항만시설 > 방파제",,34.7203372397197
송고방파제,True,http://place.map.kakao.com/1624086235,송고방파제,전남 여수시 남면 유송리 653-12,송고방파제,127.728500944329,"교통,수송 > 교통시설 > 선착장,항만시설 > 방파제",,34.5497389195998
여남방파제,True,http://place.map.kakao.com/1650686427,여남방파제,경북 포항시 북구 여남동,여남방파제,129.412607833187,"교통,수송 > 교통시설 > 선착장,항만시설 > 방파제",,36.0715576478476
직포방파제,True,http://place.map.kakao.com/409727810,직포방파제,전남 여수시 남면 두모리 945-23,직포방파제,127.737189603423,"교통,수송 > 교통시설 > 선착장,항만시설 > 방파제",,34.5076117866422
학동방파제,True,http://place.map.kakao.com/1271721272,학동방파제,전남 여수시 신월동 188-24,넘너리방파제,127.705551998689,"교통,수송 > 교통시설 > 선착장,항만시설 > 방파제",,34.7203372397197
우학리방파제,True,http://place.map.kakao.com/11180008,우학리방파제,전남 여수시 남면 우학리 1-2,우학리방파제,127.781263206509,"교통,수송 > 교통시설 > 선착장,항만시설 > 방파제",,34.5107380598223
독사골방파제,True,http://place.map.kakao.com/1967844811,독사골방파제,전남 여수시 남면 우학리 1-2,독사골방파제,127.781507602077,"교통,수송 > 교통시설 > 선착장,항만시설 > 방파제",,34.5103218407061
심장리방파제,True,http://place.map.kakao.com/11180008,심장리방파제,전남 여수시 남면 우학리 1-2,우학리방파제,127.781263206509,"교통,수송 > 교통시설 > 선착장,항만시설 > 방파제",,34.5107380598223
안도방파제,True,http://place.map.kakao.com/1215424657,안도방파제,전남 여수시 남면 안도리 5,안도 동고지방파제,127.821358686459,"교통,수송 > 교통시설 > 선착장,항만시설 > 방파제",,34.4978911793959
동고지방파제,True,http://place.map.kakao.com/1215424657,동고지방파제,전남 여수시 남면 안도리 5,안도 동고지방파제,127.821358686459,"교통,수송 > 교통시설 > 선착장,항만시설 > 방파제",,34.4978911793959
소유방파제,True,http://place.map.kakao.com/94441603,소유방파제,전남 여수시 남면 유송리 139-13,소유방파제,127.76947026368,"교통,수송 > 교통시설 > 선착장,항만시설 > 방파제",,34.5315697580923
수항도,True,http://place.map.kakao.com/20098149,수항도,전남 여수시 남면 유송리 185-1,수항도,127.772747779802,"여행 > 관광,명소 > 섬",,34.5362304241671
마족,True,http://place.map.kakao.com/1072551524,마족,부산 영도구 남항동1가 39,마족,129.03774584312748,"음식점 > 한식 > 육류,고기 > 족발,보쌈",051-412-3312,35.091442214829826
신기방파제,True,http://place.map.kakao.com/1723807000,신기방파제,전남 여수시 돌산읍 신복리,신기방파제,127.739232900143,"교통,수송 > 교통시설 > 선착장,항만시설 > 방파제",,34.6022632260909
작금방파제,True,http://place.map.kakao.com/360725827,작금방파제,전남 여수시 돌산읍 금성리,작금방파제,127.76610606434,"교통,수송 > 교통시설 > 선착장,항만시설 > 방파제",,34.5916843123524
대횡간도방파제,True,http://place.map.kakao.com/360725827,대횡간도방파제,전남 여수시 돌산읍 금성리,작금방파제,127.76610606434,"교통,수송 > 교통시설 > 선착장,항만시설 > 방파제",,34.5916843123524
수락도,True,http://place.map.kakao.com/10556175,수락도,전남 고흥군 봉래면 사양리,수락도,127.40243910785,"여행 > 관광,명소 > 섬",,34.4784913712873
성두방파제,True,http://place.map.kakao.com/27024525,성두방파제,전남 여수시 돌산읍 금성리 114-1,성두방파제,127.782425690651,"교통,수송 > 교통시설 > 선착장,항만시설 > 방파제",,34.5870340321428
소율방파제,True,http://place.map.kakao.com/27064378,소율방파제,전남 여수시 돌산읍 율림리,소율방파제,127.795859929245,"교통,수송 > 교통시설 > 선착장,항만시설 > 방파제",,34.6050439129404
대율방파제,True,http://place.map.kakao.com/26996226,대율방파제,전남 여수시 돌산읍 율림리,대율방파제,127.791056851842,"교통,수송 > 교통시설 > 선착장,항만시설 > 방파제",,34.6080606226445
두문포방파제,True,http://place.map.kakao.com/27455363,두문포방파제,전남 여수시 돌산읍 죽포리,두문포방파제,127.796749032952,"교통,수송 > 교통시설 > 선착장,항만시설 > 방파제",,34.6478838241353
계동항,True,http://place.map.kakao.com/2059529841,계동항,전남 여수시 돌산읍 평사리 5-63,계동항,127.79457079157,"교통,수송 > 교통시설 > 항구,포구",,34.6653681396555
월호방파제,True,http://place.map.kakao.com/1271721272,월호방파제,전남 여수시 신월동 188-24,넘너리방파제,127.705551998689,"교통,수송 > 교통시설 > 선착장,항만시설 > 방파제",,34.7203372397197
월전방파제,True,http://place.map.kakao.com/1983442424,월전방파제,부산 기장군 기장읍 죽성리,월전방파제,129.245430702631,"교통,수송 > 교통시설 > 선착장,항만시설 > 방파제",,35.2375231967794
상하동방파제,True,http://place.map.kakao.com/2042480424,상하동방파제,전남 여수시 돌산읍 우두리,상하동방파제,127.777319030723,"교통,수송 > 교통시설 > 선착장,항만시설 > 방파제",,34.721956544503
진목방파제,True,http://place.map.kakao.com/1699899177,진목방파제,전남 여수시 돌산읍 우두리 597-12,진목방파제,127.766719280819,"교통,수송 > 교통시설 > 선착장,항만시설 > 방파제",,34.7255929755481
종화동방파제,True,http://place.map.kakao.com/17506046,종화동방파제,전남 여수시 수정동,오동도방파제,127.760089348364,"교통,수송 > 교통시설 > 선착장,항만시설 > 방파제",,34.7431615164266
오동도방파제,True,http://place.map.kakao.com/17506046,오동도방파제,전남 여수시 수정동,오동도방파제,127.760089348364,"교통,수송 > 교통시설 > 선착장,항만시설 > 방파제",,34.7431615164266
신덕항,True,http://place.map.kakao.com/986170398,신덕항,전남 여수시 오천동 128-2,오천항,127.758577830324,"교통,수송 > 교통시설 > 항구,포구",,34.7954281176598
묘도,True,http://place.map.kakao.com/7876905,묘도,전남 여수시 묘도동,묘도,127.716252851041,"여행 > 관광,명소 > 섬",,34.8856984199541
송도,True,http://place.map.kakao.com/26350965,송도,인천 연수구 송도동 24-17,송도한옥마을,126.638869485458,"여행 > 관광,명소",,37.3908644068249
망덕포구,True,http://place.map.kakao.com/25046791,망덕포구,전남 광양시 진월면 망덕리 845-82,망덕포구,127.758241084856,"교통,수송 > 교통시설 > 항구,포구",,34.9676159978213
대도방파제,True,http://place.map.kakao.com/67008573,대도방파제,경남 하동군 금남면 대도리 201,대도방파제,127.833258628925,"교통,수송 > 교통시설 > 선착장,항만시설 > 방파제",,34.933582203841
노량항,True,http://place.map.kakao.com/17645975,노량항,경남 하동군 금남면 노량리 742-12,노량항,127.860439782112,"교통,수송 > 교통시설 > 항구,포구",055-882-3067,34.9470113412667
감암방파제,True,http://place.map.kakao.com/1006717219,감암방파제,경남 남해군 설천면 노량리,감암방파제,127.865869255338,"교통,수송 > 교통시설 > 선착장,항만시설 > 방파제",,34.9378330063941
정포리방파제,True,http://place.map.kakao.com/428758396,정포리방파제,경남 남해군 고현면 갈화리 1706-10,죽강방파제,127.835740369071,"교통,수송 > 교통시설 > 선착장,항만시설 > 방파제",,34.9003814978309
노구,True,http://place.map.kakao.com/25196864,노구,경남 남해군 서면 노구리,노구,127.825298955448,부동산 > 지명,,34.8663919456006
염해방파제,True,http://place.map.kakao.com/1381915672,염해방파제,경남 남해군 서면 남상리 1791-8,염해방파제,127.809558499112,"교통,수송 > 교통시설 > 선착장,항만시설 > 방파제",,34.8564591754933
남상리방파제,True,http://place.map.kakao.com/1381915672,남상리방파제,경남 남해군 서면 남상리 1791-8,염해방파제,127.809558499112,"교통,수송 > 교통시설 > 선착장,항만시설 > 방파제",,34.8564591754933
작장리방파제,True,http://place.map.kakao.com/1381915672,작장리방파제,경남 남해군 서면 남상리 1791-8,염해방파제,127.809558499112,"교통,수송 > 교통시설 > 선착장,항만시설 > 방파제",,34.8564591754933
구미동방파제,True,http://place.map.kakao.com/687380376,구미동방파제,강원특별자치도 동해시 추암동 495-3,구호방파제,129.157443909866,"교통,수송 > 교통시설 > 선착장,항만시설 > 방파제",,37.4814232845887
덕월리방파제,True,http://place.map.kakao.com/1529762967,덕월리방파제,경남 남해군 남면 평산리 2163-4,유구방파제,127.840143198422,"교통,수송 > 교통시설 > 선착장,항만시설 > 방파제",,34.757917687271
유구방파제,True,http://place.map.kakao.com/1529762967,유구방파제,경남 남해군 남면 평산리 2163-4,유구방파제,127.840143198422,"교통,수송 > 교통시설 > 선착장,항만시설 > 방파제",,34.757917687271
향촌방파제,True,http://place.map.kakao.com/27431784,향촌방파제,경남 사천시 향촌동,진널방파제,128.085058260201,"교통,수송 > 교통시설 > 선착장,항만시설 > 방파제",,34.9174657528034
홍현방파제,True,http://place.map.kakao.com/25549614,홍현방파제,경남 남해군 남면 홍현리 189-4,홍현방파제,127.910169611942,"교통,수송 > 교통시설 > 선착장,항만시설 > 방파제",,34.7437007816161
원천항,True,http://place.map.kakao.com/1814440912,원천항,경남 남해군 이동면 신전리,원천항,127.947467629664,"교통,수송 > 교통시설 > 항구,포구",,34.7628319712789
벽련방파제,True,http://place.map.kakao.com/25772275,벽련방파제,경남 남해군 상주면 양아리 1807-1,벽련항,127.946935056748,"교통,수송 > 교통시설 > 항구,포구",,34.7395265066278
두모방파제,True,http://place.map.kakao.com/1677897226,두모방파제,제주특별자치도 제주시 한경면 두모리 2604-2,두모방파제,126.180574452563,"교통,수송 > 교통시설 > 선착장,항만시설 > 방파제",,33.3571176824919
상주방파제,True,http://place.map.kakao.com/1363648559,상주방파제,경남 남해군 상주면 상주리 1400,상주방파제,127.985415337925,"교통,수송 > 교통시설 > 선착장,항만시설 > 방파제",,34.7131401664535
송정방파제,True,http://place.map.kakao.com/1547073575,송정방파제,울산 울주군 서생면 대송리 339-15,송정방파제,129.357300808442,"교통,수송 > 교통시설 > 선착장,항만시설 > 방파제",,35.3687228900769
설리방파제,True,http://place.map.kakao.com/1170857528,설리방파제,경남 남해군 미조면 송정리 961-7,설리방파제,128.027233480163,"교통,수송 > 교통시설 > 선착장,항만시설 > 방파제",,34.7048906775995
떼섬,True,http://place.map.kakao.com/14864672,떼섬,경남 남해군 미조면 송정리,떼섬,128.04285198484,"여행 > 관광,명소 > 섬",,34.7504787858548
사도,True,http://place.map.kakao.com/7922043,사도,전남 여수시 화정면 낭도리 125,사도,127.554777334735,"여행 > 관광,명소 > 섬",,34.590996343673
애도,True,http://place.map.kakao.com/8469277,애도,전남 고흥군 봉래면 사양리 682,애도,127.4474940559829,"여행 > 관광,명소 > 섬",,34.46390967583771
조도방파제,True,http://place.map.kakao.com/27021516,조도방파제,부산 영도구 동삼동 1-17,조도방파제,129.10161941544,"교통,수송 > 교통시설 > 선착장,항만시설 > 방파제",,35.078969825356
미조항방파제,True,http://place.map.kakao.com/27069313,미조항방파제,경남 남해군 미조면 미조리 184-24,팔랑포방파제,128.046277948995,"교통,수송 > 교통시설 > 선착장,항만시설 > 방파제",,34.7041405726614
목과도,True,http://place.map.kakao.com/14864678,목과도,경남 남해군 미조면 미조리,목과도,128.057219470888,"여행 > 관광,명소 > 섬",,34.6891013441631
고도,True,http://place.map.kakao.com/1092754968,고도,제주특별자치도 제주시 용담삼동 1173-1,고도,126.49495553907157,음식점 > 카페,,33.51899968085787
초전방파제,True,http://place.map.kakao.com/626616300,초전방파제,경남 남해군 미조면 송정리 556-3,초전방파제,128.035149479318,"여행 > 관광,명소 > 방조제",,34.7286664511783
항도방파제,True,http://place.map.kakao.com/12644214,항도방파제,경남 남해군 미조면 송정리 391-13,항도방파제,128.04996332308,"교통,수송 > 교통시설 > 선착장,항만시설 > 방파제",,34.740109633762
노구방파제,True,http://place.map.kakao.com/26559520,노구방파제,경남 남해군 미조면 송정리 121-2,노구방파제,128.05582140847,"교통,수송 > 교통시설 > 선착장,항만시설 > 방파제",,34.7542609260903
대지포방파제,True,http://place.map.kakao.com/434218813,대지포방파제,경남 남해군 삼동면 물건리 1044-2,대지포방파제,128.051851926201,"교통,수송 > 교통시설 > 선착장,항만시설 > 방파제",,34.7722829217345
물건방파제,True,http://place.map.kakao.com/77758055,물건방파제,경남 남해군 삼동면 물건리 1-6,물건방파제,128.059625120902,"교통,수송 > 교통시설 > 선착장,항만시설 > 방파제",,34.7955211076366
양화금방파제,True,http://place.map.kakao.com/529480722,양화금방파제,경남 남해군 삼동면 동천리 306-4,양화금방파제,128.063005582469,"교통,수송 > 교통시설 > 선착장,항만시설 > 방파제",,34.8188223679421
노루목방파제,True,http://place.map.kakao.com/1048989735,노루목방파제,경남 남해군 삼동면 동천리 329-4,노루목방파제,128.04922475401,"교통,수송 > 교통시설 > 선착장,항만시설 > 방파제",,34.8277266171608
둔촌방파제,True,http://place.map.kakao.com/1640392960,둔촌방파제,경남 남해군 삼동면 금송리 142-8,둔촌방파제,128.032514923307,"교통,수송 > 교통시설 > 선착장,항만시설 > 방파제",,34.8315020622584
수장포방파제,True,http://place.map.kakao.com/247489262,수장포방파제,경남 남해군 삼동면 영지리 1873-5,지곡수장포방파제,127.975262247658,"교통,수송 > 교통시설 > 선착장,항만시설 > 방파제",,34.8227265616733
초양방파제,True,http://place.map.kakao.com/1978173335,초양방파제,경남 사천시 늑도동 502-13,초양방파제,128.042349694031,"교통,수송 > 교통시설 > 선착장,항만시설 > 방파제",,34.9249674507191
진목방파제,True,http://place.map.kakao.com/1699899177,진목방파제,전남 여수시 돌산읍 우두리 597-12,진목방파제,127.766719280819,"교통,수송 > 교통시설 > 선착장,항만시설 > 방파제",,34.7255929755481
왕지방파제,True,http://place.map.kakao.com/619650703,왕지방파제,경남 남해군 설천면 문의리,왕지방파제,127.906161126381,"교통,수송 > 교통시설 > 선착장,항만시설 > 방파제",,34.9429112091415
광천항,True,http://place.map.kakao.com/2051534516,광천항,경남 남해군 창선면 광천리 654-4,광천항,127.962071582011,"교통,수송 > 교통시설 > 항구,포구",,34.8662195530848
율도방파제,True,http://place.map.kakao.com/335236330,율도방파제,경남 남해군 창선면 율도리 680-6,율도방파제,127.991293907195,"여행 > 관광,명소 > 방조제",,34.8976656139618
대벽방파제,True,http://place.map.kakao.com/2061076780,대벽방파제,경남 남해군 창선면 대벽리,대벽방파제,127.998647948533,"교통,수송 > 교통시설 > 선착장,항만시설 > 방파제",,34.9111364785718
단항방파제,True,http://place.map.kakao.com/1425444781,단항방파제,경남 남해군 창선면 대벽리 265-10,단항방파제,128.021039676961,"교통,수송 > 교통시설 > 선착장,항만시설 > 방파제",,34.9200765331357
초양방파제,True,http://place.map.kakao.com/1978173335,초양방파제,경남 사천시 늑도동 502-13,초양방파제,128.042349694031,"교통,수송 > 교통시설 > 선착장,항만시설 > 방파제",,34.9249674507191
마도방파제,True,http://place.map.kakao.com/21191460,마도방파제,충남 태안군 근흥면 신진도리,신진도마도방파제,126.126064855948,"교통,수송 > 교통시설 > 선착장,항만시설 > 방파제",,36.6773061098222
저도,True,http://place.map.kakao.com/8068367,저도,경남 거제시 장목면 유호리,저도,128.740962807676,"여행 > 관광,명소 > 섬",,35.0184740257305
실안방파제,True,http://place.map.kakao.com/25449989,실안방파제,경남 사천시 실안동 875-23,실안방파제,128.03966357305956,"교통,수송 > 교통시설 > 선착장,항만시설 > 방파제",,34.94001763908527
삼천포방파제,True,http://place.map.kakao.com/27431784,삼천포방파제,경남 사천시 향촌동,진널방파제,128.085058260201,"교통,수송 > 교통시설 > 선착장,항만시설 > 방파제",,34.9174657528034
대구동방파제,True,http://place.map.kakao.com/687380376,대구동방파제,강원특별자치도 동해시 추암동 495-3,구호방파제,129.157443909866,"교통,수송 > 교통시설 > 선착장,항만시설 > 방파제",,37.4814232845887
가인방파제,True,http://place.map.kakao.com/712939721,가인방파제,경남 남해군 창선면 가인리 153-2,가인방파제,128.050056997011,"교통,수송 > 교통시설 > 선착장,항만시설 > 방파제",,34.8837745150961
냉천방파제,True,http://place.map.kakao.com/1467496601,냉천방파제,경남 남해군 창선면 당항리 185-1,냉천방파제,128.028405564567,"교통,수송 > 교통시설 > 선착장,항만시설 > 방파제",,34.9062229197972
진널방파제,True,http://place.map.kakao.com/27431784,진널방파제,경남 사천시 향촌동,진널방파제,128.085058260201,"교통,수송 > 교통시설 > 선착장,항만시설 > 방파제",,34.9174657528034
사등방파제,True,http://place.map.kakao.com/6859256,사등방파제,경남 거제시 사등면 창호리 2657-11,신전방파제,128.517709697199,"교통,수송 > 교통시설 > 선착장,항만시설 > 방파제",,34.9350250831261
상족암,True,http://place.map.kakao.com/7933124,상족암,경남 고성군 하이면 덕명리 50-1,상족암군립공원,128.154168164513,"여행 > 관광,명소 > 군립공원",055-670-4461,34.9090738874651
대항선착장,True,http://place.map.kakao.com/26093213,대항선착장,부산 강서구 대항동,대항선착장,128.827267880423,"교통,수송 > 교통시설 > 선착장,항만시설",,35.0122590249996
맥전포방파제,True,http://place.map.kakao.com/27017877,맥전포방파제,경남 고성군 하일면 춘암리 791-1,맥전포방파제,128.164959409809,"교통,수송 > 교통시설 > 선착장,항만시설 > 방파제",,34.8984397417295
사량도카페리,True,http://place.map.kakao.com/988568552,사량도카페리,경남 통영시 미수동 945,사량도 카페리여객선터미널,128.39738419922332,"교통,수송 > 교통시설 > 여객선터미널",,34.82673651768278
와도,True,http://place.map.kakao.com/14864691,와도,전남 고흥군 영남면 금사리,와도,127.419339801815,"여행 > 관광,명소 > 섬",,34.5796884172822
덕명방파제,True,http://place.map.kakao.com/1546841863,덕명방파제,경남 고성군 하이면 덕명리 313-10,덕명방파제,128.147560269959,"교통,수송 > 교통시설 > 선착장,항만시설 > 방파제",,34.9044098703705
산등마을,True,http://place.map.kakao.com/25264720,산등마을,경남 창원시 마산회원구 구암동,산등,128.599724809183,부동산 > 지명,,35.2506501151092
탄항마을,True,http://place.map.kakao.com/25383530,탄항마을,경남 통영시 욕지면 노대리,탄항,128.254378776946,부동산 > 지명,,34.6736426338418
하노대도,True,http://place.map.kakao.com/18376908,하노대도,경남 통영시 욕지면 노대리,하노대도,128.250602478605,"여행 > 관광,명소 > 섬",,34.6651329770701
욕지항,True,http://place.map.kakao.com/17434257,욕지항,경남 통영시 욕지면 동항리,욕지항,128.267020773587,"교통,수송 > 교통시설 > 항구,포구",,34.6346021262033
우도,True,http://place.map.kakao.com/8025182,우도,제주특별자치도 제주시 우도면 연평리,우도,126.955582257582,"여행 > 관광,명소 > 섬",064-728-4333,33.5044199749505
연화항,True,http://place.map.kakao.com/18354440,연화항,경남 통영시 욕지면 연화리,연화항,128.351765023611,"교통,수송 > 교통시설 > 항구,포구",,34.6503959609968
동두항,True,http://place.map.kakao.com/832873689,동두항,전남 장흥군 관산읍 신동리,동두항,126.988125827901,"교통,수송 > 교통시설 > 항구,포구",,34.540200881988
사량도도선장,True,http://place.map.kakao.com/18377114,사량도도선장,경남 통영시 도산면 오륜리,가오치항,128.314086242709,"교통,수송 > 교통시설 > 항구,포구",,34.9087584917332
수월리방파제,True,http://place.map.kakao.com/1760446914,수월리방파제,경남 통영시 도산면 수월리 1236-6,수월리방파제,128.326330689987,"교통,수송 > 교통시설 > 선착장,항만시설 > 방파제",,34.882435054365
평림항,True,http://place.map.kakao.com/18377083,평림항,경남 통영시 서호동 316,통영항,128.420321996327,"교통,수송 > 교통시설 > 항구,포구",,34.8394497304717
소지도,True,http://place.map.kakao.com/20083454,소지도,경남 통영시 한산면 비진리 산 202-9,소지도,128.46735177312,"여행 > 관광,명소 > 섬",,34.6424294246456
미수동방파제,True,http://place.map.kakao.com/1166976168,미수동방파제,경남 통영시 정량동 1412,동호항방파제,128.441384443619,"교통,수송 > 교통시설 > 선착장,항만시설 > 방파제",,34.8424032837589
벌포항,True,http://place.map.kakao.com/514147527,벌포항,전남 진도군 고군면 지막리 1715,벌포항 방파제,126.371518894234,"교통,수송 > 교통시설 > 선착장,항만시설 > 방파제",,34.4711341797138
경포항,True,http://place.map.kakao.com/7992608,경포항,강원특별자치도 강릉시 견소동 286-10,강릉항,128.95304152743176,"교통,수송 > 교통시설 > 항구,포구",,37.77281071444708
대웅포항,True,http://place.map.kakao.com/8926590,대웅포항,경북 포항시 남구 상도동 332-9,대웅기전,129.353333928754,"서비스,산업 > 에너지 > 전기",054-274-6330,36.0111377482736
삼덕방파제,True,http://place.map.kakao.com/2133469236,삼덕방파제,경남 통영시 산양읍 삼덕리 868-23,삼덕방파제,128.380543783356,"교통,수송 > 교통시설 > 선착장,항만시설 > 방파제",,34.7933744789491
연명방파제,True,http://place.map.kakao.com/1779987499,연명방파제,경남 통영시 산양읍 연화리 254-3,연명방파제,128.395764945768,"교통,수송 > 교통시설 > 선착장,항만시설 > 방파제",,34.7777738371005
송도,True,http://place.map.kakao.com/26350965,송도,인천 연수구 송도동 24-17,송도한옥마을,126.638869485458,"여행 > 관광,명소",,37.3908644068249
저도방파제,True,http://place.map.kakao.com/14683986,저도방파제,경남 통영시 산양읍 미남리,척포방파제,128.420060729767,"교통,수송 > 교통시설 > 선착장,항만시설 > 방파제",,34.7640883745833
비진도외항,True,http://place.map.kakao.com/10618271,비진도외항,경남 통영시 한산면 비진리,외항,128.460440535729,부동산 > 지명,,34.7221283806817
비진도내항,True,http://place.map.kakao.com/18354500,비진도내항,경남 통영시 한산면 비진리 430-2,외항항,128.45841509876263,"교통,수송 > 교통시설 > 항구,포구",,34.71669424503031
새바지,True,http://place.map.kakao.com/25274504,새바지,부산 강서구 대항동,새바지,128.833216071985,부동산 > 지명,,35.0145232957248
이운방파제,True,http://place.map.kakao.com/27085271,이운방파제,경남 통영시 산양읍 영운리 269-5,이운방파제,128.435422770401,"교통,수송 > 교통시설 > 선착장,항만시설 > 방파제",,34.8007468039451
마리나리조트방파제,True,http://place.map.kakao.com/1166976168,마리나리조트방파제,경남 통영시 정량동 1412,동호항방파제,128.441384443619,"교통,수송 > 교통시설 > 선착장,항만시설 > 방파제",,34.8424032837589
가왕도,True,http://place.map.kakao.com/8701580,가왕도,경남 통영시 한산면 매죽리,가왕도,128.578319242652,"여행 > 관광,명소 > 섬",,34.6842812072428
동호항방파제,True,http://place.map.kakao.com/1166976168,동호항방파제,경남 통영시 정량동 1412,동호항방파제,128.441384443619,"교통,수송 > 교통시설 > 선착장,항만시설 > 방파제",,34.8424032837589
선촌항,True,http://place.map.kakao.com/18354347,선촌항,충남 보령시 오천면 원산도리,선촌항,126.433899400021,"교통,수송 > 교통시설 > 항구,포구",,36.3830310004784
동암항,True,http://place.map.kakao.com/1082775509,동암항,부산 기장군 기장읍 시랑리 664-6,동암항,129.225096954629,"교통,수송 > 교통시설 > 항구,포구",,35.1963310586515
견유방파제,True,http://place.map.kakao.com/26911116,견유방파제,경남 통영시 용남면 장평리 154-9,견유방파제,128.471439646082,"교통,수송 > 교통시설 > 선착장,항만시설 > 방파제",,34.8866253339759
화당방파제,True,http://place.map.kakao.com/831779004,화당방파제,경남 고성군 거류면 화당리,화당방파제,128.428470050206,"교통,수송 > 교통시설 > 선착장,항만시설 > 방파제",,34.9852376672196
거류방파제,True,http://place.map.kakao.com/1686280384,거류방파제,경남 고성군 거류면 당동리,당동방파제,128.409105792418,"교통,수송 > 교통시설 > 선착장,항만시설 > 방파제",,34.9889871333551
우두포방파제,True,http://place.map.kakao.com/1913552846,우두포방파제,경남 고성군 동해면 장좌리,우두포방파제,128.477743517376,"교통,수송 > 교통시설 > 선착장,항만시설 > 방파제",,34.9973568211086
시락방파제,True,http://place.map.kakao.com/87246564,시락방파제,경남 창원시 마산합포구 진전면 시락리 201-2,시락방파제,128.441656356319,"교통,수송 > 교통시설 > 선착장,항만시설 > 방파제",,35.0719625762726
창포방파제,True,http://place.map.kakao.com/27327845,창포방파제,경북 영덕군 영덕읍 창포리 752-7,창포방파제,129.424355203523,"교통,수송 > 교통시설 > 선착장,항만시설 > 방파제",,36.4055127484599
진동항,True,http://place.map.kakao.com/10155841,진동항,경남 창원시 마산합포구 진동면 요장리,광암항,128.496792334439,"교통,수송 > 교통시설 > 항구,포구",,35.1025756532708
양도,True,http://place.map.kakao.com/7996921,양도,인천 강화군 양도면 하일리 252-9,양도주유소,126.42036937808318,"교통,수송 > 자동차 > 주유,가스 > 주유소 > SK주유소",032-937-0119,37.66387097981116
수우도방파제,True,http://place.map.kakao.com/1184781696,수우도방파제,경남 창원시 마산합포구 진동면 다구리,다구방파제,128.521054371076,"교통,수송 > 교통시설 > 선착장,항만시설 > 방파제",,35.1037156418179
다구방파제,True,http://place.map.kakao.com/1184781696,다구방파제,경남 창원시 마산합포구 진동면 다구리,다구방파제,128.521054371076,"교통,수송 > 교통시설 > 선착장,항만시설 > 방파제",,35.1037156418179
욱곡방파제,True,http://place.map.kakao.com/25671840,욱곡방파제,경남 창원시 마산합포구 구산면 내포리 1368-6,구산면방파제,128.553651043847,"교통,수송 > 교통시설 > 선착장,항만시설 > 방파제",,35.0957965510601
장구,True,http://place.map.kakao.com/23916276,장구,인천 강화군 삼산면 매음리 1046-8,장구너머펜션,126.3284778130163,여행 > 숙박 > 펜션,010-6346-5398,37.655423583785954
구복방파제,True,http://place.map.kakao.com/1667444157,구복방파제,경남 창원시 마산합포구 구산면 구복리 291-6,구복방파제,128.564000076139,"교통,수송 > 교통시설 > 선착장,항만시설 > 방파제",,35.0699308010872
심리방파제,True,http://place.map.kakao.com/27332098,심리방파제,경남 창원시 마산합포구 구산면 심리 614-26,심리방파제,128.609839194809,"교통,수송 > 교통시설 > 선착장,항만시설 > 방파제",,35.0714686733834
남포방파제,True,http://place.map.kakao.com/10182202,남포방파제,부산 영도구 남항동3가 141-213,남항동방파제,129.033540266537,"교통,수송 > 교통시설 > 선착장,항만시설 > 방파제",,35.0850514133998
옥계방파제,True,http://place.map.kakao.com/2110074224,옥계방파제,경남 창원시 마산합포구 구산면 옥계리 292-24,옥계방파제,128.614293424176,"교통,수송 > 교통시설 > 선착장,항만시설 > 방파제",,35.0910098175903
덕동방파제,True,http://place.map.kakao.com/1379817408,덕동방파제,경남 창원시 마산합포구 구산면 수정리 229-5,수정항,128.592516042992,"교통,수송 > 교통시설 > 선착장,항만시설 > 방파제",,35.122643286468
제승당,True,http://place.map.kakao.com/8139164,제승당,경남 통영시 한산면 두억리 874,제승당,128.471880439112,"여행 > 관광,명소 > 문화유적 > 사당,제단",055-254-4481,34.7942184100208
용초항,True,http://place.map.kakao.com/18354443,용초항,경남 통영시 한산면 용호리,용초항,128.481640027965,"교통,수송 > 교통시설 > 항구,포구",,34.745129917766
역만도,True,http://place.map.kakao.com/17101004,역만도,전남 여수시 삼산면 손죽리,역만도,127.354759724782,"여행 > 관광,명소 > 섬",,34.1747836763212
한산방파제,True,http://place.map.kakao.com/1712065512,한산방파제,경남 통영시 한산면 두억리 563-4,한산방파재,128.472697229479,"교통,수송 > 교통시설 > 선착장,항만시설 > 방파제",,34.7713314543396
봉암방파제,True,http://place.map.kakao.com/528331689,봉암방파제,경남 고성군 동해면 봉암리 414-11,봉암방파제,128.41331080154,"교통,수송 > 교통시설 > 선착장,항만시설 > 방파제",,34.9955861627186
죽도방파제,True,http://place.map.kakao.com/26104748,죽도방파제,강원특별자치도 양양군 현남면,동산방파제,128.76410074500845,"교통,수송 > 교통시설 > 선착장,항만시설 > 방파제",,37.97931593244586
매물도,True,http://place.map.kakao.com/18376698,매물도,경남 통영시 한산면 매죽리,매물도,128.573415903117,"여행 > 관광,명소 > 섬",,34.6407859839191
홍포,True,http://place.map.kakao.com/1077266396,홍포,전남 여수시 공화동 1071,홍포,127.741740166703,음식점 > 중식 > 중국요리,010-7114-4901,34.7452000316339
대병대도,True,http://place.map.kakao.com/14864575,대병대도,경남 거제시 남부면 다포리,대병대도(중삼섬),128.621134964316,"여행 > 관광,명소 > 섬",,34.6840940699758
소병대도,True,http://place.map.kakao.com/14864605,소병대도,경남 거제시 남부면 저구리,소병대도,128.596146701288,"여행 > 관광,명소 > 섬",,34.7233025657142
쌍근방파제,True,http://place.map.kakao.com/1187158997,쌍근방파제,경남 거제시 남부면 탑포리,쌍근방파제,128.585691864302,"교통,수송 > 교통시설 > 선착장,항만시설 > 방파제",,34.7643581280859
율포항,True,http://place.map.kakao.com/26318564,율포항,경남 거제시 동부면 율포리,율포항,128.592207020714,"교통,수송 > 교통시설 > 항구,포구",,34.7773995440456
예곡,True,http://place.map.kakao.com/25243703,예곡,경남 창원시 마산합포구 예곡동,밤밭고개,128.55572831317,"여행 > 관광,명소 > 고개",,35.1690487934935
당촌방파제,True,http://place.map.kakao.com/1882946866,당촌방파제,경남 통영시 한산면 추봉리 531-3,당촌방파제,128.530425489824,"교통,수송 > 교통시설 > 선착장,항만시설 > 방파제",,34.7622597275449
가배항,True,http://place.map.kakao.com/18855296,가배항,경남 거제시 동부면 가배리,가배항,128.567608838451,"교통,수송 > 교통시설 > 항구,포구",,34.7846227864731
함박금방파제,True,http://place.map.kakao.com/902729427,함박금방파제,경남 거제시 동부면 가배리 873-11,쪽박항,128.543465527614,"교통,수송 > 교통시설 > 항구,포구",,34.7830134124834
오송리방파제,True,http://place.map.kakao.com/1187158997,오송리방파제,경남 거제시 남부면 탑포리,쌍근방파제,128.585691864302,"교통,수송 > 교통시설 > 선착장,항만시설 > 방파제",,34.7643581280859
산달도방파제,True,http://place.map.kakao.com/1232637828,산달도방파제,경남 거제시 거제면 법동리 286-7,산달도방파제,128.532078168766,"교통,수송 > 교통시설 > 선착장,항만시설 > 방파제",,34.8153120758621
서좌,True,http://place.map.kakao.com/25281195,서좌,경남 통영시 한산면 창좌리,서좌,128.498232020208,부동산 > 지명,,34.7939040313977
당항,True,http://place.map.kakao.com/25204128,당항,경남 남해군 창선면 당항리,당항,128.016176429551,부동산 > 지명,,34.8958232747961
학산항,True,http://place.map.kakao.com/774890254,학산항,경남 거제시 둔덕면 학산리 107-6,학산항,128.476200137624,"교통,수송 > 교통시설 > 항구,포구",,34.8570338741586
다포방파제,True,http://place.map.kakao.com/1544459493,다포방파제,경남 거제시 남부면 다포리 199-7,다포방파제,128.628138028868,"교통,수송 > 교통시설 > 선착장,항만시설 > 방파제",,34.7288339701312
고촌방파제,True,http://place.map.kakao.com/287267335,고촌방파제,경남 거제시 동부면 학동리 150-1,고촌방파제,128.652512316379,"여행 > 관광,명소 > 방조제",,34.7774032398322
구조라방파제,True,http://place.map.kakao.com/8192544,구조라방파제,경남 거제시 일운면 구조라리,구조라항,128.697990472562,"교통,수송 > 교통시설 > 항구,포구",,34.8050340344192
지심도,True,http://place.map.kakao.com/8559153,지심도,경남 거제시 일운면 옥림리 57-1,지심도,128.749383452749,"여행 > 관광,명소 > 섬",,34.8171399075149
지세포방파제,True,http://place.map.kakao.com/18553996,지세포방파제,경남 거제시 일운면 지세포리 275-1,지세포방파제,128.719081050792,"교통,수송 > 교통시설 > 선착장,항만시설 > 방파제",,34.8375223689378
장승포방파제,True,http://place.map.kakao.com/359037996,장승포방파제,경남 거제시 능포동,서능포방파제,128.735319677566,"교통,수송 > 교통시설 > 선착장,항만시설 > 방파제",,34.8882922043743
느태방파제,True,http://place.map.kakao.com/18961931,느태방파제,경남 거제시 능포동,느태방파제,128.72471977253963,"교통,수송 > 교통시설 > 선착장,항만시설 > 방파제",,34.88917491705096
팔랑포방파제,True,http://place.map.kakao.com/22709563,팔랑포방파제,경남 거제시 옥포동,팔랑포방파제,128.715766445959,"교통,수송 > 교통시설 > 선착장,항만시설 > 방파제",,34.8989775602113
외포방파제,True,http://place.map.kakao.com/27018523,외포방파제,경남 거제시 장목면 외포리,외포항동방파제,128.722730264744,"교통,수송 > 교통시설 > 선착장,항만시설 > 방파제",,34.936562268983
흥남방파제,True,http://place.map.kakao.com/27017903,흥남방파제,경남 거제시 장목면 시방리,흥남방파제,128.718101145586,"교통,수송 > 교통시설 > 선착장,항만시설 > 방파제",,34.9605975020161
시방방파제,True,http://place.map.kakao.com/891794110,시방방파제,경남 거제시 장목면 시방리 731-14,시방방파제,128.71020751834,"교통,수송 > 교통시설 > 선착장,항만시설 > 방파제",,34.9655216152056
대금방파제,True,http://place.map.kakao.com/925693972,대금방파제,경남 거제시 장목면 대금리 328-9,대금방파제,128.700461982177,"교통,수송 > 교통시설 > 선착장,항만시설 > 방파제",,34.972215998666
관포방파제,True,http://place.map.kakao.com/1615518281,관포방파제,경남 거제시 장목면 관포리 675-3,관포방파제,128.698073228708,"교통,수송 > 교통시설 > 선착장,항만시설 > 방파제",,34.9920624997668
황포방파제,True,http://place.map.kakao.com/778496266,황포방파제,경남 거제시 장목면 구영리 1080-42,황포방파제,128.67464429557435,"교통,수송 > 교통시설 > 선착장,항만시설 > 방파제",,35.02703565141036
물안방파제,True,http://place.map.kakao.com/2030028130,물안방파제,경남 거제시 하청면 어온리 148-3,물안방파제,128.649698449355,"교통,수송 > 교통시설 > 선착장,항만시설 > 방파제",,35.0019260512421
옥계방파제,True,http://place.map.kakao.com/2110074224,옥계방파제,경남 창원시 마산합포구 구산면 옥계리 292-24,옥계방파제,128.614293424176,"교통,수송 > 교통시설 > 선착장,항만시설 > 방파제",,35.0910098175903
대곡방파제,True,http://place.map.kakao.com/27063726,대곡방파제,경남 거제시 하청면 대곡리 748-11,대곡방파제,128.631623700376,"교통,수송 > 교통시설 > 선착장,항만시설 > 방파제",,35.0053428269834
송포방파제,True,http://place.map.kakao.com/1894249950,송포방파제,경남 거제시 하청면 대곡리 77-5,송포방파제,128.640736090333,"교통,수송 > 교통시설 > 선착장,항만시설 > 방파제",,35.0131942707747
금곡방파제,True,http://place.map.kakao.com/1385572185,금곡방파제,경남 거제시 하청면 연구리 429-4,금곡방파제,128.623794151994,"교통,수송 > 교통시설 > 선착장,항만시설 > 방파제",,34.9818384489276
덕곡방파제,True,http://place.map.kakao.com/1382923957,덕곡방파제,경남 거제시 하청면 덕곡리 648-1,덕곡방파제,128.613492824346,"교통,수송 > 교통시설 > 선착장,항만시설 > 방파제",,34.9611133458689
갈곶도,True,http://place.map.kakao.com/10928180,갈곶도,경남 거제시 남부면 갈곶리 산 1,거제해금강,128.68370297478623,"여행 > 관광,명소 > 섬",,34.7333284367293
사등방파제,True,http://place.map.kakao.com/6859256,사등방파제,경남 거제시 사등면 창호리 2657-11,신전방파제,128.517709697199,"교통,수송 > 교통시설 > 선착장,항만시설 > 방파제",,34.9350250831261
성포방파제,True,http://place.map.kakao.com/1619150217,성포방파제,경남 거제시 사등면 성포리 16-19,성포방파제,128.533364445964,"교통,수송 > 교통시설 > 선착장,항만시설 > 방파제",,34.9205575710125
군령포항,True,http://place.map.kakao.com/18937101,군령포항,경북 포항시 북구 학산동 213-1,포항여중전투학도의용군령비,129.3648761307,"여행 > 관광,명소 > 문화유적 > 탑,비석",,36.0496423971293
실전방파제,True,http://place.map.kakao.com/1040278502,실전방파제,경남 거제시 사등면 창호리 650-3,실전방파제,128.524657188375,"교통,수송 > 교통시설 > 선착장,항만시설 > 방파제",,34.957253790962
신교방파제,True,http://place.map.kakao.com/732908610,신교방파제,경남 거제시 사등면 창호리 18-4,신교방파제,128.536794808998,"교통,수송 > 교통시설 > 선착장,항만시설 > 방파제",,34.9633123922789
계도,True,http://place.map.kakao.com/20175003,계도,경남 거제시 사등면 창호리 285-1,계도,128.514863245713,"여행 > 관광,명소 > 섬",,34.9766132706376
신전방파제,True,http://place.map.kakao.com/6859256,신전방파제,경남 거제시 사등면 창호리 2657-11,신전방파제,128.517709697199,"교통,수송 > 교통시설 > 선착장,항만시설 > 방파제",,34.9350250831261
원전방파제,True,http://place.map.kakao.com/492809235,원전방파제,경남 창원시 마산합포구 구산면 심리,원전방파제,128.629364289113,"교통,수송 > 교통시설 > 선착장,항만시설 > 방파제",,35.0661212323973
외부지도,True,http://place.map.kakao.com/20098028,외부지도,경남 통영시 산양읍 연곡리 199,외부지도,128.39613600915,"여행 > 관광,명소 > 섬",,34.6957162909122
대항항,True,http://place.map.kakao.com/14555008,대항항,부산 강서구 가덕도동,대항항,128.826500312591,"교통,수송 > 교통시설 > 항구,포구",,35.0122237181181
새바지항,True,http://place.map.kakao.com/464288972,새바지항,부산 강서구 대항동 24-4,새바지항,128.83510101232733,"교통,수송 > 교통시설 > 항구,포구",,35.01416675668548
다대포항,True,http://place.map.kakao.com/7998563,다대포항,부산 사하구 다대동,다대포항,128.983892650497,"교통,수송 > 교통시설 > 항구,포구",,35.0534926504695
감천항동방파제,True,http://place.map.kakao.com/27021513,감천항동방파제,부산 서구 암남동 763,감천항동방파제,129.011482932525,"교통,수송 > 교통시설 > 선착장,항만시설 > 방파제",,35.0522198631496
감천항서방파제,True,http://place.map.kakao.com/26995343,감천항서방파제,부산 사하구 구평동 499,감천항서방파제,129.006183860201,"교통,수송 > 교통시설 > 선착장,항만시설 > 방파제",,35.0488434840075
나무섬,True,http://place.map.kakao.com/13565324,나무섬,부산 사하구 다대동 산 148,나무섬,128.9898102595372,"여행 > 관광,명소 > 섬",,34.97929682933917
북형제섬,True,http://place.map.kakao.com/1971018825,북형제섬,부산 강서구 대항동,외섬,128.956251446098,"여행 > 관광,명소 > 섬",,34.890084432682
남형제섬,True,http://place.map.kakao.com/13565323,남형제섬,부산 사하구 다대동 149,남형제섬,128.95203424079,"여행 > 관광,명소 > 섬",,34.8847341279209
조도방파제,True,http://place.map.kakao.com/27021516,조도방파제,부산 영도구 동삼동 1-17,조도방파제,129.10161941544,"교통,수송 > 교통시설 > 선착장,항만시설 > 방파제",,35.078969825356
오륙도방파제,True,http://place.map.kakao.com/27021515,오륙도방파제,부산 남구 용호동 943-3,오륙도방파제,129.109531854969,"교통,수송 > 교통시설 > 선착장,항만시설 > 방파제",,35.0879016844918
민락항,True,http://place.map.kakao.com/365130072,민락항,부산 해운대구 우동 1399,우동항,129.134870104084,"교통,수송 > 교통시설 > 항구,포구",,35.1625401993803
미포방파제,True,http://place.map.kakao.com/1964866278,미포방파제,부산 해운대구 중동 1015-9,미포방파제,129.171023290549,"교통,수송 > 교통시설 > 선착장,항만시설 > 방파제",,35.1576314285083
청사포방파제,True,http://place.map.kakao.com/26546979,청사포방파제,부산 해운대구 중동,청사포방파제,129.190389403907,"교통,수송 > 교통시설 > 선착장,항만시설 > 방파제",,35.1593228640386
구덕포방파제,True,http://place.map.kakao.com/1863151751,구덕포방파제,부산 해운대구 송정동 799-23,구덕포방파제,129.19806181176304,"교통,수송 > 교통시설 > 선착장,항만시설 > 방파제",,35.169519847994266
공수방파제,True,http://place.map.kakao.com/722122254,공수방파제,부산 기장군 기장읍 시랑리,공수방파제,129.213713542783,"교통,수송 > 교통시설 > 선착장,항만시설 > 방파제",,35.183449109854
동암방파제,True,http://place.map.kakao.com/1906927259,동암방파제,부산 기장군 기장읍 시랑리 62-19,동암방파제,129.227384724482,"교통,수송 > 교통시설 > 선착장,항만시설 > 방파제",,35.1959690811995
대변방파제,True,http://place.map.kakao.com/27150440,대변방파제,부산 기장군 기장읍 대변리 245-9,기장대변방파제,129.234942032284,"교통,수송 > 교통시설 > 선착장,항만시설 > 방파제",,35.217283662152
월전방파제,True,http://place.map.kakao.com/1983442424,월전방파제,부산 기장군 기장읍 죽성리,월전방파제,129.245430702631,"교통,수송 > 교통시설 > 선착장,항만시설 > 방파제",,35.2375231967794
죽성방파제,True,http://place.map.kakao.com/27447360,죽성방파제,부산 기장군 기장읍 죽성리 30-43,죽성방파제,129.247419616196,"교통,수송 > 교통시설 > 선착장,항만시설 > 방파제",,35.2428893446897
학리방파제,True,http://place.map.kakao.com/27021524,학리방파제,부산 기장군 일광읍 학리 251-13,학리방파제,129.24749611914143,"교통,수송 > 교통시설 > 선착장,항만시설 > 방파제",,35.26021992456166
온정방파제,True,http://place.map.kakao.com/960811140,온정방파제,부산 기장군 일광읍 동백리 285-29,온정방파제,129.258606556757,"교통,수송 > 교통시설 > 선착장,항만시설 > 방파제",,35.2819783534096
동백방파제,True,http://place.map.kakao.com/27486283,동백방파제,부산 기장군 일광읍 동백리 233-44,동백방파제,129.258914692201,"교통,수송 > 교통시설 > 선착장,항만시설 > 방파제",,35.2882028444139
칠암방파제,True,http://place.map.kakao.com/11239243,칠암방파제,부산 기장군 일광읍 칠암리,칠암방파제,129.262131249586,"교통,수송 > 교통시설 > 선착장,항만시설 > 방파제",,35.2985774917627
문중방파제,True,http://place.map.kakao.com/7880901,문중방파제,부산 기장군 일광읍 문중리,문중방파제,129.261433437742,"교통,수송 > 교통시설 > 선착장,항만시설 > 방파제",,35.3046243367647
문동방파제,True,http://place.map.kakao.com/27085897,문동방파제,부산 기장군 일광읍 문동리,문동방파제,129.26016360968,"교통,수송 > 교통시설 > 선착장,항만시설 > 방파제",,35.3059204446881
임랑방파제,True,http://place.map.kakao.com/1524906496,임랑방파제,부산 기장군 장안읍 임랑리 1-53,임랑방파제,129.267838263971,"교통,수송 > 교통시설 > 선착장,항만시설 > 방파제",,35.3201582641075
월내방파제,True,http://place.map.kakao.com/27135168,월내방파제,부산 기장군 장안읍 월내리 132-139,월내방파제,129.27780655072,"교통,수송 > 교통시설 > 선착장,항만시설 > 방파제",,35.3244943046546
좌사리도,True,http://place.map.kakao.com/11155141,좌사리도,경남 통영시 욕지면 동항리,좌사리도,128.345727523565,"여행 > 관광,명소 > 섬",,34.5620688736398
비사도,True,http://place.map.kakao.com/7903612,비사도,전남 고흥군 포두면 오취리,비사도,127.456126899094,"여행 > 관광,명소 > 섬",,34.566406327494
토끼섬,True,http://place.map.kakao.com/8107618,토끼섬,제주특별자치도 제주시 구좌읍 하도리 355,토끼섬,126.902579514672,"여행 > 관광,명소 > 섬",,33.5245963357521
추자도,True,http://place.map.kakao.com/10839940,추자도,제주특별자치도 제주시 추자면 묵리,추자도,126.314847295503,"여행 > 관광,명소 > 섬",064-728-4281,33.9528630502803
제주,True,http://place.map.kakao.com/11635431,제주,제주특별자치도 서귀포시 법환동 163-4,올레길 7코스(서귀포-월평 올레),126.51586040620134,"여행 > 관광,명소 > 도보여행 > 올레길 > 제주올레길",,33.23751957595788
세화항,True,http://place.map.kakao.com/1746893521,세화항,제주특별자치도 서귀포시 표선면 세화리,세화항,126.804298590456,"교통,수송 > 교통시설 > 항구,포구",,33.303822437451
성산포,True,http://place.map.kakao.com/7944328,성산포,제주특별자치도 서귀포시 성산읍 성산리,성산포항,126.933293813424,"교통,수송 > 교통시설 > 항구,포구",,33.4734596563682
서귀포,True,http://place.map.kakao.com/11635431,서귀포,제주특별자치도 서귀포시 법환동 163-4,올레길 7코스(서귀포-월평 올레),126.51586040620134,"여행 > 관광,명소 > 도보여행 > 올레길 > 제주올레길",,33.23751957595788
모슬포,True,http://place.map.kakao.com/25233101,모슬포,제주특별자치도 서귀포시 대정읍 가파리,모슬포,126.270591415441,부동산 > 지명,,33.1737490620551
화순항,True,http://place.map.kakao.com/8173572,화순항,제주특별자치도 서귀포시 안덕면 화순리,화순항,126.331831882384,"교통,수송 > 교통시설 > 항구,포구",,33.2346709969455
죽도,True,http://place.map.kakao.com/18376895,죽도,경남 통영시 한산면 매죽리,죽도,128.529322942192,"여행 > 관광,명소 > 섬",,34.7314281319378
비양도,True,http://place.map.kakao.com/7920396,비양도,제주특별자치도 제주시 한림읍 협재리,비양도,126.227348369237,"여행 > 관광,명소 > 섬",064-796-3515,33.4102777124648
한림항,True,http://place.map.kakao.com/14491266,한림항,제주특별자치도 제주시 한림읍 대림리,한림항 비양도도항선선착장,126.262038162225,"교통,수송 > 교통시설 > 선착장,항만시설",,33.4193064276989
서건도,True,http://place.map.kakao.com/7936290,서건도,제주특별자치도 서귀포시 강정동 산 1,서건도,126.498627156523,"여행 > 관광,명소 > 섬",,33.2299948343901
신양항,True,http://place.map.kakao.com/13723638,신양항,제주특별자치도 제주시 추자면 신양리 434-1,신양항,126.32886984561421,"교통,수송 > 교통시설 > 항구,포구",,33.94456702631298
김녕항,True,http://place.map.kakao.com/10205578,김녕항,제주특별자치도 제주시 구좌읍 김녕리 4211,김녕항,126.737312879935,"교통,수송 > 교통시설 > 항구,포구",,33.5597707278718
북촌포구,True,http://place.map.kakao.com/7910482,북촌포구,제주특별자치도 제주시 조천읍 북촌리,북촌포구,126.694479760986,"교통,수송 > 교통시설 > 항구,포구",,33.5507286438229
구엄포구,True,http://place.map.kakao.com/8191313,구엄포구,제주특별자치도 제주시 애월읍 구엄리,구엄포구,126.376509129041,"교통,수송 > 교통시설 > 항구,포구",,33.4843983019781
하고수동,True,http://place.map.kakao.com/25389456,하고수동,제주특별자치도 제주시 우도면 연평리,하고수동,126.957272284277,부동산 > 지명,,33.5168230169687
행원포구,True,http://place.map.kakao.com/17600292,행원포구,제주특별자치도 제주시 구좌읍 행원리,행원포구,126.807745416685,"교통,수송 > 교통시설 > 항구,포구",,33.5564199908232
표선(세화리),True,http://place.map.kakao.com/7949976,표선(세화리),제주특별자치도 서귀포시 표선면 세화리 2435-1,세화리공동묘지,126.781027146418,"가정,생활 > 장례 > 묘지",,33.3369454850418
중문,True,http://place.map.kakao.com/10793668,중문,제주특별자치도 서귀포시 중문동 2768-1,중문대포주상절리대,126.42601106402861,"여행 > 관광,명소 > 바위",064-738-1521,33.23798494731946
신도포구,True,http://place.map.kakao.com/13725869,신도포구,제주특별자치도 서귀포시 대정읍 신도리,신도포구,126.170602638288,"교통,수송 > 교통시설 > 항구,포구",,33.2768006524887
차귀도포구,True,http://place.map.kakao.com/25046666,차귀도포구,제주특별자치도 제주시 한경면 고산리 3616-15,차귀도포구,126.165372766829,"교통,수송 > 교통시설 > 항구,포구",,33.3093132718988
사수도,True,http://place.map.kakao.com/17439264,사수도,제주특별자치도 제주시 추자면 예초리,사수도,126.638801573087,"여행 > 관광,명소 > 섬",,33.9204431910529
하우목동항,True,http://place.map.kakao.com/13723531,하우목동항,제주특별자치도 제주시 우도면 연평리 2395-3,하우목동항,126.942931201994,"교통,수송 > 교통시설 > 항구,포구",,33.509481803793
가파도,True,http://place.map.kakao.com/8137083,가파도,제주특별자치도 서귀포시 대정읍 가파리 276,가파도,126.27141034691293,"여행 > 관광,명소 > 섬",,33.170012123095724
마라도,True,http://place.map.kakao.com/7854559,마라도,제주특별자치도 서귀포시 대정읍 가파리 600,마라도,126.26716775629039,"여행 > 관광,명소 > 섬",,33.1184872365732
위미항,True,http://place.map.kakao.com/8037812,위미항,제주특별자치도 서귀포시 남원읍,위미항,126.661445396967,"교통,수송 > 교통시설 > 항구,포구",,33.269920656371
하효항,True,http://place.map.kakao.com/10944021,하효항,제주특별자치도 서귀포시 신효동,하효항,126.620742799447,"교통,수송 > 교통시설 > 항구,포구",,33.248546295027
도두항,True,http://place.map.kakao.com/866377424,도두항,제주특별자치도 제주시 도두일동 2605-8,도두항,126.466549956171,"교통,수송 > 교통시설 > 항구,포구",,33.5073979938833
용담포구,True,http://place.map.kakao.com/8022571,용담포구,제주특별자치도 제주시 용담삼동,용담포구,126.50071541358322,"교통,수송 > 교통시설 > 항구,포구",,33.5184126560299
강정항,True,http://place.map.kakao.com/22102651,강정항,제주특별자치도 서귀포시 강정동,강정항,126.473198630579,"교통,수송 > 교통시설 > 항구,포구",,33.2261137323429
조천항,True,http://place.map.kakao.com/24202392,조천항,제주특별자치도 제주시 조천읍 조천리 2714-5,조천항,126.634057035467,"교통,수송 > 교통시설 > 항구,포구",,33.5420285438212
애월항,True,http://place.map.kakao.com/1204411270,애월항,제주특별자치도 제주시 애월읍,애월항,126.322347843693,"교통,수송 > 교통시설 > 항구,포구",,33.4670343928772
횡간도,True,http://place.map.kakao.com/18376911,횡간도,전남 완도군 소안면 횡간리,횡간도,126.608947672791,"여행 > 관광,명소 > 섬",,34.2415713804945
대관탈도,True,http://place.map.kakao.com/14880319,대관탈도,제주특별자치도 제주시 추자면 묵리,대관탈도,126.357488211301,"여행 > 관광,명소 > 섬",,33.7293325500492
흑검도,True,http://place.map.kakao.com/20152330,흑검도,제주특별자치도 제주시 추자면 대서리 153-1,흑검도,126.349365738555,"여행 > 관광,명소 > 섬",,33.9823856044676
직구도,True,http://place.map.kakao.com/20152335,직구도,제주특별자치도 제주시 추자면 대서리 150-2,직구도,126.249843616539,"여행 > 관광,명소 > 섬",,33.987913278152
고내포구,True,http://place.map.kakao.com/8175875,고내포구,제주특별자치도 제주시 애월읍 고내리,고내포구,126.337762877618,"교통,수송 > 교통시설 > 항구,포구",,33.4673376896342
신엄리방파제,True,http://place.map.kakao.com/927796042,신엄리방파제,제주특별자치도 제주시 한림읍 귀덕리 4110-9,귀덕2리 방파제,126.278122925449,"교통,수송 > 교통시설 > 선착장,항만시설 > 방파제",,33.4436320996629
절명이,True,http://place.map.kakao.com/24710649,절명이,제주특별자치도 제주시 추자면 신양리 산 157,절명여,126.3121541281015,"여행 > 관광,명소 > 섬",,33.8673289673467
가문동포구,True,http://place.map.kakao.com/1878711618,가문동포구,제주특별자치도 제주시 애월읍 하귀2리 2696-1,가문동포구,126.392493402088,"교통,수송 > 교통시설 > 항구,포구",,33.4862484035197
이호방파제,True,http://place.map.kakao.com/27054613,이호방파제,제주특별자치도 제주시 이호일동,이호방파제,126.452898734152,"교통,수송 > 교통시설 > 선착장,항만시설 > 방파제",,33.5033282008353
도두방파제,True,http://place.map.kakao.com/27020368,도두방파제,제주특별자치도 제주시 도두일동 2605-3,도두북방파제,126.46569388004,"교통,수송 > 교통시설 > 선착장,항만시설 > 방파제",,33.5086998039449
화북방파제,True,http://place.map.kakao.com/1095267057,화북방파제,제주특별자치도 제주시 화북일동 4275-8,화북방파제,126.564955063692,"교통,수송 > 교통시설 > 선착장,항만시설 > 방파제",,33.5271722580456
삼양방파제,True,http://place.map.kakao.com/1618613753,삼양방파제,제주특별자치도 제주시 삼양일동 1912-1,삼양방파제,126.589725494432,"교통,수송 > 교통시설 > 선착장,항만시설 > 방파제",,33.5316475362197
신흥리방파제,True,http://place.map.kakao.com/1618613753,신흥리방파제,제주특별자치도 제주시 삼양일동 1912-1,삼양방파제,126.589725494432,"교통,수송 > 교통시설 > 선착장,항만시설 > 방파제",,33.5316475362197
정주항,True,http://place.map.kakao.com/25478412,정주항,제주특별자치도 제주시 조천읍 함덕리,정주항,126.662035141249,"교통,수송 > 교통시설 > 항구,포구",,33.5471209149605
신천리방파제,True,http://place.map.kakao.com/1983442424,신천리방파제,부산 기장군 기장읍 죽성리,월전방파제,129.245430702631,"교통,수송 > 교통시설 > 선착장,항만시설 > 방파제",,35.2375231967794
남원항,True,http://place.map.kakao.com/7904443,남원항,제주특별자치도 서귀포시 남원읍 남원리,남원포구,126.718855528961,"교통,수송 > 교통시설 > 항구,포구",,33.2779692483502
지귀도,True,http://place.map.kakao.com/8520109,지귀도,제주특별자치도 서귀포시 남원읍 위미리,지귀도,126.655224966473,"여행 > 관광,명소 > 섬",,33.2249552746493
보목항,True,http://place.map.kakao.com/7892575,보목항,제주특별자치도 서귀포시 보목동,보목포구,126.608156797506,"교통,수송 > 교통시설 > 항구,포구",,33.2391771777761
섶섬,True,http://place.map.kakao.com/7956506,섶섬,제주특별자치도 서귀포시 보목동,섶섬,126.599014291913,"여행 > 관광,명소 > 섬",,33.229991044939
문섬,True,http://place.map.kakao.com/8312353,문섬,제주특별자치도 서귀포시 서귀동 산 4,문섬,126.566052068164,"여행 > 관광,명소 > 섬",064-760-2652,33.2266056999868
법환항,True,http://place.map.kakao.com/1987604878,법환항,제주특별자치도 서귀포시 법환동 286-4,법환항,126.516262095902,"교통,수송 > 교통시설 > 항구,포구",,33.2366645905726
월평포구,True,http://place.map.kakao.com/13723492,월평포구,제주특별자치도 서귀포시 강정동,월평포구,126.463292619695,"교통,수송 > 교통시설 > 항구,포구",,33.2341860417803
대포항,True,http://place.map.kakao.com/10324177,대포항,강원특별자치도 속초시 대포동,대포항,128.609131231383,"교통,수송 > 교통시설 > 항구,포구",033-639-2690,38.172227102312
사계항,True,http://place.map.kakao.com/7915927,사계항,제주특별자치도 서귀포시 안덕면 사계리 2147-33,사계항,126.306761657104,"교통,수송 > 교통시설 > 항구,포구",,33.2275156202386
운진항,True,http://place.map.kakao.com/19761654,운진항,제주특별자치도 서귀포시 대정읍 하모리 646-21,운진항,126.257809910038,"교통,수송 > 교통시설 > 항구,포구",,33.2095579509006
일과리방파제,True,http://place.map.kakao.com/25016692,일과리방파제,제주특별자치도 서귀포시 대정읍 일과리 1291-4,일과리방파제,126.227627749132,"교통,수송 > 교통시설 > 선착장,항만시설 > 방파제",,33.2393799047633
신창항,True,http://place.map.kakao.com/25712589,신창항,제주특별자치도 제주시 한경면 신창리,신창항,126.180289235143,"교통,수송 > 교통시설 > 항구,포구",,33.3483469445556
살레덕,True,http://place.map.kakao.com/7912567,살레덕,제주특별자치도 서귀포시 대정읍 가파리,살레덕선착장,126.269469206816,"교통,수송 > 교통시설 > 선착장,항만시설",,33.1218557148423
우도항,True,http://place.map.kakao.com/18377101,우도항,경남 통영시 욕지면 연화리,우도항(통영),128.344371105353,"교통,수송 > 교통시설 > 항구,포구",,34.6574865851603
천진항,True,http://place.map.kakao.com/8539338,천진항,제주특별자치도 제주시 우도면 연평리,천진항,126.95018658277,"교통,수송 > 교통시설 > 항구,포구",,33.4922895391094
